{"type":"FeatureCollection","features":[{"type":"Feature","properties":{"regime":"楚","kind":"power","color":"#96566b","note":null,"precision":1,"labelLng":114.21,"labelLat":32.28},"geometry":{"type":"MultiPolygon","coordinates":[[[[104.681,29.832],[104.8,28.049],[105.81,27.217],[108.069,27.068],[109.673,29.178],[110.981,29.238],[112.067,28.419],[115.896,28.701],[118.5,29.041],[118.5,33],[120.658,33],[120.34,33.336],[120.149,33.894],[119.974,34.135],[119.3,34.591],[119.021,34.692],[119.003,34.939],[119.06,35.041],[119.383,35.3],[118.5,35.3],[118.5,34.5],[117.5,34.5],[117.5,33.6],[111,33.6],[111,35],[110.2,35],[110.2,32.5],[106.579,32.5],[105.157,31.021],[104.681,29.832]]],[[[111.311,38.8],[112.5,38.8],[112.5,39.12],[111.392,38.892],[111.311,38.8]]]]}},{"type":"Feature","properties":{"regime":"晋","kind":"power","color":"#4f6d8f","note":null,"precision":1,"labelLng":112.81,"labelLat":36.79},"geometry":{"type":"Polygon","coordinates":[[[108,35],[115.8,35],[115.8,35.9],[116.5,35.9],[116.5,38.8],[111.311,38.8],[110.603,37.991],[108,36.932],[108,35]]]}},{"type":"Feature","properties":{"regime":"秦","kind":"power","color":"#a8503c","note":null,"precision":1,"labelLng":106.67,"labelLat":34.22},"geometry":{"type":"Polygon","coordinates":[[[104.325,34.408],[104.563,33.873],[105.335,33.992],[106.048,34.289],[106.226,33.992],[105.276,33.457],[105.632,33.101],[106.524,32.922],[106.642,32.566],[106.579,32.5],[110.2,32.5],[110.2,35],[108,35],[108,36.932],[107.281,36.64],[107.228,35.557],[105.335,35.062],[104.325,34.408]]]}},{"type":"Feature","properties":{"regime":"齐","kind":"power","color":"#a9834a","note":null,"precision":1,"labelLng":119.61,"labelLat":36.99},"geometry":{"type":"Polygon","coordinates":[[[116.5,35.9],[118.5,35.9],[118.5,35.3],[119.383,35.3],[119.907,35.768],[119.976,35.934],[119.914,36.143],[120.139,36.195],[120.27,35.985],[120.505,36.056],[120.537,36.387],[120.855,36.584],[121.61,36.834],[121.847,36.86],[122.256,36.734],[122.393,37.301],[121.895,37.376],[121.434,37.337],[120.658,37.736],[120.169,37.576],[119.599,37.117],[119.284,37.046],[118.955,37.077],[118.837,37.204],[118.812,37.446],[118.875,37.949],[118.745,38.064],[118.2,38.044],[117.589,38.284],[117.44,38.603],[117.51,38.766],[116.5,38.8],[116.5,35.9]]]}},{"type":"Feature","properties":{"regime":"吴","kind":"power","color":"#6d8a5b","note":null,"precision":1,"labelLng":120.88,"labelLat":31.15},"geometry":{"type":"Polygon","coordinates":[[[118.5,29.8],[121.772,29.8],[121.391,29.922],[121.083,30.214],[120.863,30.188],[120.438,29.997],[119.944,30.116],[120.609,30.346],[121.035,30.595],[121.569,30.71],[121.632,30.793],[121.64,30.926],[121.499,31.281],[121.268,31.452],[121.623,31.618],[121.606,31.828],[121.231,32.062],[121.051,32.328],[120.661,32.543],[120.719,32.848],[120.658,33],[118.5,33],[118.5,29.8]]]}},{"type":"Feature","properties":{"regime":"周及中原诸国","kind":"power","color":"#8f8a6b","note":null,"precision":1,"labelLng":114.77,"labelLat":34.37},"geometry":{"type":"Polygon","coordinates":[[[111,33.6],[117.5,33.6],[117.5,34.5],[115.8,34.5],[115.8,35],[111,35],[111,33.6]]]}},{"type":"Feature","properties":{"regime":"燕","kind":"power","color":"#7d6a99","note":null,"precision":1,"labelLng":116.73,"labelLat":39.4},"geometry":{"type":"Polygon","coordinates":[[[112.5,38.8],[117.525,38.8],[117.753,39.203],[117.91,39.26],[118.07,39.254],[118.275,39],[118.559,39.172],[118.978,39.224],[119.385,39.843],[117.933,40.232],[116.983,40.351],[114.32,40.018],[113.588,39.343],[112.5,39.12],[112.5,38.8]]]}},{"type":"Feature","properties":{"regime":"鲁","kind":"power","color":"#6f8a7d","note":null,"precision":1,"labelLng":117.15,"labelLat":35.2},"geometry":{"type":"Polygon","coordinates":[[[115.8,34.5],[118.5,34.5],[118.5,35.9],[115.8,35.9],[115.8,34.5]]]}},{"type":"Feature","properties":{"regime":"越","kind":"power","color":"#5f8a87","note":null,"precision":1,"labelLng":120.03,"labelLat":29.5},"geometry":{"type":"Polygon","coordinates":[[[118.5,29.041],[121.362,29.414],[121.774,29.764],[118.5,29.8],[118.5,29.041]]]}}]}