{"type":"FeatureCollection","features":[{"type":"Feature","properties":{"regime":"东察合台","kind":"tribe","color":"#8f8a6b","note":null,"precision":1,"labelLng":109.62,"labelLat":42.38},"geometry":{"type":"MultiPolygon","coordinates":[[[[87.206,49.606],[97.994,55],[126.088,55],[136,53.716],[136,44.381],[135.415,44.037],[134.962,43.515],[134.569,43.212],[134.139,42.993],[132.953,42.67],[132.827,42.862],[132.485,42.88],[132.333,42.964],[132.182,43.195],[131.675,43.027],[131.865,43.29],[119.604,42.03],[102.926,39.018],[95.592,38.945],[95.15,37.692],[95.519,37.102],[91.686,36.365],[90,36.512],[89.917,35.996],[90,35.628],[89.917,35.186],[86.821,35.112],[82.693,34.743],[78,34.872],[78,46.943],[85.516,48.411],[87.774,49.282],[87.206,49.606]]]]}},{"type":"Feature","properties":{"regime":"明","kind":"dynasty","color":"#a8503c","note":null,"precision":1,"labelLng":112.5,"labelLat":33.5},"geometry":{"type":"MultiPolygon","coordinates":[[[[95.15,37.692],[95.519,37.102],[101.688,36.307],[102.406,33.721],[100.682,28.691],[98.637,27.479],[98.564,24.71],[99.592,22.998],[99.841,20.482],[100.377,20.302],[100.435,20.036],[101.657,19.661],[101.851,20.532],[105.412,21.902],[106.234,21.697],[107.466,20.976],[107.418,21.186],[107.876,21.462],[108.266,21.473],[108.387,21.531],[108.467,21.785],[108.555,21.823],[108.813,21.494],[109.117,21.399],[109.322,21.431],[109.414,21.565],[109.516,21.597],[109.78,21.483],[109.608,21.057],[109.603,20.879],[109.712,20.568],[109.928,20.245],[110.271,20.315],[110.434,20.436],[110.414,20.525],[110.293,20.582],[110.077,20.867],[110.234,21.255],[110.566,21.231],[110.75,21.377],[111.086,21.479],[111.434,21.461],[111.831,21.754],[112.04,21.659],[112.75,21.756],[112.871,22.061],[113.097,21.979],[113.284,22.03],[113.378,22.164],[113.419,22.571],[113.377,22.647],[113.463,22.774],[113.717,22.482],[113.845,22.463],[113.989,22.553],[114.537,22.675],[114.559,22.465],[114.848,22.51],[115.186,22.746],[115.309,22.771],[115.707,22.639],[115.86,22.836],[116.341,22.913],[116.452,23.25],[116.709,23.346],[116.963,23.556],[117.406,23.69],[117.849,24.047],[117.796,24.422],[117.925,24.562],[118.346,24.467],[118.531,24.69],[118.813,24.849],[119.096,25.441],[119.335,25.53],[119.429,25.651],[119.436,26.038],[119.555,26.267],[119.429,26.591],[119.971,26.789],[120.084,26.986],[120.352,27.177],[120.506,27.59],[120.942,28.213],[121.009,28.277],[121.166,28.125],[121.26,28.182],[121.359,28.386],[121.433,28.837],[121.649,29.32],[121.411,29.345],[121.362,29.414],[121.67,29.625],[121.77,29.834],[121.391,29.922],[121.083,30.214],[120.863,30.188],[120.438,29.997],[119.944,30.116],[120.609,30.346],[121.035,30.595],[121.569,30.71],[121.64,30.926],[121.499,31.281],[121.268,31.452],[121.623,31.618],[121.606,31.828],[121.231,32.062],[121.051,32.328],[120.661,32.543],[120.719,32.848],[120.641,33.045],[120.34,33.336],[120.149,33.894],[119.974,34.135],[119.3,34.591],[119.021,34.692],[119.003,34.939],[119.907,35.768],[119.976,35.934],[119.914,36.143],[120.139,36.195],[120.27,35.985],[120.505,36.056],[120.537,36.387],[120.855,36.584],[121.61,36.834],[121.847,36.86],[122.256,36.734],[122.393,37.301],[121.895,37.376],[121.434,37.337],[120.658,37.736],[120.169,37.576],[119.599,37.117],[119.284,37.046],[118.955,37.077],[118.837,37.204],[118.812,37.446],[118.875,37.949],[118.745,38.064],[118.2,38.044],[117.841,38.164],[117.589,38.284],[117.479,38.45],[117.44,38.603],[117.753,39.203],[118.07,39.254],[118.275,39],[118.559,39.172],[118.978,39.224],[119.385,39.843],[119.824,40.042],[120.273,40.152],[121.011,40.851],[121.368,40.871],[121.754,40.737],[122.082,40.488],[122.108,40.354],[121.239,39.554],[121.282,39.35],[121.449,39.382],[121.66,39.332],[121.124,38.865],[121.065,38.75],[121.488,38.879],[122.027,39.256],[123.039,39.672],[124.104,39.885],[124.443,39.573],[124.548,39.541],[124.922,39.619],[125.207,39.485],[125.296,39.364],[129.641,41.656],[129.825,41.861],[131.065,42.749],[131.584,43.213],[131.865,43.29],[119.604,42.03],[102.926,39.018],[95.592,38.945],[95.15,37.692]]],[[[113.836,22.214],[114.022,22.228],[114.031,22.31],[113.902,22.291],[113.836,22.214]]],[[[113.901,22.407],[114.144,22.331],[114.134,22.172],[114.263,22.204],[114.413,22.437],[114.309,22.554],[114.166,22.561],[113.901,22.407]]],[[[120.072,23.15],[120.326,22.542],[120.581,22.356],[120.69,22.033],[120.84,21.925],[120.947,22.503],[121.397,23.173],[121.613,24.053],[121.828,24.534],[121.82,24.825],[121.929,24.974],[121.905,25.056],[121.517,25.277],[121.041,25.033],[120.159,23.709],[120.072,23.15]]]]}},{"type":"Feature","properties":{"regime":"乌思藏","kind":"power","color":"#b87a5e","note":null,"precision":1,"labelLng":92.7,"labelLat":30.6},"geometry":{"type":"MultiPolygon","coordinates":[[[[80.054,29.982],[78,31.7],[78,34.872],[82.693,34.743],[86.821,35.112],[89.917,35.186],[90,35.628],[89.917,35.996],[90,36.512],[91.686,36.365],[95.519,37.102],[101.688,36.307],[102.406,33.721],[100.682,28.691],[98.637,27.479],[98.572,27.542],[98.216,27.546],[98.118,27.685],[98.009,28.091],[97.83,28.286],[97.603,28.412],[97.478,28.392],[97.34,28.182],[95.478,27.909],[94.837,27.567],[94.324,26.883],[92.401,26.584],[91.547,26.285],[91.022,26.414],[88.664,26.414],[86.231,27.004],[80.054,29.982]]]]}},{"type":"Feature","properties":{"regime":"瓦剌","kind":"tribe","color":"#8d857a","note":null,"precision":1,"labelLng":84.67,"labelLat":53.68},"geometry":{"type":"MultiPolygon","coordinates":[[[[97.994,55],[87.206,49.606],[78.805,54.394],[79.301,54.399],[80.026,55],[97.994,55]]]]}},{"type":"Feature","properties":{"regime":"朝鲜","kind":"power","color":"#a9834a","note":null,"precision":1,"labelLng":127.17,"labelLat":37.35},"geometry":{"type":"MultiPolygon","coordinates":[[[[128.144,38.535],[128.451,38.255],[129.129,37.308],[129.25,37.009],[129.178,35.959],[129.242,35.908],[129.467,35.927],[129.412,35.743],[128.918,35.03],[128.809,35.01],[128.553,35.105],[128.164,34.799],[127.971,34.837],[127.84,34.938],[127.596,34.894],[127.359,34.804],[126.824,34.429],[126.617,34.409],[126.41,34.269],[126.225,35.164],[126.3,35.368],[126.525,35.578],[126.525,35.737],[126.626,35.928],[126.437,36.131],[126.361,36.627],[125.96,36.722],[126.391,36.959],[126.685,36.838],[126.8,36.947],[126.786,37.074],[126.443,37.474],[126.392,37.614],[126.21,37.754],[125.909,37.511],[125.741,37.785],[125.562,37.836],[125.269,37.485],[125.077,37.771],[124.77,37.936],[124.694,38.14],[124.736,38.28],[124.929,38.465],[125.269,38.568],[125.294,38.689],[125.028,38.816],[125.296,39.364],[129.641,41.656],[129.591,41.47],[129.631,41.278],[129.478,40.682],[129.177,40.63],[128.447,40.066],[128.236,39.97],[127.931,39.956],[127.672,39.866],[127.441,39.624],[127.277,39.222],[128.144,38.535]]]]}},{"type":"Feature","properties":{"regime":"大越","kind":"power","color":"#6d8a5b","note":null,"precision":1,"labelLng":106.23,"labelLat":18.89},"geometry":{"type":"MultiPolygon","coordinates":[[[[107.466,20.976],[107.374,20.881],[106.807,20.905],[106.746,20.816],[106.772,20.638],[106.381,20.11],[105.965,19.881],[105.843,19.702],[105.533,18.844],[106.364,18.007],[106.433,17.55],[106.622,17.328],[107.115,16.955],[107.809,16.283],[108.095,16.252],[108.258,16],[107.166,16],[107.108,16.17],[106.638,16.484],[105.099,18.431],[104.528,18.936],[103.899,19.313],[103.358,20.053],[102.98,20.966],[105.412,21.902],[106.234,21.697],[107.466,20.976]]]]}},{"type":"Feature","properties":{"regime":"日本","kind":"power","color":"#75798a","note":null,"precision":1,"labelLng":133.73,"labelLat":34.62},"geometry":{"type":"MultiPolygon","coordinates":[[[[136,33.736],[135.756,33.342],[135.063,33.69],[134.969,34.134],[135.317,34.471],[135.287,34.598],[135.206,34.617],[134.936,34.54],[134.427,34.628],[133.825,34.386],[133.589,34.442],[132.481,34.129],[132.387,34.269],[132.183,34.287],[131.997,34.09],[131.995,33.804],[131.655,33.912],[130.899,33.904],[130.779,33.967],[130.892,34.246],[131.334,34.292],[131.672,34.502],[132.663,35.381],[132.981,35.445],[133.006,35.254],[133.804,35.427],[134.756,35.531],[135.157,35.646],[135.188,35.443],[135.358,35.323],[135.727,35.45],[135.928,35.604],[135.978,35.973],[136,33.736]]],[[[132.568,32.637],[132.343,33.107],[132.121,33.348],[132.45,33.52],[132.784,33.908],[132.969,33.794],[133.245,33.801],[133.463,33.884],[133.806,34.176],[134.01,34.189],[134.54,34.013],[134.61,33.899],[134.519,33.651],[133.999,33.148],[133.727,33.376],[133.517,33.395],[133.241,33.299],[132.901,32.67],[132.699,32.549],[132.568,32.637]]],[[[130.579,30.907],[130.554,30.97],[130.732,31.478],[130.582,31.529],[130.474,31.44],[130.404,31.23],[130.233,31.026],[130.086,31.121],[130.06,31.217],[130.205,31.426],[130.219,31.56],[130.059,31.972],[130.444,32.284],[130.497,32.557],[130.257,32.912],[130.108,32.931],[129.846,32.587],[129.734,32.638],[129.63,32.866],[129.343,33.151],[129.528,33.298],[129.858,33.26],[130.176,33.337],[130.427,33.674],[130.644,33.7],[130.859,33.675],[131.093,33.428],[131.286,33.39],[131.569,33.486],[131.67,33.309],[131.414,33.111],[131.795,32.807],[131.831,32.693],[131.454,32.248],[131.319,31.511],[131.211,31.352],[130.96,31.193],[130.744,30.888],[130.579,30.907]]]]}}]}