{"type":"FeatureCollection","features":[{"type":"Feature","properties":{"regime":"蒙古诸部","kind":"tribe","color":"#8d857a","note":null,"precision":1,"labelLng":112.97,"labelLat":49.2},"geometry":{"type":"MultiPolygon","coordinates":[[[[136,44.381],[135.415,44.037],[134.962,43.515],[134.569,43.212],[134.139,42.993],[132.953,42.67],[132.827,42.862],[132.485,42.88],[132.333,42.964],[132.182,43.195],[131.675,43.027],[131.865,43.29],[133.399,44.671],[133.709,45.414],[133.028,46.529],[131.913,46.529],[127.578,44.423],[123.614,43.99],[120.084,43.804],[113.828,43.247],[108.361,41.508],[103.063,41.202],[101.432,41.202],[98.987,41.813],[96.236,41.508],[92.263,42.119],[91.346,42.119],[88.188,41.406],[86.911,41.406],[88.658,55],[126.482,55],[136,52.723],[136,44.381]],[[108.991,55],[108.224,53.976],[107.627,53.611],[107.547,53.453],[106.852,53.103],[106.78,53.045],[106.873,53.029],[106.881,52.973],[106.537,52.706],[106.06,52.512],[105.57,52.108],[105.165,51.906],[103.713,51.694],[104.156,51.535],[104.655,51.482],[105.798,51.701],[106.187,51.956],[106.314,52.323],[106.497,52.383],[106.806,52.329],[106.938,52.475],[107.099,52.542],[107.948,52.78],[108.288,52.989],[108.335,53.038],[108.297,53.093],[108.392,53.163],[108.661,53.302],[108.931,53.344],[108.989,53.45],[108.921,53.566],[108.545,53.508],[108.944,53.862],[109.061,53.804],[109.009,53.668],[109.178,53.638],[109.244,53.869],[109.556,54.154],[109.496,54.262],[109.523,54.559],[109.747,55],[108.991,55]]],[[[107.639,53.22],[107.438,53.103],[106.963,53.023],[106.995,53.107],[107.795,53.393],[107.767,53.267],[107.639,53.22]]]]}},{"type":"Feature","properties":{"regime":"吐蕃诸部","kind":"tribe","color":"#7d6a99","note":null,"precision":1,"labelLng":90.7,"labelLat":32.37},"geometry":{"type":"MultiPolygon","coordinates":[[[[103.203,34.105],[103.155,33.283],[100.687,31.395],[100.493,30.088],[100.682,28.691],[98.637,27.479],[96.428,26.701],[94.492,26.507],[94.153,27.668],[91.83,27.277],[86.409,27.33],[85.088,27.692],[85.862,28.201],[83.543,29.285],[82.036,30.191],[81.108,30.191],[80.673,29.683],[80.054,29.982],[79.808,30.709],[79.808,31.161],[80.079,31.884],[79.808,33.058],[79.898,34.051],[79.833,35.497],[88.086,38.146],[87.678,38.655],[88.289,38.961],[92.569,38.757],[96.236,38.757],[97.459,38.553],[99.802,37.84],[102.044,37.738],[101.688,36.307],[102.088,34.866],[103.203,34.105]]]]}},{"type":"Feature","properties":{"regime":"南宋","kind":"dynasty","color":"#a8503c","note":null,"precision":1,"labelLng":114.88,"labelLat":25.6},"geometry":{"type":"MultiPolygon","coordinates":[[[[100.493,30.088],[100.682,28.691],[101.219,26.991],[102.961,26.797],[105.188,25.829],[107.418,21.186],[107.876,21.462],[108.266,21.473],[108.387,21.531],[108.467,21.785],[108.555,21.823],[108.813,21.494],[109.117,21.399],[109.322,21.431],[109.414,21.565],[109.516,21.597],[109.78,21.483],[109.608,21.057],[109.603,20.879],[109.712,20.568],[109.928,20.245],[110.271,20.315],[110.434,20.436],[110.414,20.525],[110.293,20.582],[110.077,20.867],[110.234,21.255],[110.566,21.231],[110.75,21.377],[111.086,21.479],[111.434,21.461],[111.831,21.754],[112.04,21.659],[112.75,21.756],[112.871,22.061],[113.097,21.979],[113.284,22.03],[113.378,22.164],[113.419,22.571],[113.377,22.647],[113.463,22.774],[113.717,22.482],[113.845,22.463],[113.989,22.553],[114.537,22.675],[114.559,22.465],[114.848,22.51],[115.309,22.771],[115.707,22.639],[115.86,22.836],[116.341,22.913],[116.452,23.25],[116.709,23.346],[116.963,23.556],[117.406,23.69],[117.849,24.047],[117.796,24.422],[117.861,24.511],[117.925,24.562],[118.346,24.467],[118.531,24.69],[118.813,24.849],[119.096,25.441],[119.335,25.53],[119.429,25.651],[119.436,26.038],[119.555,26.267],[119.429,26.591],[119.601,26.693],[119.857,26.706],[120.084,26.986],[120.352,27.177],[120.506,27.59],[121.009,28.277],[121.166,28.125],[121.26,28.182],[121.359,28.386],[121.433,28.837],[121.649,29.32],[121.411,29.345],[121.362,29.414],[121.774,29.764],[121.77,29.834],[121.391,29.922],[121.083,30.214],[120.863,30.188],[120.438,29.997],[119.944,30.116],[120.609,30.346],[121.035,30.595],[121.569,30.71],[121.632,30.793],[121.64,30.926],[121.499,31.281],[121.268,31.452],[121.623,31.618],[121.606,31.828],[121.231,32.062],[121.051,32.328],[120.738,32.461],[120.661,32.543],[120.691,32.7],[110.5,32.7],[110.5,33.8],[103.185,33.8],[103.155,33.283],[100.687,31.395],[100.493,30.088]]],[[[113.836,22.214],[114.022,22.228],[114.031,22.31],[113.902,22.291],[113.836,22.214]]],[[[113.901,22.407],[114.144,22.331],[114.134,22.172],[114.263,22.204],[114.413,22.437],[114.309,22.554],[114.166,22.561],[113.901,22.407]]]]}},{"type":"Feature","properties":{"regime":"金","kind":"power","color":"#4f6d8f","note":null,"precision":1,"labelLng":115.5,"labelLat":36.5},"geometry":{"type":"Polygon","coordinates":[[[101.688,36.307],[102.088,34.866],[103.203,34.105],[103.185,33.8],[110.5,33.8],[110.5,32.7],[120.691,32.7],[120.719,32.848],[120.641,33.045],[120.34,33.336],[120.149,33.894],[119.974,34.135],[119.3,34.591],[119.021,34.692],[119.003,34.939],[119.907,35.768],[119.976,35.934],[119.914,36.143],[120.139,36.195],[120.27,35.985],[120.505,36.056],[120.537,36.387],[120.855,36.584],[121.61,36.834],[121.847,36.86],[122.256,36.734],[122.393,37.301],[121.895,37.376],[121.434,37.337],[120.658,37.736],[120.169,37.576],[119.599,37.117],[119.284,37.046],[118.955,37.077],[118.837,37.204],[118.812,37.446],[118.875,37.949],[118.745,38.064],[118.2,38.044],[117.841,38.164],[117.589,38.284],[117.479,38.45],[117.44,38.603],[117.753,39.203],[118.07,39.254],[118.275,39],[118.559,39.172],[118.978,39.224],[119.385,39.843],[119.824,40.042],[120.273,40.152],[121.011,40.851],[121.427,40.864],[121.754,40.737],[122.082,40.488],[122.108,40.354],[121.239,39.554],[121.282,39.35],[121.449,39.382],[121.66,39.332],[121.124,38.865],[121.065,38.75],[121.216,38.757],[122.027,39.256],[123.039,39.672],[123.917,39.808],[129.825,41.861],[131.065,42.749],[131.584,43.213],[131.865,43.29],[133.399,44.671],[133.709,45.414],[133.028,46.529],[131.913,46.529],[127.578,44.423],[123.614,43.99],[120.084,43.804],[113.828,43.247],[108.361,41.508],[109.379,41.202],[110.5,39.878],[109.889,37.942],[108.972,37.738],[102.044,37.738],[101.688,36.307]]]}},{"type":"Feature","properties":{"regime":"西辽","kind":"power","color":"#7d6a99","note":null,"precision":1,"labelLng":81.17,"labelLat":43.68},"geometry":{"type":"MultiPolygon","coordinates":[[[[78,55],[88.658,55],[86.911,41.406],[85.946,41.406],[85.233,40.998],[85.131,40.183],[85.844,39.572],[88.289,38.961],[87.678,38.655],[88.086,38.146],[79.833,35.497],[79.898,34.051],[79.808,33.058],[78,33.133],[78,55]],[[78.93,46.788],[78.823,46.795],[78.761,46.724],[78.63,46.747],[78.476,46.625],[78.368,46.643],[78.297,46.469],[78.169,46.58],[78,46.621],[78,46.353],[78.409,46.299],[78.465,46.392],[78.971,46.406],[79.095,46.582],[79.245,46.645],[79.122,46.799],[78.93,46.788]]]]}},{"type":"Feature","properties":{"regime":"西夏","kind":"power","color":"#a9834a","note":null,"precision":1,"labelLng":97.14,"labelLat":40.11},"geometry":{"type":"MultiPolygon","coordinates":[[[[102.044,37.738],[99.802,37.84],[97.459,38.553],[96.236,38.757],[92.569,38.757],[88.289,38.961],[85.844,39.572],[85.131,40.183],[85.233,40.998],[85.946,41.406],[88.188,41.406],[91.346,42.119],[92.263,42.119],[96.236,41.508],[98.987,41.813],[101.432,41.202],[103.063,41.202],[108.361,41.508],[109.379,41.202],[110.5,39.878],[109.889,37.942],[108.972,37.738],[102.044,37.738]]]]}},{"type":"Feature","properties":{"regime":"大理","kind":"power","color":"#5f8a87","note":null,"precision":1,"labelLng":102.84,"labelLat":23.31},"geometry":{"type":"MultiPolygon","coordinates":[[[[101.008,21.423],[99.428,21.667],[98.583,25.401],[101.219,26.991],[102.961,26.797],[105.188,25.829],[106.585,22.919],[104.849,21.764],[104.558,20.167],[104.026,20.118],[101.008,21.423]]]]}},{"type":"Feature","properties":{"regime":"高丽","kind":"power","color":"#a9834a","note":null,"precision":1,"labelLng":127.04,"labelLat":36.58},"geometry":{"type":"MultiPolygon","coordinates":[[[[126.599,33.233],[126.261,33.194],[126.158,33.279],[126.372,33.473],[126.891,33.525],[126.941,33.454],[126.847,33.312],[126.599,33.233]]],[[[126.739,34.279],[126.655,34.371],[126.731,34.364],[126.739,34.279]]],[[[127.161,34.414],[127.132,34.474],[127.239,34.474],[127.161,34.414]]],[[[127.786,34.474],[127.716,34.517],[127.751,34.542],[127.786,34.474]]],[[[126.18,34.351],[126.1,34.419],[126.239,34.57],[126.377,34.499],[126.347,34.405],[126.18,34.351]]],[[[127.8,34.572],[127.733,34.636],[127.768,34.664],[127.8,34.572]]],[[[125.972,34.647],[125.956,34.713],[126.003,34.7],[125.972,34.647]]],[[[126.001,34.79],[125.904,34.718],[125.894,34.764],[126.001,34.79]]],[[[128.081,34.828],[127.973,34.852],[128.008,34.908],[128.081,34.828]]],[[[126.042,34.854],[125.993,34.858],[126.058,34.926],[126.042,34.854]]],[[[127.962,34.798],[128.056,34.813],[128.062,34.706],[127.853,34.739],[127.868,34.917],[127.915,34.93],[127.962,34.798]]],[[[128.743,34.788],[128.594,34.698],[128.604,34.809],[128.494,34.88],[128.711,34.977],[128.743,34.788]]],[[[126.1,35.046],[126.068,35.099],[126.156,35.146],[126.1,35.046]]],[[[126.421,36.399],[126.338,36.434],[126.353,36.593],[126.421,36.399]]],[[[126.164,36.824],[126.167,36.84],[126.174,36.829],[126.164,36.824]]],[[[130.876,37.45],[130.806,37.507],[130.912,37.546],[130.876,37.45]]],[[[126.449,37.592],[126.364,37.72],[126.372,37.63],[126.21,37.754],[125.909,37.511],[125.741,37.785],[125.562,37.836],[125.269,37.485],[125.077,37.771],[124.77,37.936],[124.694,38.14],[124.736,38.28],[124.929,38.465],[125.269,38.568],[125.294,38.689],[125.028,38.816],[125.296,39.364],[125.207,39.485],[124.922,39.619],[124.548,39.541],[124.443,39.573],[124.134,39.843],[129.825,41.861],[129.641,41.656],[129.591,41.47],[129.631,41.278],[129.478,40.682],[129.177,40.63],[128.447,40.066],[128.236,39.97],[127.931,39.956],[127.672,39.866],[127.441,39.624],[127.277,39.222],[128.27,38.42],[128.364,38.625],[128.626,38.144],[129.05,37.686],[129.342,37.257],[129.475,36.774],[129.387,36.036],[129.463,35.995],[129.557,36.079],[129.584,35.989],[129.439,35.476],[129.242,35.209],[129.137,35.112],[128.979,35.085],[128.974,35.135],[128.811,35.084],[128.573,35.17],[128.386,35.042],[128.501,35.008],[128.409,34.832],[128.329,34.949],[128.207,34.894],[128.021,34.986],[127.661,34.905],[127.593,34.942],[127.639,34.814],[127.774,34.844],[127.748,34.727],[127.641,34.617],[127.576,34.638],[127.522,34.857],[127.418,34.819],[127.364,34.751],[127.513,34.597],[127.389,34.471],[127.315,34.444],[127.129,34.528],[127.202,34.633],[127.242,34.569],[127.329,34.652],[127.338,34.738],[127.037,34.62],[126.897,34.449],[126.817,34.442],[126.766,34.573],[126.6,34.3],[126.478,34.345],[126.462,34.473],[126.273,34.634],[126.289,34.742],[126.417,34.596],[126.451,34.648],[126.606,34.617],[126.503,34.715],[126.661,34.807],[126.591,34.877],[126.515,34.779],[126.381,34.784],[126.434,34.964],[126.344,34.917],[126.248,35.11],[126.345,35.152],[126.416,35.02],[126.457,35.069],[126.361,35.18],[126.422,35.407],[126.523,35.525],[126.679,35.532],[126.471,35.604],[126.801,35.862],[126.62,35.889],[126.628,35.962],[126.854,36.035],[126.689,36],[126.544,36.136],[126.464,36.575],[126.497,36.724],[126.355,36.74],[126.316,36.599],[126.275,36.713],[126.193,36.671],[126.129,36.752],[126.286,36.96],[126.28,36.804],[126.401,36.852],[126.335,36.986],[126.393,37.005],[126.478,36.934],[126.468,36.843],[126.499,37.05],[126.761,36.97],[126.823,36.914],[126.829,36.766],[126.992,36.911],[126.756,37.044],[126.773,37.119],[126.859,37.139],[126.661,37.156],[126.659,37.249],[126.856,37.261],[126.722,37.328],[126.742,37.387],[126.626,37.471],[126.629,37.591],[126.546,37.652],[126.449,37.592]]],[[[124.652,37.914],[124.613,37.947],[124.732,37.976],[124.652,37.914]]]]}},{"type":"Feature","properties":{"regime":"大越","kind":"power","color":"#6d8a5b","note":null,"precision":1,"labelLng":105.86,"labelLat":19.36},"geometry":{"type":"MultiPolygon","coordinates":[[[[105.4,16.331],[104.933,17.451],[104.111,17.999],[103.058,17.999],[103.787,20.222],[104.026,20.118],[104.558,20.167],[104.849,21.764],[106.585,22.919],[107.418,21.186],[107.466,20.976],[107.374,20.881],[106.807,20.905],[106.746,20.816],[106.772,20.638],[106.381,20.11],[105.965,19.881],[105.843,19.702],[105.533,18.844],[106.364,18.007],[106.433,17.55],[106.622,17.328],[107.375,16.691],[106.204,16.053],[105.4,16.331]]]]}},{"type":"Feature","properties":{"regime":"日本","kind":"power","color":"#75798a","note":null,"precision":1,"labelLng":133.73,"labelLat":34.62},"geometry":{"type":"MultiPolygon","coordinates":[[[[130.579,30.907],[130.554,30.97],[130.732,31.478],[130.582,31.529],[130.474,31.44],[130.404,31.23],[130.233,31.026],[130.086,31.121],[130.06,31.217],[130.205,31.426],[130.219,31.56],[130.059,31.972],[130.444,32.284],[130.497,32.557],[130.257,32.912],[130.108,32.931],[129.846,32.587],[129.734,32.638],[129.63,32.866],[129.343,33.151],[129.528,33.298],[129.858,33.26],[130.176,33.337],[130.427,33.674],[130.644,33.7],[130.859,33.675],[131.093,33.428],[131.286,33.39],[131.569,33.486],[131.67,33.309],[131.414,33.111],[131.795,32.807],[131.831,32.693],[131.454,32.248],[131.319,31.511],[131.211,31.352],[130.96,31.193],[130.744,30.888],[130.579,30.907]]],[[[132.568,32.637],[132.343,33.107],[132.121,33.348],[132.45,33.52],[132.784,33.908],[132.969,33.794],[133.245,33.801],[133.463,33.884],[133.806,34.176],[134.01,34.189],[134.54,34.013],[134.61,33.899],[134.519,33.651],[133.999,33.148],[133.727,33.376],[133.517,33.395],[133.241,33.299],[132.901,32.67],[132.699,32.549],[132.568,32.637]]],[[[136,33.736],[135.756,33.342],[135.063,33.69],[134.969,34.134],[135.317,34.471],[135.287,34.598],[135.206,34.617],[134.936,34.54],[134.427,34.628],[133.825,34.386],[133.589,34.442],[132.481,34.129],[132.387,34.269],[132.183,34.287],[131.997,34.09],[131.995,33.804],[131.655,33.912],[130.899,33.904],[130.779,33.967],[130.892,34.246],[131.334,34.292],[131.672,34.502],[132.663,35.381],[132.981,35.445],[133.006,35.254],[133.804,35.427],[134.756,35.531],[135.157,35.646],[135.188,35.443],[135.358,35.323],[135.727,35.45],[135.928,35.604],[135.978,35.973],[136,33.736]]]]}},{"type":"Feature","properties":{"regime":"东北诸部","kind":"tribe","color":"#8d857a","note":null,"precision":1,"labelLng":134.2,"labelLat":54.47},"geometry":{"type":"MultiPolygon","coordinates":[[[[136,52.723],[126.482,55],[135.223,55],[134.985,54.854],[134.894,54.72],[134.902,54.559],[135.095,54.433],[136,54.447],[136,52.723]]]]}}]}