{"type":"FeatureCollection","features":[{"type":"Feature","properties":{"regime":"匈奴","kind":"tribe","color":"#8d857a","note":null,"precision":1,"labelLng":111,"labelLat":43.68},"geometry":{"type":"MultiPolygon","coordinates":[[[[106.043,37.561],[94.985,41.223],[85.414,48.359],[95.824,51.178],[107.074,50.967],[124.2,50.328],[131.084,46.195],[125.879,41.475],[122.5,41.81],[120.473,41.683],[118.546,41.425],[113.318,41.596],[109.083,42.118],[107.622,42.09],[107.21,41.747],[106.798,39.139],[106.043,37.561]]]]}},{"type":"Feature","properties":{"regime":"秦","kind":"dynasty","color":"#a8503c","note":null,"precision":1,"labelLng":115.8,"labelLat":29.95},"geometry":{"type":"MultiPolygon","coordinates":[[[[101.583,28.709],[102.132,28.023],[105.083,28.023],[108.171,27.542],[109.612,26.582],[110.847,24.866],[111.257,22.839],[106.867,22.67],[105.769,22.396],[104.945,22.052],[104.671,21.503],[104.739,20.543],[105.843,19.702],[105.965,19.881],[106.381,20.11],[106.772,20.638],[106.746,20.816],[106.807,20.905],[107.374,20.881],[107.466,20.976],[107.418,21.186],[107.876,21.462],[108.266,21.473],[108.387,21.531],[108.467,21.785],[108.555,21.823],[108.813,21.494],[109.117,21.399],[109.322,21.431],[109.414,21.565],[109.516,21.597],[109.78,21.483],[109.608,21.057],[109.603,20.879],[109.712,20.568],[109.928,20.245],[110.271,20.315],[110.434,20.436],[110.414,20.525],[110.293,20.582],[110.077,20.867],[110.234,21.255],[110.566,21.231],[110.75,21.377],[111.086,21.479],[111.434,21.461],[111.831,21.754],[112.04,21.659],[112.75,21.756],[112.871,22.061],[113.097,21.979],[113.284,22.03],[113.378,22.164],[113.419,22.571],[113.377,22.647],[113.463,22.774],[113.717,22.482],[113.845,22.463],[113.989,22.553],[114.537,22.675],[114.559,22.465],[114.848,22.51],[115.186,22.746],[115.309,22.771],[115.707,22.639],[115.86,22.836],[116.341,22.913],[116.452,23.25],[116.709,23.346],[116.963,23.556],[117.406,23.69],[117.849,24.047],[117.796,24.422],[117.925,24.562],[118.346,24.467],[118.531,24.69],[118.813,24.849],[119.096,25.441],[119.335,25.53],[119.429,25.651],[119.436,26.038],[119.555,26.267],[119.429,26.591],[119.971,26.789],[120.084,26.986],[120.352,27.177],[120.506,27.59],[120.942,28.213],[121.009,28.277],[121.166,28.125],[121.26,28.182],[121.359,28.386],[121.433,28.837],[121.649,29.32],[121.418,29.345],[121.362,29.414],[121.67,29.625],[121.77,29.834],[121.391,29.922],[121.083,30.214],[120.863,30.188],[120.438,29.997],[119.944,30.116],[120.609,30.346],[121.035,30.595],[121.569,30.71],[121.64,30.926],[121.499,31.281],[121.268,31.452],[121.623,31.618],[121.606,31.828],[121.231,32.062],[121.051,32.328],[120.661,32.543],[120.719,32.848],[120.641,33.045],[120.34,33.336],[120.149,33.894],[119.974,34.135],[119.3,34.591],[119.021,34.692],[119.003,34.939],[119.907,35.768],[119.976,35.934],[119.914,36.143],[120.139,36.195],[120.27,35.985],[120.505,36.056],[120.537,36.387],[120.855,36.584],[121.61,36.834],[121.847,36.86],[122.256,36.734],[122.393,37.301],[121.895,37.376],[121.434,37.337],[120.658,37.736],[120.169,37.576],[119.599,37.117],[119.284,37.046],[118.955,37.077],[118.837,37.204],[118.812,37.446],[118.875,37.949],[118.745,38.064],[118.2,38.044],[117.841,38.164],[117.589,38.284],[117.44,38.603],[117.753,39.203],[118.07,39.254],[118.275,39],[118.559,39.172],[118.978,39.224],[119.385,39.843],[119.824,40.042],[120.273,40.152],[121.011,40.851],[121.427,40.864],[121.754,40.737],[122.082,40.488],[122.108,40.354],[121.239,39.554],[121.282,39.35],[121.449,39.382],[121.66,39.332],[121.124,38.865],[121.065,38.75],[121.488,38.879],[122.027,39.256],[123.039,39.672],[123.917,39.808],[124.104,39.885],[124.091,41.267],[123.748,41.678],[122.5,41.81],[120.473,41.683],[118.546,41.425],[113.318,41.596],[109.083,42.118],[107.622,42.09],[107.21,41.747],[106.798,39.139],[106.043,37.561],[105.151,37.63],[104.396,37.218],[104.396,37.012],[104.671,36.806],[104.739,36.6],[101.651,29.532],[101.583,28.709]]],[[[108.56,19.06],[108.652,18.482],[109.43,18.097],[109.669,18.415],[110.263,18.626],[110.361,18.766],[110.299,18.899],[110.427,19.229],[110.885,19.707],[110.617,20.017],[110.061,19.94],[109.916,19.8],[109.55,19.914],[109.42,19.659],[109.198,19.684],[108.685,19.296],[108.577,19.187],[108.56,19.06]]],[[[113.836,22.214],[114.022,22.228],[114.031,22.31],[113.902,22.291],[113.836,22.214]]],[[[113.901,22.407],[114.144,22.331],[114.134,22.172],[114.263,22.204],[114.413,22.437],[114.309,22.554],[114.166,22.561],[113.901,22.407]]]]}},{"type":"Feature","properties":{"regime":"月氏","kind":"tribe","color":"#8f8a6b","note":null,"precision":1,"labelLng":92.33,"labelLat":39.16},"geometry":{"type":"MultiPolygon","coordinates":[[[[85.48,48.31],[94.985,41.223],[106.043,37.561],[105.151,37.63],[104.396,37.218],[104.396,37.012],[104.671,36.806],[104.739,36.6],[103.444,33.636],[83.646,30.175],[84.397,35.394],[80.535,36.168],[78,36.871],[78,42.514],[81.846,43.311],[85.558,46.885],[84.342,48.408],[85.48,48.31]]]]}},{"type":"Feature","properties":{"regime":"肃慎","kind":"tribe","color":"#8d857a","note":null,"precision":1,"labelLng":127.57,"labelLat":37.86},"geometry":{"type":"MultiPolygon","coordinates":[[[[126.531,37.676],[126.501,37.594],[126.397,37.599],[126.364,37.72],[126.372,37.63],[126.21,37.754],[125.909,37.511],[125.741,37.785],[125.562,37.836],[125.269,37.485],[125.077,37.771],[124.77,37.936],[124.694,38.14],[124.736,38.28],[124.929,38.465],[125.269,38.568],[125.294,38.689],[125.028,38.816],[125.296,39.364],[125.207,39.485],[124.922,39.619],[124.548,39.541],[124.443,39.573],[124.111,39.875],[124.091,41.267],[123.748,41.678],[125.879,41.475],[131.084,46.195],[124.2,50.328],[123.991,50.336],[124.134,50.531],[127.336,49.977],[134.87,52.009],[136,52.134],[136,44.381],[135.415,44.037],[134.962,43.515],[134.569,43.212],[134.139,42.993],[132.953,42.67],[132.827,42.862],[132.485,42.88],[132.333,42.964],[132.182,43.195],[131.675,43.027],[131.865,43.29],[131.584,43.213],[131.065,42.749],[129.825,41.861],[129.641,41.656],[129.591,41.47],[129.631,41.278],[129.478,40.682],[129.177,40.63],[128.447,40.066],[128.236,39.97],[127.931,39.956],[127.672,39.866],[127.441,39.624],[127.277,39.222],[128.27,38.42],[128.364,38.625],[128.626,38.144],[129.05,37.686],[129.429,37.068],[129.473,36.71],[129.422,36.634],[129.387,36.036],[129.463,35.995],[129.557,36.079],[129.584,35.989],[129.439,35.476],[129.137,35.112],[128.811,35.084],[128.573,35.17],[128.386,35.042],[128.501,35.008],[128.409,34.832],[128.329,34.949],[128.207,34.894],[128.021,34.986],[127.661,34.905],[127.593,34.942],[127.639,34.814],[127.774,34.844],[127.748,34.727],[127.641,34.617],[127.576,34.638],[127.522,34.857],[127.418,34.819],[127.364,34.751],[127.513,34.597],[127.389,34.471],[127.315,34.444],[127.129,34.528],[127.202,34.633],[127.242,34.569],[127.329,34.652],[127.338,34.738],[127.037,34.62],[126.897,34.449],[126.817,34.442],[126.766,34.573],[126.6,34.3],[126.478,34.345],[126.462,34.473],[126.273,34.634],[126.289,34.742],[126.417,34.596],[126.451,34.648],[126.606,34.617],[126.503,34.715],[126.661,34.807],[126.591,34.877],[126.515,34.779],[126.381,34.784],[126.434,34.964],[126.344,34.917],[126.248,35.11],[126.345,35.152],[126.416,35.02],[126.457,35.069],[126.361,35.18],[126.422,35.407],[126.523,35.525],[126.679,35.532],[126.471,35.604],[126.801,35.862],[126.62,35.889],[126.628,35.962],[126.854,36.035],[126.689,36],[126.544,36.136],[126.464,36.575],[126.497,36.724],[126.355,36.74],[126.316,36.599],[126.275,36.713],[126.193,36.671],[126.129,36.752],[126.286,36.96],[126.28,36.804],[126.401,36.852],[126.335,36.986],[126.393,37.005],[126.478,36.934],[126.468,36.843],[126.499,37.05],[126.761,36.97],[126.823,36.914],[126.829,36.766],[126.992,36.911],[126.756,37.044],[126.773,37.119],[126.859,37.139],[126.661,37.156],[126.659,37.249],[126.856,37.261],[126.847,37.304],[126.722,37.328],[126.742,37.387],[126.626,37.471],[126.663,37.541],[126.531,37.676]]],[[[126.599,33.233],[126.261,33.194],[126.158,33.279],[126.372,33.473],[126.891,33.525],[126.941,33.454],[126.847,33.312],[126.599,33.233]]],[[[126.739,34.279],[126.655,34.371],[126.731,34.364],[126.739,34.279]]],[[[127.161,34.414],[127.132,34.474],[127.239,34.474],[127.161,34.414]]],[[[127.786,34.474],[127.716,34.517],[127.751,34.542],[127.786,34.474]]],[[[126.18,34.351],[126.1,34.419],[126.239,34.57],[126.377,34.499],[126.347,34.405],[126.18,34.351]]],[[[127.8,34.572],[127.733,34.636],[127.768,34.664],[127.8,34.572]]],[[[125.972,34.647],[125.956,34.713],[126.003,34.7],[125.972,34.647]]],[[[126.001,34.79],[125.904,34.718],[125.894,34.764],[126.001,34.79]]],[[[128.081,34.828],[127.973,34.852],[128.008,34.908],[128.081,34.828]]],[[[126.042,34.854],[125.993,34.858],[126.058,34.926],[126.042,34.854]]],[[[127.962,34.798],[128.056,34.813],[128.062,34.706],[127.853,34.739],[127.868,34.917],[127.915,34.93],[127.962,34.798]]],[[[128.743,34.788],[128.594,34.698],[128.604,34.809],[128.494,34.88],[128.711,34.977],[128.743,34.788]]],[[[126.1,35.046],[126.068,35.099],[126.156,35.146],[126.1,35.046]]],[[[126.421,36.399],[126.338,36.434],[126.353,36.593],[126.421,36.399]]],[[[126.164,36.824],[126.167,36.84],[126.174,36.829],[126.164,36.824]]],[[[130.876,37.45],[130.806,37.507],[130.912,37.546],[130.876,37.45]]],[[[124.652,37.914],[124.613,37.947],[124.732,37.976],[124.652,37.914]]]]}},{"type":"Feature","properties":{"regime":"象雄","kind":"tribe","color":"#8d857a","note":null,"precision":1,"labelLng":80.71,"labelLat":31.85},"geometry":{"type":"MultiPolygon","coordinates":[[[[78,36.871],[80.535,36.168],[84.397,35.394],[83.245,27.389],[81.957,27.817],[78.869,29.326],[78,29.985],[78,36.871]]]]}}]}