{"type":"FeatureCollection","features":[{"type":"Feature","properties":{"regime":"隋","kind":"dynasty","color":"#a8503c","note":null,"precision":1,"labelLng":114.42,"labelLat":29.2},"geometry":{"type":"MultiPolygon","coordinates":[[[[100.216,30.161],[100.68,32.85],[101.79,37.67],[99.381,37.581],[96.413,38.323],[96.599,39.714],[97.99,39.899],[100.402,39.714],[101.051,40.085],[101.886,39.807],[102.442,38.879],[102.906,38.879],[103.555,40.734],[104.841,41.231],[107.489,41.116],[110.711,40.886],[116.169,40.641],[117.56,40.641],[118.21,40.827],[119.044,42.311],[121.92,42.682],[123.868,43.053],[124.702,42.311],[122.082,40.488],[121.754,40.737],[121.427,40.864],[121.011,40.851],[120.273,40.152],[119.824,40.042],[119.385,39.843],[118.978,39.224],[118.559,39.172],[118.275,39],[118.07,39.254],[117.753,39.203],[117.44,38.603],[117.589,38.284],[117.841,38.164],[118.2,38.044],[118.745,38.064],[118.875,37.949],[118.812,37.446],[118.837,37.204],[118.955,37.077],[119.284,37.046],[119.599,37.117],[120.169,37.576],[120.658,37.736],[121.434,37.337],[121.895,37.376],[122.393,37.301],[122.256,36.734],[121.847,36.86],[121.61,36.834],[120.855,36.584],[120.537,36.387],[120.505,36.056],[120.27,35.985],[120.139,36.195],[119.914,36.143],[119.976,35.934],[119.907,35.768],[119.003,34.939],[119.021,34.692],[119.3,34.591],[119.974,34.135],[120.149,33.894],[120.34,33.336],[120.641,33.045],[120.719,32.848],[120.661,32.543],[121.051,32.328],[121.231,32.062],[121.606,31.828],[121.623,31.618],[121.268,31.452],[121.499,31.281],[121.64,30.926],[121.569,30.71],[121.035,30.595],[120.609,30.346],[119.944,30.116],[120.438,29.997],[120.863,30.188],[121.083,30.214],[121.391,29.922],[121.77,29.834],[121.67,29.625],[121.362,29.414],[121.411,29.345],[121.649,29.32],[121.433,28.837],[121.359,28.386],[121.26,28.182],[121.166,28.125],[121.009,28.277],[120.506,27.59],[120.352,27.177],[120.084,26.986],[119.857,26.706],[119.601,26.693],[119.429,26.591],[119.555,26.267],[119.436,26.038],[119.429,25.651],[119.335,25.53],[119.096,25.441],[118.813,24.849],[118.531,24.69],[118.346,24.467],[117.925,24.562],[117.796,24.422],[117.849,24.047],[117.406,23.69],[116.963,23.556],[116.709,23.346],[116.452,23.25],[116.341,22.913],[115.86,22.836],[115.707,22.639],[115.309,22.771],[115.186,22.746],[114.848,22.51],[114.559,22.465],[114.537,22.675],[113.989,22.553],[113.845,22.463],[113.717,22.482],[113.463,22.774],[113.377,22.647],[113.419,22.571],[113.378,22.164],[113.284,22.03],[113.097,21.979],[112.871,22.061],[112.75,21.756],[112.04,21.659],[111.831,21.754],[111.434,21.461],[111.086,21.479],[110.75,21.377],[110.566,21.231],[110.239,21.281],[110.203,21.096],[110.072,20.918],[110.293,20.582],[110.414,20.525],[110.434,20.436],[110.271,20.315],[109.928,20.245],[109.712,20.568],[109.603,20.879],[109.608,21.057],[109.78,21.483],[109.516,21.597],[109.414,21.565],[109.322,21.431],[109.117,21.399],[108.813,21.494],[108.555,21.823],[108.467,21.785],[108.387,21.531],[108.266,21.473],[107.9,21.479],[107.418,21.186],[107.466,20.976],[107.374,20.881],[106.807,20.905],[106.746,20.816],[106.772,20.638],[106.381,20.11],[105.965,19.881],[105.843,19.702],[105.533,18.844],[106.364,18.007],[106.433,17.55],[106.622,17.328],[107.375,16.691],[106.451,16.188],[105.417,17.407],[104.381,18.328],[103.234,20.123],[103.833,20.144],[106.43,24.874],[103.683,26.056],[102.257,25.338],[101.515,24.688],[100.68,24.132],[99.752,27.471],[100.216,30.161]]],[[[108.939,18.331],[108.652,18.482],[108.577,19.187],[109.198,19.684],[109.42,19.659],[109.55,19.914],[109.916,19.8],[110.061,19.94],[110.617,20.017],[110.885,19.707],[110.427,19.229],[110.299,18.899],[110.361,18.766],[110.263,18.626],[109.669,18.415],[109.43,18.097],[108.939,18.331]]]]}},{"type":"Feature","properties":{"regime":"突厥","kind":"tribe","color":"#8d857a","note":null,"precision":1,"labelLng":107.87,"labelLat":43.18},"geometry":{"type":"MultiPolygon","coordinates":[[[[127.652,50.262],[129.95,45.287],[129.247,45.186],[127.299,43.238],[125.508,42.599],[125.097,42.957],[123.975,42.957],[123.868,43.053],[121.92,42.682],[119.044,42.311],[118.924,42.097],[116.235,41.576],[110.711,40.886],[107.489,41.116],[104.841,41.231],[103.555,40.734],[102.906,38.879],[102.442,38.879],[101.886,39.807],[101.051,40.085],[100.954,40.029],[100.813,40.31],[98.972,41.001],[96.325,40.656],[94.598,41.116],[92.066,43.303],[90.96,43.549],[91.334,45.92],[80.719,46.436],[82.209,51.329],[93.941,51.096],[105.301,51.213],[127.652,50.262]]]]}},{"type":"Feature","properties":{"regime":"高句丽","kind":"power","color":"#6f8a7d","note":null,"precision":1,"labelLng":126.76,"labelLat":40.86},"geometry":{"type":"MultiPolygon","coordinates":[[[[129.641,41.656],[129.591,41.47],[129.631,41.278],[129.478,40.682],[129.177,40.63],[128.447,40.066],[128.236,39.97],[127.931,39.956],[127.672,39.866],[127.441,39.624],[127.277,39.222],[127.405,39.075],[125.294,38.689],[125.028,38.816],[125.296,39.364],[125.207,39.485],[124.922,39.619],[124.548,39.541],[124.443,39.573],[124.111,39.875],[123.039,39.672],[122.027,39.256],[121.488,38.879],[121.065,38.75],[121.124,38.865],[121.66,39.332],[121.449,39.382],[121.282,39.35],[121.239,39.554],[122.037,40.264],[122.108,40.354],[122.082,40.488],[124.702,42.311],[127.299,43.238],[129.247,45.186],[130.546,45.372],[132.122,44.63],[132.827,42.862],[132.485,42.88],[132.333,42.964],[132.182,43.195],[131.675,43.027],[131.865,43.29],[131.584,43.213],[131.065,42.749],[129.825,41.861],[129.641,41.656]]]]}},{"type":"Feature","properties":{"regime":"倭","kind":"power","color":"#75798a","note":null,"precision":1,"labelLng":133.73,"labelLat":34.62},"geometry":{"type":"MultiPolygon","coordinates":[[[[136,33.736],[135.756,33.342],[135.063,33.69],[134.969,34.134],[135.317,34.471],[135.287,34.598],[135.206,34.617],[134.936,34.54],[134.427,34.628],[133.825,34.386],[133.589,34.442],[132.481,34.129],[132.387,34.269],[132.183,34.287],[131.997,34.09],[131.995,33.804],[131.655,33.912],[130.899,33.904],[130.779,33.967],[130.892,34.246],[131.334,34.292],[131.672,34.502],[132.663,35.381],[132.981,35.445],[133.006,35.254],[133.804,35.427],[134.756,35.531],[135.157,35.646],[135.188,35.443],[135.358,35.323],[135.727,35.45],[135.928,35.604],[135.978,35.973],[136,33.736]]],[[[130.744,30.888],[130.579,30.907],[130.554,30.97],[130.732,31.478],[130.582,31.529],[130.474,31.44],[130.404,31.23],[130.233,31.026],[130.086,31.121],[130.06,31.217],[130.205,31.426],[130.219,31.56],[130.059,31.972],[130.444,32.284],[130.497,32.557],[130.257,32.912],[130.108,32.931],[129.846,32.587],[129.734,32.638],[129.63,32.866],[129.343,33.151],[129.528,33.298],[129.858,33.26],[130.176,33.337],[130.427,33.674],[130.644,33.7],[130.859,33.675],[131.093,33.428],[131.286,33.39],[131.569,33.486],[131.67,33.309],[131.414,33.111],[131.795,32.807],[131.831,32.693],[131.454,32.248],[131.319,31.511],[131.211,31.352],[130.96,31.193],[130.744,30.888]]],[[[132.699,32.549],[132.467,32.758],[132.343,33.107],[132.121,33.348],[132.45,33.52],[132.784,33.908],[132.969,33.794],[133.245,33.801],[133.463,33.884],[133.806,34.176],[134.01,34.189],[134.54,34.013],[134.61,33.899],[134.519,33.651],[133.999,33.148],[133.727,33.376],[133.517,33.395],[133.241,33.299],[132.97,32.765],[132.699,32.549]]]]}},{"type":"Feature","properties":{"regime":"新罗","kind":"power","color":"#a9834a","note":null,"precision":1,"labelLng":127.09,"labelLat":37.13},"geometry":{"type":"MultiPolygon","coordinates":[[[[127.405,39.075],[128.451,38.255],[129.129,37.308],[129.25,37.009],[129.178,35.959],[129.242,35.908],[129.467,35.927],[129.285,35.507],[128.918,35.03],[128.809,35.01],[128.553,35.105],[128.164,34.799],[128.041,36.56],[127.67,37.21],[126.392,37.614],[126.21,37.754],[125.909,37.511],[125.741,37.785],[125.562,37.836],[125.269,37.485],[125.077,37.771],[124.77,37.936],[124.694,38.14],[124.736,38.28],[124.929,38.465],[125.269,38.568],[125.294,38.689],[127.405,39.075]]]]}},{"type":"Feature","properties":{"regime":"百济","kind":"power","color":"#7d6a99","note":null,"precision":1,"labelLng":126.87,"labelLat":35.89},"geometry":{"type":"MultiPolygon","coordinates":[[[[128.164,34.799],[127.971,34.837],[127.84,34.938],[127.596,34.894],[127.359,34.804],[126.824,34.429],[126.617,34.409],[126.41,34.269],[126.225,35.164],[126.3,35.368],[126.525,35.578],[126.525,35.737],[126.626,35.928],[126.437,36.131],[126.361,36.627],[125.96,36.722],[126.391,36.959],[126.685,36.838],[126.8,36.947],[126.786,37.074],[126.443,37.474],[126.392,37.614],[127.67,37.21],[128.041,36.56],[128.164,34.799]]]]}}]}