{"type":"FeatureCollection","features":[{"type":"Feature","properties":{"regime":"吐蕃诸部","kind":"tribe","color":"#7d6a99","note":null,"precision":1,"labelLng":92.06,"labelLat":32.87},"geometry":{"type":"MultiPolygon","coordinates":[[[[102.088,34.866],[103.203,34.105],[103.155,33.283],[100.687,31.395],[100.493,30.088],[100.682,28.691],[98.637,27.479],[96.428,26.701],[94.492,26.507],[94.153,27.668],[91.83,27.277],[86.409,27.33],[84.428,27.873],[80.054,29.982],[79.808,30.709],[79.808,31.161],[80.079,31.884],[79.808,33.058],[79.898,34.051],[79.833,35.497],[88.086,38.146],[87.678,38.655],[88.289,38.961],[92.569,38.757],[96.236,38.757],[97.459,38.553],[99.802,37.84],[102.044,37.738],[101.688,36.307],[102.088,34.866]]]]}},{"type":"Feature","properties":{"regime":"后晋","kind":"power","color":"#a8503c","note":"已割燕云十六州与契丹","precision":1,"labelLng":117.02,"labelLat":36.04},"geometry":{"type":"MultiPolygon","coordinates":[[[[101.688,36.307],[102.088,34.866],[103.203,34.105],[103.185,33.8],[109.3,33.8],[109.3,32.9],[118.8,32.9],[118.8,32.2],[121.137,32.2],[121.051,32.328],[120.661,32.543],[120.719,32.848],[120.641,33.045],[120.34,33.336],[120.149,33.894],[119.974,34.135],[119.3,34.591],[119.021,34.692],[119.003,34.939],[119.907,35.768],[119.976,35.934],[119.914,36.143],[120.139,36.195],[120.27,35.985],[120.505,36.056],[120.537,36.387],[120.855,36.584],[121.61,36.834],[121.847,36.86],[122.256,36.734],[122.393,37.301],[121.895,37.376],[121.434,37.337],[120.658,37.736],[120.169,37.576],[119.599,37.117],[119.284,37.046],[118.955,37.077],[118.837,37.204],[118.812,37.446],[118.875,37.949],[118.745,38.064],[118.2,38.044],[117.589,38.284],[117.44,38.603],[117.51,38.766],[115.696,39.572],[111.417,39.572],[110.5,39.878],[109.889,37.942],[108.972,37.738],[102.044,37.738],[101.688,36.307]]],[[[105.202,25.8],[105.586,25],[108.7,25],[108.7,25.8],[105.202,25.8]]]]}},{"type":"Feature","properties":{"regime":"契丹","kind":"power","color":"#75798a","note":null,"precision":1,"labelLng":121.66,"labelLat":40.99},"geometry":{"type":"MultiPolygon","coordinates":[[[[131.865,43.29],[131.584,43.213],[131.065,42.749],[129.825,41.861],[123.917,39.808],[123.039,39.672],[122.027,39.256],[121.216,38.757],[121.065,38.75],[121.124,38.865],[121.66,39.332],[121.449,39.382],[121.282,39.35],[121.239,39.554],[122.108,40.354],[122.082,40.488],[121.754,40.737],[121.427,40.864],[121.011,40.851],[120.273,40.152],[119.824,40.042],[119.385,39.843],[118.978,39.224],[118.559,39.172],[118.275,39],[118.07,39.254],[117.91,39.26],[117.753,39.203],[117.51,38.766],[115.696,39.572],[111.417,39.572],[110.5,39.878],[109.379,41.202],[108.361,41.508],[113.828,43.247],[120.084,43.804],[123.614,43.99],[127.578,44.423],[131.913,46.529],[133.028,46.529],[133.709,45.414],[133.399,44.671],[131.865,43.29]]]]}},{"type":"Feature","properties":{"regime":"党项","kind":"tribe","color":"#8d857a","note":null,"precision":1,"labelLng":97.14,"labelLat":40.11},"geometry":{"type":"MultiPolygon","coordinates":[[[[102.044,37.738],[99.802,37.84],[97.459,38.553],[96.236,38.757],[92.569,38.757],[88.289,38.961],[85.844,39.572],[85.131,40.183],[85.233,40.998],[85.946,41.406],[88.188,41.406],[91.346,42.119],[92.263,42.119],[96.236,41.508],[98.987,41.813],[101.432,41.202],[103.063,41.202],[108.361,41.508],[109.379,41.202],[110.5,39.878],[109.889,37.942],[108.972,37.738],[102.044,37.738]]]]}},{"type":"Feature","properties":{"regime":"后蜀","kind":"power","color":"#7d6a99","note":null,"precision":1,"labelLng":103.62,"labelLat":29.65},"geometry":{"type":"Polygon","coordinates":[[[100.493,30.088],[100.682,28.691],[101.219,26.991],[102.961,26.797],[105.188,25.829],[109.3,25.8],[109.3,33.8],[103.185,33.8],[103.155,33.283],[100.687,31.395],[100.493,30.088]]]}},{"type":"Feature","properties":{"regime":"大理","kind":"power","color":"#5f8a87","note":null,"precision":1,"labelLng":102.84,"labelLat":23.31},"geometry":{"type":"MultiPolygon","coordinates":[[[[101.008,21.423],[99.428,21.667],[98.583,25.401],[101.219,26.991],[102.961,26.797],[105.188,25.829],[106.585,22.919],[104.849,21.764],[104.558,20.167],[104.026,20.118],[101.008,21.423]]]]}},{"type":"Feature","properties":{"regime":"南汉","kind":"power","color":"#6d8a5b","note":null,"precision":1,"labelLng":111.88,"labelLat":21.96},"geometry":{"type":"Polygon","coordinates":[[[105.586,25],[107.418,21.186],[107.876,21.462],[108.266,21.473],[108.387,21.531],[108.467,21.785],[108.555,21.823],[108.813,21.494],[109.117,21.399],[109.322,21.431],[109.414,21.565],[109.516,21.597],[109.78,21.483],[109.608,21.057],[109.603,20.879],[109.712,20.568],[109.928,20.245],[110.271,20.315],[110.434,20.436],[110.414,20.525],[110.293,20.582],[110.077,20.867],[110.234,21.255],[110.566,21.231],[110.75,21.377],[111.086,21.479],[111.434,21.461],[111.831,21.754],[112.04,21.659],[112.75,21.756],[112.871,22.061],[113.097,21.979],[113.284,22.03],[113.378,22.164],[113.419,22.571],[113.377,22.647],[113.463,22.774],[113.717,22.482],[113.845,22.463],[113.989,22.553],[114.537,22.675],[114.559,22.465],[114.848,22.51],[115.309,22.771],[115.707,22.639],[115.86,22.836],[116.341,22.913],[116.452,23.25],[116.709,23.346],[116.963,23.556],[117.3,23.653],[117.3,25],[105.586,25]]]}},{"type":"Feature","properties":{"regime":"南唐","kind":"power","color":"#4f6d8f","note":null,"precision":1,"labelLng":114.44,"labelLat":30.09},"geometry":{"type":"Polygon","coordinates":[[[109.3,30.2],[110.8,30.2],[110.8,31.8],[113.5,31.8],[113.5,30.2],[114.3,30.2],[114.3,25],[115.8,25],[115.8,28.3],[118.6,28.3],[118.6,32.2],[118.8,32.2],[118.8,32.9],[109.3,32.9],[109.3,30.2]]]}},{"type":"Feature","properties":{"regime":"楚","kind":"power","color":"#96566b","note":null,"precision":1,"labelLng":111.32,"labelLat":28.14},"geometry":{"type":"Polygon","coordinates":[[[108.7,25],[114.3,25],[114.3,30.2],[113.5,30.2],[113.5,29.5],[110.8,29.5],[110.8,30.2],[109.3,30.2],[109.3,25.8],[108.7,25.8],[108.7,25]]]}},{"type":"Feature","properties":{"regime":"高丽","kind":"power","color":"#a9834a","note":null,"precision":1,"labelLng":127,"labelLat":37.58},"geometry":{"type":"MultiPolygon","coordinates":[[[[129.825,41.861],[129.641,41.656],[129.591,41.47],[129.631,41.278],[129.478,40.682],[129.177,40.63],[128.447,40.066],[128.236,39.97],[127.931,39.956],[127.672,39.866],[127.441,39.624],[127.277,39.222],[128.451,38.255],[129.129,37.308],[129.25,37.009],[129.178,35.959],[129.242,35.908],[129.467,35.927],[129.412,35.743],[128.918,35.03],[128.809,35.01],[128.553,35.105],[128.164,34.799],[127.971,34.837],[127.84,34.938],[127.596,34.894],[127.359,34.804],[126.824,34.429],[126.617,34.409],[126.41,34.269],[126.225,35.164],[126.3,35.368],[126.525,35.578],[126.525,35.737],[126.626,35.928],[126.437,36.131],[126.361,36.627],[125.96,36.722],[126.391,36.959],[126.685,36.838],[126.8,36.947],[126.786,37.074],[126.443,37.474],[126.392,37.614],[126.21,37.754],[125.909,37.511],[125.741,37.785],[125.562,37.836],[125.269,37.485],[125.077,37.771],[124.77,37.936],[124.694,38.14],[124.736,38.28],[124.929,38.465],[125.269,38.568],[125.294,38.689],[125.028,38.816],[125.296,39.364],[125.207,39.485],[124.922,39.619],[124.548,39.541],[124.443,39.573],[124.134,39.843],[129.825,41.861]]]]}},{"type":"Feature","properties":{"regime":"闽","kind":"power","color":"#6f8a7d","note":null,"precision":1,"labelLng":118.94,"labelLat":25.93},"geometry":{"type":"Polygon","coordinates":[[[115.8,25],[117.3,25],[117.3,23.653],[117.406,23.69],[117.849,24.047],[117.796,24.422],[117.861,24.511],[117.925,24.562],[118.346,24.467],[118.531,24.69],[118.813,24.849],[119.096,25.441],[119.335,25.53],[119.429,25.651],[119.436,26.038],[119.555,26.267],[119.429,26.591],[119.971,26.789],[120.084,26.986],[120.352,27.177],[120.506,27.59],[120.942,28.213],[121.009,28.277],[121.166,28.125],[121.317,28.3],[115.8,28.3],[115.8,25]]]}},{"type":"Feature","properties":{"regime":"交趾","kind":"power","color":"#6d8a5b","note":null,"precision":1,"labelLng":105.86,"labelLat":19.36},"geometry":{"type":"MultiPolygon","coordinates":[[[[105.4,16.331],[104.933,17.451],[104.111,17.999],[103.058,17.999],[103.787,20.222],[104.026,20.118],[104.558,20.167],[104.849,21.764],[106.585,22.919],[107.418,21.186],[107.466,20.976],[107.374,20.881],[106.807,20.905],[106.746,20.816],[106.772,20.638],[106.381,20.11],[105.965,19.881],[105.843,19.702],[105.533,18.844],[106.364,18.007],[106.433,17.55],[106.622,17.328],[107.375,16.691],[106.204,16.053],[105.4,16.331]]]]}},{"type":"Feature","properties":{"regime":"吴越","kind":"power","color":"#5f8a87","note":null,"precision":1,"labelLng":121.06,"labelLat":30.38},"geometry":{"type":"Polygon","coordinates":[[[118.6,28.3],[121.317,28.3],[121.433,28.837],[121.649,29.32],[121.411,29.345],[121.362,29.414],[121.67,29.625],[121.77,29.834],[121.391,29.922],[121.083,30.214],[120.863,30.188],[120.438,29.997],[119.944,30.116],[120.609,30.346],[121.035,30.595],[121.569,30.71],[121.632,30.793],[121.64,30.926],[121.499,31.281],[121.268,31.452],[121.623,31.618],[121.606,31.828],[121.231,32.062],[121.137,32.2],[118.6,32.2],[118.6,28.3]]]}},{"type":"Feature","properties":{"regime":"日本","kind":"power","color":"#75798a","note":null,"precision":1,"labelLng":133.73,"labelLat":34.62},"geometry":{"type":"MultiPolygon","coordinates":[[[[130.579,30.907],[130.554,30.97],[130.732,31.478],[130.582,31.529],[130.474,31.44],[130.404,31.23],[130.233,31.026],[130.086,31.121],[130.06,31.217],[130.205,31.426],[130.219,31.56],[130.059,31.972],[130.444,32.284],[130.497,32.557],[130.257,32.912],[130.108,32.931],[129.846,32.587],[129.734,32.638],[129.63,32.866],[129.343,33.151],[129.528,33.298],[129.858,33.26],[130.176,33.337],[130.427,33.674],[130.644,33.7],[130.859,33.675],[131.093,33.428],[131.286,33.39],[131.569,33.486],[131.67,33.309],[131.414,33.111],[131.795,32.807],[131.831,32.693],[131.454,32.248],[131.319,31.511],[131.211,31.352],[130.96,31.193],[130.744,30.888],[130.579,30.907]]],[[[132.568,32.637],[132.343,33.107],[132.121,33.348],[132.45,33.52],[132.784,33.908],[132.969,33.794],[133.245,33.801],[133.463,33.884],[133.806,34.176],[134.01,34.189],[134.54,34.013],[134.61,33.899],[134.519,33.651],[133.999,33.148],[133.727,33.376],[133.517,33.395],[133.241,33.299],[132.901,32.67],[132.699,32.549],[132.568,32.637]]],[[[136,33.736],[135.756,33.342],[135.063,33.69],[134.969,34.134],[135.317,34.471],[135.287,34.598],[135.206,34.617],[134.936,34.54],[134.427,34.628],[133.825,34.386],[133.589,34.442],[132.481,34.129],[132.387,34.269],[132.183,34.287],[131.997,34.09],[131.995,33.804],[131.655,33.912],[130.899,33.904],[130.779,33.967],[130.892,34.246],[131.334,34.292],[131.672,34.502],[132.663,35.381],[132.981,35.445],[133.006,35.254],[133.804,35.427],[134.756,35.531],[135.157,35.646],[135.188,35.443],[135.358,35.323],[135.727,35.45],[135.928,35.604],[135.978,35.973],[136,33.736]]]]}},{"type":"Feature","properties":{"regime":"荆南","kind":"power","color":"#8f8a6b","note":null,"precision":1,"labelLng":112.15,"labelLat":30.65},"geometry":{"type":"Polygon","coordinates":[[[110.8,29.5],[113.5,29.5],[113.5,31.8],[110.8,31.8],[110.8,29.5]]]}}]}