{"type":"FeatureCollection","features":[{"type":"Feature","properties":{"regime":"氐羌","kind":"tribe","color":"#8f8a6b","note":null,"precision":1,"labelLng":90.53,"labelLat":32},"geometry":{"type":"MultiPolygon","coordinates":[[[[78,37.609],[88.985,36.918],[99.694,34.672],[98.072,29.036],[96.855,25.227],[95.507,27.316],[89.09,31.349],[78,33.898],[78,37.609]]]]}},{"type":"Feature","properties":{"regime":"东夷诸部","kind":"tribe","color":"#8d857a","note":null,"precision":1,"labelLng":126.05,"labelLat":37.23},"geometry":{"type":"MultiPolygon","coordinates":[[[[113.886,44.639],[128.366,44.367],[129.885,41.902],[129.641,41.656],[129.591,41.47],[129.631,41.278],[129.478,40.682],[129.177,40.63],[128.447,40.066],[128.236,39.97],[127.931,39.956],[127.672,39.866],[127.441,39.624],[127.277,39.222],[128.27,38.42],[128.364,38.625],[128.626,38.144],[129.05,37.686],[129.342,37.257],[129.475,36.774],[129.387,36.036],[129.463,35.995],[129.557,36.079],[129.585,36.035],[129.439,35.476],[129.137,35.112],[128.811,35.084],[128.573,35.17],[128.386,35.042],[128.501,35.008],[128.409,34.832],[128.329,34.949],[128.207,34.894],[128.021,34.986],[127.661,34.905],[127.593,34.942],[127.639,34.814],[127.774,34.844],[127.641,34.617],[127.576,34.638],[127.522,34.857],[127.364,34.751],[127.513,34.597],[127.389,34.471],[127.315,34.444],[127.129,34.528],[127.202,34.633],[127.242,34.569],[127.329,34.652],[127.338,34.738],[127.274,34.727],[127.037,34.62],[126.897,34.449],[126.817,34.442],[126.766,34.573],[126.556,34.301],[126.267,34.683],[126.289,34.742],[126.417,34.596],[126.451,34.648],[126.606,34.617],[126.503,34.715],[126.661,34.807],[126.591,34.877],[126.515,34.779],[126.381,34.784],[126.434,34.964],[126.344,34.917],[126.248,35.11],[126.345,35.152],[126.416,35.02],[126.457,35.069],[126.361,35.18],[126.422,35.407],[126.523,35.525],[126.679,35.532],[126.471,35.604],[126.801,35.862],[126.62,35.889],[126.628,35.962],[126.854,36.035],[126.689,36],[126.544,36.136],[126.464,36.575],[126.497,36.724],[126.355,36.74],[126.316,36.599],[126.275,36.713],[126.193,36.671],[126.129,36.752],[126.286,36.96],[126.28,36.804],[126.401,36.852],[126.335,36.986],[126.393,37.005],[126.478,36.934],[126.468,36.843],[126.499,37.05],[126.761,36.97],[126.823,36.914],[126.829,36.766],[126.992,36.911],[126.756,37.044],[126.773,37.119],[126.859,37.139],[126.661,37.156],[126.659,37.249],[126.856,37.261],[126.847,37.304],[126.722,37.328],[126.742,37.387],[126.626,37.471],[126.663,37.541],[126.546,37.652],[126.533,37.762],[126.501,37.594],[126.397,37.599],[126.364,37.72],[126.372,37.63],[126.21,37.754],[125.909,37.511],[125.741,37.785],[125.562,37.836],[125.269,37.485],[125.077,37.771],[124.77,37.936],[124.694,38.14],[124.736,38.28],[124.929,38.465],[125.269,38.568],[125.294,38.689],[125.028,38.816],[125.296,39.364],[125.207,39.485],[124.922,39.619],[124.548,39.541],[124.443,39.573],[124.111,39.875],[123.366,39.749],[123.039,39.672],[122.027,39.256],[121.488,38.879],[121.065,38.75],[121.124,38.865],[121.66,39.332],[121.449,39.382],[121.282,39.35],[121.239,39.554],[122.108,40.354],[122.082,40.488],[121.754,40.737],[121.427,40.864],[121.085,40.857],[120.788,40.684],[120.273,40.152],[119.824,40.042],[119.385,39.843],[118.978,39.224],[118.506,39.128],[111.421,43.559],[113.886,44.639]]],[[[126.599,33.233],[126.261,33.194],[126.158,33.279],[126.372,33.473],[126.891,33.525],[126.941,33.454],[126.847,33.312],[126.599,33.233]]],[[[126.739,34.279],[126.655,34.371],[126.731,34.364],[126.739,34.279]]],[[[127.161,34.414],[127.132,34.474],[127.239,34.474],[127.161,34.414]]],[[[127.786,34.474],[127.716,34.517],[127.751,34.542],[127.786,34.474]]],[[[126.18,34.351],[126.1,34.419],[126.239,34.57],[126.377,34.499],[126.347,34.405],[126.18,34.351]]],[[[127.8,34.572],[127.733,34.636],[127.768,34.664],[127.8,34.572]]],[[[125.972,34.647],[125.956,34.713],[126.003,34.7],[125.972,34.647]]],[[[126.001,34.79],[125.904,34.718],[125.894,34.764],[126.001,34.79]]],[[[128.081,34.828],[127.973,34.852],[128.008,34.908],[128.081,34.828]]],[[[126.042,34.854],[125.993,34.858],[126.058,34.926],[126.042,34.854]]],[[[127.962,34.798],[128.056,34.813],[128.062,34.706],[127.853,34.739],[127.868,34.917],[127.915,34.93],[127.962,34.798]]],[[[128.743,34.788],[128.594,34.698],[128.604,34.809],[128.494,34.88],[128.711,34.977],[128.743,34.788]]],[[[126.1,35.046],[126.068,35.099],[126.156,35.146],[126.1,35.046]]],[[[126.421,36.399],[126.338,36.434],[126.353,36.593],[126.421,36.399]]],[[[126.164,36.824],[126.167,36.84],[126.174,36.829],[126.164,36.824]]],[[[130.876,37.45],[130.806,37.507],[130.912,37.546],[130.876,37.45]]],[[[124.652,37.914],[124.613,37.947],[124.732,37.976],[124.652,37.914]]]]}},{"type":"Feature","properties":{"regime":"夏","kind":"dynasty","color":"#a8503c","note":"据二里头文化圈示意，年代与疆域学界尚有争论","precision":1,"labelLng":109.69,"labelLat":34.63},"geometry":{"type":"MultiPolygon","coordinates":[[[[110.22,36.705],[113.762,35.955],[112.809,33.027],[107.905,31.937],[106.134,34.185],[107.292,35.955],[110.22,36.705]]]]}}]}