{"type":"FeatureCollection","features":[{"type":"Feature","properties":{"regime":"匈奴","kind":"tribe","color":"#8d857a","note":null,"precision":1,"labelLng":108.13,"labelLat":45.63},"geometry":{"type":"MultiPolygon","coordinates":[[[[94.985,41.223],[85.414,48.359],[95.824,51.178],[100.294,51.094],[100.179,50.531],[100.444,50.568],[100.507,50.809],[100.688,50.983],[100.71,51.086],[107.074,50.967],[124.2,50.328],[131.084,46.195],[125.879,41.475],[122.5,41.81],[120.473,41.683],[118.546,41.425],[113.318,41.596],[109.083,42.118],[107.622,42.09],[107.21,41.747],[106.798,39.139],[106.043,37.561],[94.985,41.223]]]]}},{"type":"Feature","properties":{"regime":"汉","kind":"dynasty","color":"#a8503c","note":null,"precision":1,"labelLng":115.8,"labelLat":29.95},"geometry":{"type":"MultiPolygon","coordinates":[[[[101.583,28.709],[102.132,28.023],[105.083,28.023],[108.171,27.542],[109.612,26.582],[110.847,24.866],[111.257,22.839],[106.867,22.67],[105.769,22.396],[104.945,22.052],[104.671,21.503],[104.739,20.543],[105.843,19.702],[105.965,19.881],[106.381,20.11],[106.772,20.638],[106.746,20.816],[106.807,20.905],[107.374,20.881],[107.466,20.976],[107.418,21.186],[107.876,21.462],[108.266,21.473],[108.387,21.531],[108.467,21.785],[108.555,21.823],[108.813,21.494],[109.117,21.399],[109.322,21.431],[109.414,21.565],[109.516,21.597],[109.78,21.483],[109.608,21.057],[109.603,20.879],[109.712,20.568],[109.928,20.245],[110.271,20.315],[110.434,20.436],[110.414,20.525],[110.293,20.582],[110.077,20.867],[110.234,21.255],[110.566,21.231],[110.75,21.377],[111.086,21.479],[111.434,21.461],[111.831,21.754],[112.04,21.659],[112.75,21.756],[112.871,22.061],[113.097,21.979],[113.284,22.03],[113.378,22.164],[113.419,22.571],[113.377,22.647],[113.463,22.774],[113.717,22.482],[113.845,22.463],[113.989,22.553],[114.537,22.675],[114.559,22.465],[114.848,22.51],[115.186,22.746],[115.309,22.771],[115.707,22.639],[115.86,22.836],[116.341,22.913],[116.452,23.25],[116.709,23.346],[116.963,23.556],[117.406,23.69],[117.849,24.047],[117.796,24.422],[117.925,24.562],[118.346,24.467],[118.531,24.69],[118.813,24.849],[119.096,25.441],[119.335,25.53],[119.429,25.651],[119.436,26.038],[119.555,26.267],[119.429,26.591],[119.971,26.789],[120.084,26.986],[120.352,27.177],[120.506,27.59],[120.942,28.213],[121.009,28.277],[121.166,28.125],[121.26,28.182],[121.359,28.386],[121.433,28.837],[121.649,29.32],[121.411,29.345],[121.362,29.414],[121.67,29.625],[121.77,29.834],[121.391,29.922],[121.083,30.214],[120.863,30.188],[120.438,29.997],[119.944,30.116],[120.609,30.346],[121.035,30.595],[121.569,30.71],[121.64,30.926],[121.499,31.281],[121.268,31.452],[121.623,31.618],[121.606,31.828],[121.231,32.062],[121.051,32.328],[120.661,32.543],[120.719,32.848],[120.641,33.045],[120.34,33.336],[120.149,33.894],[119.974,34.135],[119.3,34.591],[119.021,34.692],[119.003,34.939],[119.907,35.768],[119.976,35.934],[119.914,36.143],[120.139,36.195],[120.27,35.985],[120.505,36.056],[120.537,36.387],[120.855,36.584],[121.61,36.834],[121.847,36.86],[122.256,36.734],[122.393,37.301],[121.895,37.376],[121.434,37.337],[120.658,37.736],[120.169,37.576],[119.599,37.117],[119.284,37.046],[118.955,37.077],[118.837,37.204],[118.812,37.446],[118.875,37.949],[118.745,38.064],[118.2,38.044],[117.841,38.164],[117.589,38.284],[117.44,38.603],[117.753,39.203],[118.07,39.254],[118.275,39],[118.559,39.172],[118.978,39.224],[119.385,39.843],[119.824,40.042],[120.273,40.152],[121.011,40.851],[121.427,40.864],[121.754,40.737],[122.082,40.488],[122.108,40.354],[121.239,39.554],[121.282,39.35],[121.449,39.382],[121.66,39.332],[121.124,38.865],[121.065,38.75],[121.488,38.879],[122.027,39.256],[123.039,39.672],[123.917,39.808],[124.104,39.885],[124.091,41.267],[123.748,41.678],[122.5,41.81],[120.473,41.683],[118.546,41.425],[113.318,41.596],[109.083,42.118],[107.622,42.09],[107.21,41.747],[106.798,39.139],[106.043,37.561],[105.151,37.63],[104.396,37.218],[104.396,37.012],[104.671,36.806],[104.739,36.6],[101.651,29.532],[101.583,28.709]]],[[[108.56,19.06],[108.652,18.482],[109.43,18.097],[109.669,18.415],[110.263,18.626],[110.361,18.766],[110.299,18.899],[110.427,19.229],[110.885,19.707],[110.617,20.017],[110.061,19.94],[109.916,19.8],[109.55,19.914],[109.42,19.659],[109.198,19.684],[108.685,19.296],[108.577,19.187],[108.56,19.06]]],[[[113.836,22.214],[114.022,22.228],[114.031,22.31],[113.902,22.291],[113.836,22.214]]],[[[113.901,22.407],[114.144,22.331],[114.134,22.172],[114.263,22.204],[114.413,22.437],[114.309,22.554],[114.166,22.561],[113.901,22.407]]]]}},{"type":"Feature","properties":{"regime":"象雄","kind":"tribe","color":"#8d857a","note":null,"precision":1,"labelLng":80.71,"labelLat":31.85},"geometry":{"type":"MultiPolygon","coordinates":[[[[78,36.871],[80.535,36.168],[84.397,35.394],[83.245,27.389],[81.957,27.817],[78.869,29.326],[78,29.985],[78,36.871]]]]}}]}