{"type":"FeatureCollection","features":[{"type":"Feature","properties":{"regime":"晋","kind":"dynasty","color":"#a8503c","note":null,"precision":1,"labelLng":115.07,"labelLat":31.48},"geometry":{"type":"Polygon","coordinates":[[[94.645,40.461],[94.732,40.025],[96.333,39.467],[98.833,38.367],[100.84,37.146],[100.229,35.575],[101.102,35.575],[102.934,35.226],[103.545,34.79],[103.894,31.648],[102.673,31.736],[99.752,27.471],[100.415,25.086],[102.011,24.681],[102.384,24.01],[103.234,20.123],[104.381,18.328],[105.491,17.78],[106.394,17.665],[106.364,18.007],[105.533,18.844],[105.843,19.702],[105.965,19.881],[106.381,20.11],[106.772,20.638],[106.746,20.816],[106.807,20.905],[107.374,20.881],[107.466,20.976],[107.418,21.186],[107.876,21.462],[108.266,21.473],[108.387,21.531],[108.467,21.785],[108.555,21.823],[108.813,21.494],[109.117,21.399],[109.322,21.431],[109.414,21.565],[109.516,21.597],[109.78,21.483],[109.608,21.057],[109.603,20.879],[109.712,20.568],[109.928,20.245],[110.271,20.315],[110.434,20.436],[110.414,20.525],[110.293,20.582],[110.072,20.918],[110.203,21.096],[110.234,21.255],[110.566,21.231],[110.75,21.377],[111.086,21.479],[111.434,21.461],[111.831,21.754],[112.04,21.659],[112.75,21.756],[112.871,22.061],[113.097,21.979],[113.284,22.03],[113.378,22.164],[113.419,22.571],[113.377,22.647],[113.463,22.774],[113.717,22.482],[113.845,22.463],[113.989,22.553],[114.537,22.675],[114.559,22.465],[114.848,22.51],[115.186,22.746],[115.309,22.771],[115.707,22.639],[115.86,22.836],[116.341,22.913],[116.452,23.25],[116.709,23.346],[116.963,23.556],[117.406,23.69],[117.849,24.047],[117.796,24.422],[117.925,24.562],[118.346,24.467],[118.531,24.69],[118.813,24.849],[119.096,25.441],[119.335,25.53],[119.429,25.651],[119.436,26.038],[119.555,26.267],[119.429,26.591],[119.601,26.693],[119.857,26.706],[120.084,26.986],[120.352,27.177],[120.506,27.59],[121.009,28.277],[121.166,28.125],[121.26,28.182],[121.359,28.386],[121.433,28.837],[121.649,29.32],[121.411,29.345],[121.362,29.414],[121.67,29.625],[121.77,29.834],[121.391,29.922],[121.083,30.214],[120.863,30.188],[120.438,29.997],[119.944,30.116],[120.609,30.346],[121.035,30.595],[121.569,30.71],[121.64,30.926],[121.499,31.281],[121.268,31.452],[121.623,31.618],[121.606,31.828],[121.231,32.062],[121.051,32.328],[120.661,32.543],[120.719,32.848],[120.641,33.045],[120.34,33.336],[120.149,33.894],[119.974,34.135],[119.3,34.591],[119.021,34.692],[119.003,34.939],[119.907,35.768],[119.976,35.934],[119.914,36.143],[120.139,36.195],[120.27,35.985],[120.505,36.056],[120.537,36.387],[120.855,36.584],[121.61,36.834],[121.847,36.86],[122.256,36.734],[122.393,37.301],[121.895,37.376],[121.434,37.337],[120.658,37.736],[120.169,37.576],[119.599,37.117],[119.284,37.046],[118.955,37.077],[118.837,37.204],[118.812,37.446],[118.875,37.949],[118.745,38.064],[118.2,38.044],[117.841,38.164],[117.589,38.284],[117.479,38.45],[117.44,38.603],[117.753,39.203],[118.07,39.254],[118.275,39],[118.559,39.172],[118.978,39.224],[119.385,39.843],[119.824,40.042],[120.273,40.152],[121.011,40.851],[121.427,40.864],[121.754,40.737],[122.082,40.488],[122.108,40.354],[121.239,39.554],[121.282,39.35],[121.449,39.382],[121.66,39.332],[121.124,38.865],[121.065,38.75],[121.488,38.879],[122.027,39.256],[123.039,39.672],[124.104,39.885],[124.443,39.573],[124.548,39.541],[124.922,39.619],[125.207,39.485],[125.296,39.364],[125.028,38.816],[125.294,38.689],[125.269,38.568],[124.929,38.465],[124.736,38.28],[124.694,38.14],[124.77,37.936],[125.077,37.771],[125.269,37.485],[125.562,37.836],[125.741,37.785],[125.909,37.511],[126.21,37.754],[126.168,37.714],[125.654,42.654],[123.265,41.857],[122.305,42.73],[121.345,42.555],[120.473,41.683],[118.546,41.425],[113.318,41.596],[112.053,41.752],[112.069,41.202],[112.051,41.806],[106.948,42.381],[106.337,42.032],[105.925,41.184],[105.639,39.589],[104.592,39.414],[103.807,39.501],[103.371,40.287],[102.673,40.549],[101.364,40.636],[100.84,40.374],[100.578,39.589],[99.444,39.676],[98.484,39.85],[98.746,41.421],[98.223,41.508],[97.525,41.159],[96.39,40.898],[95.081,40.81],[94.645,40.461]]]}},{"type":"Feature","properties":{"regime":"高句丽","kind":"power","color":"#6f8a7d","note":null,"precision":1,"labelLng":127.44,"labelLat":38.89},"geometry":{"type":"MultiPolygon","coordinates":[[[[126.394,37.609],[126.21,37.754],[126.168,37.714],[125.654,42.654],[126.668,42.992],[129.641,41.656],[129.591,41.47],[129.631,41.278],[129.478,40.682],[129.177,40.63],[128.447,40.066],[128.236,39.97],[127.931,39.956],[127.672,39.866],[127.441,39.624],[127.547,39.336],[127.277,39.222],[127.47,39.131],[127.734,39.115],[128.364,38.625],[128.612,38.173],[126.786,37.074],[126.773,37.119],[126.859,37.139],[126.77,37.174],[126.707,37.124],[126.659,37.249],[126.856,37.261],[126.847,37.304],[126.722,37.328],[126.742,37.387],[126.626,37.471],[126.663,37.541],[126.546,37.652],[126.394,37.609]]]]}},{"type":"Feature","properties":{"regime":"新罗","kind":"power","color":"#a9834a","note":null,"precision":1,"labelLng":129.01,"labelLat":36.19},"geometry":{"type":"MultiPolygon","coordinates":[[[[128.149,35.244],[127.666,37.606],[128.612,38.173],[129.05,37.686],[129.429,37.068],[129.473,36.71],[129.422,36.634],[129.387,36.036],[129.463,35.995],[129.557,36.079],[129.584,35.989],[129.439,35.476],[129.137,35.112],[128.811,35.084],[128.573,35.17],[128.402,35.053],[128.149,35.244]]]]}},{"type":"Feature","properties":{"regime":"百济","kind":"power","color":"#7d6a99","note":null,"precision":1,"labelLng":126.8,"labelLat":35.52},"geometry":{"type":"MultiPolygon","coordinates":[[[[127.666,37.606],[128.149,35.244],[128.031,35.333],[127.816,34.95],[127.593,34.942],[127.639,34.814],[127.774,34.844],[127.641,34.617],[127.576,34.638],[127.522,34.857],[127.364,34.751],[127.513,34.597],[127.389,34.471],[127.315,34.444],[127.129,34.528],[127.202,34.633],[127.242,34.569],[127.329,34.652],[127.338,34.738],[127.274,34.727],[127.037,34.62],[126.897,34.449],[126.817,34.442],[126.766,34.573],[126.556,34.301],[126.267,34.683],[126.289,34.742],[126.417,34.596],[126.451,34.648],[126.606,34.617],[126.503,34.715],[126.661,34.807],[126.591,34.877],[126.515,34.779],[126.381,34.784],[126.434,34.964],[126.344,34.917],[126.248,35.11],[126.345,35.152],[126.416,35.02],[126.457,35.069],[126.361,35.18],[126.422,35.407],[126.523,35.525],[126.679,35.532],[126.471,35.604],[126.801,35.862],[126.62,35.889],[126.628,35.962],[126.854,36.035],[126.689,36],[126.544,36.136],[126.464,36.575],[126.497,36.724],[126.355,36.74],[126.316,36.599],[126.275,36.713],[126.193,36.671],[126.129,36.752],[126.286,36.96],[126.28,36.804],[126.401,36.852],[126.335,36.986],[126.393,37.005],[126.478,36.934],[126.468,36.843],[126.499,37.05],[126.761,36.97],[126.823,36.914],[126.829,36.766],[126.992,36.911],[126.756,37.044],[127.666,37.606]]]]}},{"type":"Feature","properties":{"regime":"伽倻","kind":"power","color":"#8f8a6b","note":null,"precision":1,"labelLng":128.25,"labelLat":35.01},"geometry":{"type":"MultiPolygon","coordinates":[[[[127.816,34.95],[128.031,35.333],[128.402,35.053],[128.371,35.009],[128.466,35.05],[128.501,35.008],[128.409,34.832],[128.329,34.949],[128.154,34.894],[128.021,34.986],[127.816,34.95]]]]}}]}