{"type":"FeatureCollection","features":[{"type":"Feature","properties":{"regime":"汉","kind":"dynasty","color":"#a8503c","note":null,"precision":1,"labelLng":114.3,"labelLat":30.79},"geometry":{"type":"MultiPolygon","coordinates":[[[[124.209,39.738],[124.111,39.875],[123.039,39.672],[122.027,39.256],[121.488,38.879],[121.065,38.75],[121.124,38.865],[121.66,39.332],[121.449,39.382],[121.282,39.35],[121.239,39.554],[122.108,40.354],[122.082,40.488],[121.754,40.737],[121.427,40.864],[121.011,40.851],[120.273,40.152],[119.824,40.042],[119.385,39.843],[118.978,39.224],[118.559,39.172],[118.275,39],[118.07,39.254],[117.753,39.203],[117.44,38.603],[117.589,38.284],[117.841,38.164],[118.2,38.044],[118.745,38.064],[118.875,37.949],[118.812,37.446],[118.837,37.204],[118.955,37.077],[119.284,37.046],[119.599,37.117],[120.169,37.576],[120.658,37.736],[121.434,37.337],[121.895,37.376],[122.393,37.301],[122.256,36.734],[121.847,36.86],[121.61,36.834],[120.855,36.584],[120.537,36.387],[120.505,36.056],[120.27,35.985],[120.139,36.195],[119.914,36.143],[119.976,35.934],[119.907,35.768],[119.003,34.939],[119.021,34.692],[119.3,34.591],[119.974,34.135],[120.149,33.894],[120.34,33.336],[120.641,33.045],[120.719,32.848],[120.661,32.543],[121.051,32.328],[121.231,32.062],[121.606,31.828],[121.645,31.688],[121.623,31.618],[121.268,31.452],[121.499,31.281],[121.64,30.926],[121.569,30.71],[121.035,30.595],[120.609,30.346],[119.944,30.116],[120.438,29.997],[120.863,30.188],[121.083,30.214],[121.391,29.922],[121.77,29.834],[121.774,29.764],[121.362,29.414],[121.411,29.345],[121.649,29.32],[121.433,28.837],[121.359,28.386],[121.26,28.182],[121.166,28.125],[121.009,28.277],[120.506,27.59],[120.352,27.177],[120.084,26.986],[119.857,26.706],[119.601,26.693],[119.429,26.591],[119.555,26.267],[119.436,26.038],[119.429,25.651],[119.335,25.53],[119.096,25.441],[118.813,24.849],[118.531,24.69],[118.346,24.467],[117.925,24.562],[117.796,24.422],[117.849,24.047],[117.406,23.69],[116.963,23.556],[116.709,23.346],[116.452,23.25],[116.341,22.913],[115.86,22.836],[115.707,22.639],[115.309,22.771],[114.848,22.51],[114.559,22.465],[114.537,22.675],[113.989,22.553],[113.845,22.463],[113.717,22.482],[113.463,22.774],[113.377,22.647],[113.419,22.571],[113.378,22.164],[113.284,22.03],[113.097,21.979],[112.871,22.061],[112.75,21.756],[112.04,21.659],[111.831,21.754],[111.434,21.461],[111.086,21.479],[110.75,21.377],[110.566,21.231],[110.239,21.281],[110.203,21.096],[110.072,20.918],[110.293,20.582],[110.414,20.525],[110.434,20.436],[110.271,20.315],[109.928,20.245],[109.712,20.568],[109.603,20.879],[109.608,21.057],[109.78,21.483],[109.516,21.597],[109.414,21.565],[109.322,21.431],[109.117,21.399],[108.813,21.494],[108.555,21.823],[108.467,21.785],[108.387,21.531],[108.266,21.473],[107.9,21.479],[107.418,21.186],[107.466,20.976],[107.374,20.881],[106.807,20.905],[106.746,20.816],[106.772,20.638],[106.381,20.11],[105.965,19.881],[105.843,19.702],[105.533,18.844],[106.364,18.007],[106.394,17.665],[105.491,17.78],[104.381,18.328],[103.234,20.123],[102.384,24.01],[102.011,24.681],[100.415,25.086],[99.752,27.471],[102.673,31.736],[103.894,31.648],[103.545,34.79],[102.934,35.226],[101.102,35.575],[100.229,35.575],[100.84,37.146],[98.833,38.367],[96.333,39.467],[94.732,40.025],[94.645,40.461],[95.081,40.81],[96.39,40.898],[97.525,41.159],[98.223,41.508],[98.746,41.421],[98.484,39.85],[99.444,39.676],[100.578,39.589],[100.84,40.374],[101.364,40.636],[102.673,40.549],[103.371,40.287],[103.807,39.501],[104.592,39.414],[105.639,39.589],[105.925,41.184],[106.337,42.032],[106.948,42.381],[113.318,41.596],[118.546,41.425],[120.473,41.683],[121.345,42.555],[122.305,42.73],[123.265,41.857],[125.38,42.562],[124.443,39.573],[124.209,39.738]]],[[[114.046,22.34],[114.022,22.228],[113.867,22.197],[113.858,22.258],[114.046,22.34]]],[[[114.084,22.528],[114.309,22.554],[114.413,22.437],[114.216,22.192],[114.134,22.172],[114.099,22.217],[114.153,22.299],[113.901,22.407],[114.084,22.528]]]]}},{"type":"Feature","properties":{"regime":"匈奴","kind":"tribe","color":"#8d857a","note":null,"precision":1,"labelLng":105.71,"labelLat":42.97},"geometry":{"type":"MultiPolygon","coordinates":[[[[101.364,40.636],[100.84,40.374],[100.578,39.589],[99.444,39.676],[98.484,39.85],[98.746,41.421],[98.223,41.508],[97.525,41.159],[96.39,40.898],[95.081,40.81],[92.348,44.499],[78,45.519],[78,48.402],[85.414,48.359],[95.824,51.178],[106.67,52.893],[126.671,51.275],[128.234,47.081],[131.084,46.195],[126.668,42.992],[123.265,41.857],[122.305,42.73],[121.345,42.555],[120.473,41.683],[118.546,41.425],[113.318,41.596],[106.948,42.381],[106.337,42.032],[105.925,41.184],[105.639,39.589],[104.592,39.414],[103.807,39.501],[103.371,40.287],[102.673,40.549],[101.364,40.636]]]]}},{"type":"Feature","properties":{"regime":"高句丽","kind":"power","color":"#6f8a7d","note":null,"precision":1,"labelLng":126.69,"labelLat":38.66},"geometry":{"type":"MultiPolygon","coordinates":[[[[126.21,37.754],[125.562,37.836],[125.269,37.485],[125.077,37.771],[124.77,37.936],[124.694,38.14],[124.736,38.28],[124.929,38.465],[125.269,38.568],[125.294,38.689],[125.028,38.816],[125.296,39.364],[125.207,39.485],[124.922,39.619],[124.548,39.541],[124.443,39.573],[125.38,42.562],[126.668,42.992],[129.641,41.656],[129.591,41.47],[129.631,41.278],[129.478,40.682],[129.177,40.63],[128.447,40.066],[128.236,39.97],[127.931,39.956],[127.672,39.866],[127.441,39.624],[127.277,39.222],[127.571,39.129],[128.354,38.687],[128.626,38.144],[128.894,37.837],[126.849,36.965],[126.756,37.044],[126.773,37.119],[126.859,37.139],[126.77,37.174],[126.707,37.124],[126.659,37.249],[126.856,37.261],[126.847,37.304],[126.722,37.328],[126.742,37.387],[126.626,37.471],[126.663,37.541],[126.532,37.716],[126.533,37.762],[126.641,37.761],[126.681,37.684],[126.688,37.834],[126.571,37.778],[126.391,37.894],[126.198,37.833],[126.21,37.754]]],[[[126.41,37.594],[126.397,37.817],[126.495,37.78],[126.539,37.628],[126.41,37.594]]],[[[124.643,37.916],[124.613,37.947],[124.732,37.976],[124.643,37.916]]]]}},{"type":"Feature","properties":{"regime":"新罗","kind":"power","color":"#a9834a","note":null,"precision":1,"labelLng":127.23,"labelLat":35.49},"geometry":{"type":"MultiPolygon","coordinates":[[[[129.342,37.257],[129.475,36.774],[129.387,36.036],[129.463,35.995],[129.557,36.079],[129.584,35.989],[129.439,35.476],[129.242,35.209],[129.137,35.112],[128.979,35.085],[128.974,35.135],[128.811,35.084],[128.573,35.17],[128.386,35.042],[128.501,35.008],[128.409,34.832],[128.329,34.949],[128.207,34.894],[128.021,34.986],[127.661,34.905],[127.593,34.942],[127.639,34.814],[127.774,34.844],[127.748,34.727],[127.641,34.617],[127.576,34.638],[127.522,34.857],[127.418,34.819],[127.364,34.751],[127.513,34.597],[127.389,34.471],[127.315,34.444],[127.129,34.528],[127.202,34.633],[127.242,34.569],[127.329,34.652],[127.338,34.738],[127.037,34.62],[126.897,34.449],[126.817,34.442],[126.766,34.573],[126.6,34.3],[126.478,34.345],[126.462,34.473],[126.273,34.634],[126.289,34.742],[126.417,34.596],[126.451,34.648],[126.606,34.617],[126.503,34.715],[126.661,34.807],[126.591,34.877],[126.515,34.779],[126.381,34.784],[126.434,34.964],[126.344,34.917],[126.248,35.11],[126.345,35.152],[126.416,35.02],[126.457,35.069],[126.361,35.18],[126.422,35.407],[126.523,35.525],[126.679,35.532],[126.471,35.604],[126.801,35.862],[126.62,35.889],[126.628,35.962],[126.854,36.035],[126.689,36],[126.544,36.136],[126.464,36.575],[126.497,36.724],[126.355,36.74],[126.316,36.599],[126.275,36.713],[126.128,36.705],[126.184,36.878],[126.286,36.96],[126.28,36.804],[126.325,36.804],[126.415,36.897],[126.335,36.986],[126.437,37.003],[126.468,36.843],[126.499,37.05],[126.761,36.97],[126.823,36.914],[126.829,36.766],[126.992,36.911],[126.87,36.947],[128.894,37.837],[129.342,37.257]]],[[[126.669,34.385],[126.771,34.296],[126.651,34.316],[126.669,34.385]]],[[[127.223,34.484],[127.242,34.447],[127.116,34.434],[127.223,34.484]]],[[[127.764,34.541],[127.798,34.491],[127.716,34.517],[127.764,34.541]]],[[[126.099,34.413],[126.239,34.57],[126.377,34.499],[126.347,34.405],[126.262,34.371],[126.15,34.354],[126.099,34.413]]],[[[127.734,34.613],[127.812,34.641],[127.807,34.582],[127.734,34.613]]],[[[125.915,34.692],[126.003,34.7],[125.972,34.647],[125.915,34.692]]],[[[126.009,34.764],[125.912,34.717],[125.892,34.751],[126.009,34.764]]],[[[127.973,34.852],[128.008,34.908],[128.086,34.83],[127.973,34.852]]],[[[125.985,34.868],[126.058,34.926],[126.091,34.89],[125.985,34.868]]],[[[128.002,34.821],[128.056,34.813],[128.062,34.706],[127.889,34.711],[127.822,34.843],[127.915,34.93],[127.916,34.833],[128.002,34.821]]],[[[128.686,34.724],[128.594,34.698],[128.604,34.809],[128.494,34.88],[128.711,34.977],[128.754,34.883],[128.686,34.724]]],[[[126.093,35.047],[126.058,35.084],[126.156,35.146],[126.093,35.047]]],[[[126.421,36.399],[126.338,36.434],[126.353,36.593],[126.421,36.399]]]]}}]}