{"type":"FeatureCollection","features":[{"type":"Feature","properties":{"regime":"氐羌","kind":"tribe","color":"#8d857a","note":null,"precision":1,"labelLng":93.14,"labelLat":34.06},"geometry":{"type":"MultiPolygon","coordinates":[[[[105.306,39.562],[102.731,34.945],[104.48,31.8],[104.077,30.476],[101.52,28.839],[96.475,27.236],[87.595,27.116],[81.07,29.251],[78,32.57],[78,38.537],[81.423,43.024],[93.196,40.411],[96.963,38.962],[105.306,39.562]]]]}},{"type":"Feature","properties":{"regime":"四方部族","kind":"tribe","color":"#8f8a6b","note":null,"precision":1,"labelLng":115.92,"labelLat":36.06},"geometry":{"type":"MultiPolygon","coordinates":[[[[126.293,40.296],[124.407,39.598],[124.111,39.875],[123.039,39.672],[122.027,39.256],[121.488,38.879],[121.065,38.75],[121.124,38.865],[121.66,39.332],[121.449,39.382],[121.282,39.35],[121.239,39.554],[122.108,40.354],[122.082,40.488],[121.754,40.737],[121.427,40.864],[121.011,40.851],[120.273,40.152],[119.824,40.042],[119.385,39.843],[117.933,40.232],[116.983,40.351],[115.556,40.351],[113.476,39.994],[111.931,38.39],[109.198,36.072],[105.335,35.062],[104.325,34.408],[104.563,33.873],[105.335,33.992],[106.048,34.289],[106.226,33.992],[105.276,33.457],[105.632,33.101],[106.524,32.922],[106.642,32.566],[105.157,31.021],[104.681,29.832],[104.8,28.049],[105.81,27.217],[106.464,27.158],[109.673,29.178],[110.981,29.238],[113.06,28.822],[113.833,29.119],[114.011,30.664],[116.673,32.804],[117.901,30.244],[118.816,28.671],[117.733,27.773],[109.055,23.96],[105.665,23.043],[103.135,26.184],[102.408,29.407],[104.077,30.476],[104.48,31.8],[102.731,34.945],[105.306,39.562],[108.533,39.794],[120.373,44.191],[130.43,44.191],[131.509,43.14],[131.065,42.749],[129.825,41.861],[129.641,41.656],[129.591,41.47],[129.631,41.278],[129.478,40.682],[129.177,40.63],[128.447,40.066],[128.339,40.017],[126.293,40.296]]]]}},{"type":"Feature","properties":{"regime":"周","kind":"dynasty","color":"#a8503c","note":null,"precision":1,"labelLng":115.1,"labelLat":35.57},"geometry":{"type":"MultiPolygon","coordinates":[[[[119.021,34.692],[114.011,30.664],[113.833,29.119],[113.06,28.822],[110.981,29.238],[109.673,29.178],[106.464,27.158],[105.81,27.217],[104.8,28.049],[104.681,29.832],[105.157,31.021],[106.642,32.566],[106.524,32.922],[105.632,33.101],[105.276,33.457],[106.226,33.992],[106.048,34.289],[105.335,33.992],[104.563,33.873],[104.325,34.408],[105.335,35.062],[109.198,36.072],[111.931,38.39],[113.476,39.994],[115.556,40.351],[116.983,40.351],[117.933,40.232],[119.385,39.843],[118.978,39.224],[118.559,39.172],[118.275,39],[118.07,39.254],[117.753,39.203],[117.44,38.603],[117.589,38.284],[117.841,38.164],[118.2,38.044],[118.745,38.064],[118.875,37.949],[118.812,37.446],[118.837,37.204],[118.955,37.077],[119.284,37.046],[119.599,37.117],[120.169,37.576],[120.658,37.736],[121.434,37.337],[121.895,37.376],[122.393,37.301],[122.256,36.734],[121.847,36.86],[121.61,36.834],[120.855,36.584],[120.537,36.387],[120.505,36.056],[120.27,35.985],[120.139,36.195],[119.914,36.143],[119.976,35.934],[119.907,35.768],[119.06,35.041],[119.003,34.939],[119.021,34.692]]]]}},{"type":"Feature","properties":{"regime":"淮夷","kind":"tribe","color":"#6f8a7d","note":null,"precision":1,"labelLng":120.66,"labelLat":30.75},"geometry":{"type":"MultiPolygon","coordinates":[[[[118.816,28.671],[117.901,30.244],[116.673,32.804],[119.021,34.692],[119.3,34.591],[119.974,34.135],[120.149,33.894],[120.34,33.336],[120.641,33.045],[120.719,32.848],[120.661,32.543],[121.051,32.328],[121.231,32.062],[121.606,31.828],[121.645,31.688],[121.623,31.618],[121.268,31.452],[121.499,31.281],[121.64,30.926],[121.569,30.71],[121.035,30.595],[120.609,30.346],[119.944,30.116],[120.438,29.997],[120.863,30.188],[121.083,30.214],[121.391,29.922],[121.77,29.834],[121.774,29.764],[121.362,29.414],[121.411,29.345],[121.649,29.32],[121.433,28.837],[121.359,28.386],[121.26,28.182],[121.166,28.125],[121.009,28.277],[120.687,27.87],[119.885,27.951],[118.876,28.721],[118.816,28.671]]]]}},{"type":"Feature","properties":{"regime":"朝鲜（箕氏）","kind":"tribe","color":"#75798a","note":null,"precision":1,"labelLng":126.74,"labelLat":37.05},"geometry":{"type":"MultiPolygon","coordinates":[[[[124.407,39.598],[126.293,40.296],[128.339,40.017],[127.672,39.866],[127.441,39.624],[127.277,39.222],[128.451,38.255],[129.129,37.308],[129.25,37.009],[129.178,35.959],[129.242,35.908],[129.467,35.927],[129.06,35.17],[128.918,35.03],[128.809,35.01],[128.553,35.105],[128.438,35.06],[128.164,34.799],[127.971,34.837],[127.84,34.938],[127.596,34.894],[127.359,34.804],[126.824,34.429],[126.617,34.409],[126.41,34.269],[126.225,35.164],[126.3,35.368],[126.525,35.578],[126.525,35.737],[126.626,35.928],[126.437,36.131],[126.361,36.627],[125.96,36.722],[126.391,36.959],[126.685,36.838],[126.8,36.947],[126.786,37.074],[126.443,37.474],[126.392,37.614],[126.21,37.754],[125.909,37.511],[125.741,37.785],[125.562,37.836],[125.269,37.485],[125.077,37.771],[124.77,37.936],[124.694,38.14],[124.736,38.28],[124.929,38.465],[125.269,38.568],[125.294,38.689],[125.028,38.816],[125.296,39.364],[125.207,39.485],[124.922,39.619],[124.548,39.541],[124.407,39.598]]]]}}]}