{"type":"FeatureCollection","features":[{"type":"Feature","properties":{"regime":"元","kind":"dynasty","color":"#a8503c","note":null,"precision":1,"labelLng":120.08,"labelLat":33.77},"geometry":{"type":"MultiPolygon","coordinates":[[[[81.253,35.316],[81.795,34.768],[82.693,34.743],[86.821,35.112],[89.917,35.186],[90,35.628],[89.917,35.996],[90,36.512],[91.686,36.365],[95.519,37.102],[101.688,36.307],[102.406,33.721],[100.682,28.691],[98.637,27.479],[98.583,25.401],[100.502,24.314],[100.14,23.375],[101.008,21.423],[100.228,20.389],[100.431,20.226],[100.435,20.036],[101.657,19.661],[101.851,20.532],[105.412,21.902],[106.234,21.697],[107.466,20.976],[107.418,21.186],[107.876,21.462],[108.266,21.473],[108.387,21.531],[108.467,21.785],[108.555,21.823],[108.813,21.494],[109.117,21.399],[109.322,21.431],[109.414,21.565],[109.516,21.597],[109.78,21.483],[109.608,21.057],[109.603,20.879],[109.712,20.568],[109.928,20.245],[110.271,20.315],[110.434,20.436],[110.414,20.525],[110.293,20.582],[110.072,20.918],[110.203,21.096],[110.234,21.255],[110.566,21.231],[110.75,21.377],[111.086,21.479],[111.434,21.461],[111.831,21.754],[112.04,21.659],[112.75,21.756],[112.871,22.061],[113.097,21.979],[113.284,22.03],[113.378,22.164],[113.419,22.571],[113.377,22.647],[113.463,22.774],[113.717,22.482],[113.845,22.463],[113.989,22.553],[114.537,22.675],[114.559,22.465],[114.848,22.51],[115.186,22.746],[115.309,22.771],[115.707,22.639],[115.86,22.836],[116.341,22.913],[116.452,23.25],[116.709,23.346],[116.963,23.556],[117.406,23.69],[117.849,24.047],[117.796,24.422],[117.925,24.562],[118.346,24.467],[118.531,24.69],[118.813,24.849],[119.096,25.441],[119.335,25.53],[119.429,25.651],[119.436,26.038],[119.555,26.267],[119.429,26.591],[119.971,26.789],[120.084,26.986],[120.352,27.177],[120.506,27.59],[120.942,28.213],[121.009,28.277],[121.166,28.125],[121.26,28.182],[121.359,28.386],[121.433,28.837],[121.649,29.32],[121.411,29.345],[121.362,29.414],[121.67,29.625],[121.77,29.834],[121.391,29.922],[121.083,30.214],[120.863,30.188],[120.438,29.997],[119.944,30.116],[120.609,30.346],[121.035,30.595],[121.569,30.71],[121.64,30.926],[121.499,31.281],[121.268,31.452],[121.623,31.618],[121.606,31.828],[121.231,32.062],[121.051,32.328],[120.661,32.543],[120.719,32.848],[120.641,33.045],[120.34,33.336],[120.149,33.894],[119.974,34.135],[119.3,34.591],[119.021,34.692],[119.003,34.939],[119.907,35.768],[119.976,35.934],[119.914,36.143],[120.139,36.195],[120.27,35.985],[120.505,36.056],[120.537,36.387],[120.855,36.584],[121.61,36.834],[121.847,36.86],[122.256,36.734],[122.393,37.301],[121.895,37.376],[121.434,37.337],[120.658,37.736],[120.169,37.576],[119.599,37.117],[119.284,37.046],[118.955,37.077],[118.837,37.204],[118.812,37.446],[118.875,37.949],[118.745,38.064],[118.2,38.044],[117.841,38.164],[117.589,38.284],[117.479,38.45],[117.44,38.603],[117.753,39.203],[118.07,39.254],[118.275,39],[118.559,39.172],[118.978,39.224],[119.385,39.843],[119.824,40.042],[120.273,40.152],[121.011,40.851],[121.368,40.871],[121.754,40.737],[122.082,40.488],[122.108,40.354],[121.239,39.554],[121.282,39.35],[121.449,39.382],[121.66,39.332],[121.124,38.865],[121.065,38.75],[121.488,38.879],[122.027,39.256],[123.039,39.672],[124.104,39.885],[124.443,39.573],[124.548,39.541],[124.922,39.619],[125.207,39.485],[125.332,39.511],[125.398,39.376],[125.128,38.806],[125.294,38.689],[124.736,38.28],[124.694,38.14],[124.77,37.936],[125.337,37.682],[125.619,37.772],[125.768,37.983],[125.914,37.806],[126.367,37.688],[126.41,37.594],[126.501,37.594],[126.529,37.686],[126.659,37.555],[126.632,37.487],[126.722,37.328],[126.864,37.272],[126.659,37.249],[126.661,37.162],[126.869,37.176],[126.754,37.054],[126.908,36.919],[127,36.93],[126.846,36.752],[126.781,36.964],[126.62,36.973],[126.525,37.05],[126.472,36.839],[126.449,36.991],[126.35,36.994],[126.401,36.852],[126.284,36.795],[126.309,36.942],[126.188,36.882],[126.129,36.752],[126.166,36.675],[126.256,36.711],[126.293,36.582],[126.343,36.737],[126.469,36.744],[126.544,36.136],[126.674,36.005],[126.859,36.056],[126.615,35.926],[126.782,35.893],[126.752,35.778],[126.479,35.64],[126.515,35.576],[126.644,35.595],[126.687,35.539],[126.492,35.51],[126.387,35.337],[126.361,35.18],[126.459,35.091],[126.431,35.023],[126.349,35.148],[126.269,35.137],[126.333,34.922],[126.434,34.964],[126.379,34.809],[126.499,34.776],[126.591,34.877],[126.66,34.813],[126.494,34.751],[126.62,34.624],[126.473,34.637],[126.452,34.578],[126.328,34.735],[126.267,34.683],[126.288,34.59],[126.463,34.485],[126.478,34.345],[126.594,34.299],[126.783,34.587],[126.801,34.463],[126.889,34.412],[127.01,34.602],[127.329,34.743],[127.332,34.656],[127.136,34.519],[127.315,34.444],[127.389,34.471],[127.51,34.579],[127.364,34.751],[127.399,34.802],[127.494,34.852],[127.568,34.767],[127.554,34.656],[127.635,34.615],[127.744,34.723],[127.774,34.844],[127.611,34.841],[127.589,34.938],[127.661,34.905],[128.021,34.986],[128.204,34.888],[128.329,34.949],[128.336,34.871],[128.446,34.839],[128.487,35.047],[128.379,35.005],[128.573,35.17],[128.811,35.084],[128.974,35.135],[128.979,35.085],[129.237,35.19],[129.466,35.537],[129.584,35.989],[129.564,36.077],[129.398,36.013],[129.382,36.309],[129.475,36.769],[129.354,37.228],[129.063,37.669],[128.641,38.117],[128.357,38.684],[127.998,38.867],[127.745,39.119],[127.277,39.222],[127.544,39.374],[127.441,39.624],[127.672,39.866],[127.931,39.956],[128.236,39.97],[128.447,40.066],[129.177,40.63],[129.478,40.682],[129.76,40.886],[129.828,41.396],[129.591,41.47],[129.641,41.656],[129.825,41.861],[130.435,42.277],[130.36,42.454],[130.435,42.277],[131.584,43.213],[131.865,43.29],[131.675,43.027],[132.182,43.195],[132.333,42.964],[132.485,42.88],[132.827,42.862],[132.953,42.67],[134.139,42.993],[134.569,43.212],[134.962,43.515],[135.415,44.037],[136,44.381],[136,53.716],[126.088,55],[92.872,55],[90,50.073],[93.808,49.678],[93.266,49.136],[93.808,48.594],[93.808,48.052],[90,46.426],[90,43.897],[92.002,41.91],[81.253,35.316]],[[127.058,38.254],[127.06,38.255],[127.068,38.26],[127.058,38.254]],[[128.261,38.412],[128.27,38.42],[128.28,38.43],[128.261,38.412]],[[128.313,38.514],[128.314,38.532],[128.314,38.521],[128.313,38.514]]],[[[113.836,22.214],[114.022,22.228],[114.031,22.31],[113.902,22.291],[113.836,22.214]]],[[[113.901,22.407],[114.144,22.331],[114.134,22.172],[114.263,22.204],[114.413,22.437],[114.309,22.554],[114.166,22.561],[113.901,22.407]]],[[[120.072,23.15],[120.326,22.542],[120.581,22.356],[120.69,22.033],[120.84,21.925],[120.947,22.503],[121.397,23.173],[121.613,24.053],[121.828,24.534],[121.82,24.825],[121.929,24.974],[121.905,25.056],[121.517,25.277],[121.041,25.033],[120.159,23.709],[120.072,23.15]]],[[[124.61,37.957],[124.696,37.916],[124.739,37.946],[124.61,37.957]]],[[[125.888,34.732],[126.009,34.76],[125.993,34.792],[125.888,34.732]]],[[[125.914,34.686],[125.964,34.649],[126.002,34.681],[125.981,34.717],[125.914,34.686]]],[[[125.984,34.865],[126.079,34.862],[126.094,34.91],[125.984,34.865]]],[[[126.056,35.059],[126.144,35.08],[126.147,35.133],[126.056,35.059]]],[[[126.099,34.413],[126.187,34.351],[126.342,34.401],[126.383,34.484],[126.273,34.566],[126.099,34.413]]],[[[126.155,33.289],[126.261,33.194],[126.587,33.231],[126.843,33.308],[126.937,33.424],[126.898,33.523],[126.634,33.532],[126.317,33.453],[126.155,33.289]]],[[[126.158,36.833],[126.174,36.829],[126.167,36.84],[126.158,36.833]]],[[[126.325,36.566],[126.336,36.439],[126.421,36.399],[126.379,36.586],[126.325,36.566]]],[[[126.646,34.325],[126.739,34.279],[126.694,34.389],[126.646,34.325]]],[[[127.111,34.46],[127.134,34.42],[127.242,34.447],[127.111,34.46]]],[[[127.712,34.527],[127.791,34.476],[127.751,34.542],[127.712,34.527]]],[[[127.733,34.636],[127.787,34.576],[127.813,34.622],[127.733,34.636]]],[[[127.822,34.843],[127.889,34.711],[128.044,34.695],[128.076,34.8],[127.916,34.833],[127.936,34.911],[127.822,34.843]]],[[[127.973,34.852],[128.081,34.828],[128.036,34.908],[127.973,34.852]]],[[[128.489,34.856],[128.521,34.809],[128.592,34.837],[128.585,34.704],[128.636,34.707],[128.742,34.782],[128.754,34.877],[128.711,34.977],[128.489,34.856]]],[[[130.806,37.507],[130.921,37.477],[130.924,37.519],[130.806,37.507]]]]}},{"type":"Feature","properties":{"regime":"宣政院辖地","kind":"power","color":"#b87a5e","note":null,"precision":1,"labelLng":88.78,"labelLat":32.21},"geometry":{"type":"MultiPolygon","coordinates":[[[[83.74,28.205],[80.054,29.982],[79.808,30.709],[79.808,31.161],[80.079,31.884],[79.808,33.058],[79.898,34.051],[81.253,34.051],[81.795,34.503],[81.795,34.768],[82.693,34.743],[86.821,35.112],[89.917,35.186],[90,35.628],[89.917,35.996],[90,36.512],[91.686,36.365],[95.519,37.102],[101.688,36.307],[102.406,33.721],[100.682,28.691],[98.637,27.479],[98.551,28.288],[97.611,28.939],[95.082,28.722],[91.83,27.277],[88.664,26.414],[86.231,27.004],[83.74,28.205]]]]}},{"type":"Feature","properties":{"regime":"察合台汗国","kind":"power","color":"#8f8a6b","note":null,"precision":1,"labelLng":86.75,"labelLat":45.79},"geometry":{"type":"MultiPolygon","coordinates":[[[[78,49.505],[79.175,49.407],[82.427,49.588],[85.679,50.31],[88.389,50.401],[90,50.073],[93.808,49.678],[93.266,49.136],[93.808,48.594],[93.808,48.052],[90,46.426],[90,43.897],[92.002,41.91],[81.253,35.316],[78.453,35.135],[78,35.202],[78,49.505]]]]}},{"type":"Feature","properties":{"regime":"大越","kind":"power","color":"#6d8a5b","note":null,"precision":1,"labelLng":105.62,"labelLat":19.13},"geometry":{"type":"MultiPolygon","coordinates":[[[[105.538,16],[104.933,17.451],[104.111,17.999],[101.646,17.999],[101.657,19.661],[101.851,20.532],[105.412,21.902],[106.234,21.697],[107.466,20.976],[107.374,20.881],[106.807,20.905],[106.746,20.816],[106.772,20.638],[106.381,20.11],[105.965,19.881],[105.843,19.702],[105.533,18.844],[106.364,18.007],[106.433,17.55],[107.005,17.038],[106.789,16.365],[106.819,16],[105.538,16]]]]}},{"type":"Feature","properties":{"regime":"日本","kind":"power","color":"#75798a","note":null,"precision":1,"labelLng":133.73,"labelLat":34.62},"geometry":{"type":"MultiPolygon","coordinates":[[[[130.554,30.97],[130.732,31.478],[130.582,31.529],[130.474,31.44],[130.404,31.23],[130.233,31.026],[130.086,31.121],[130.06,31.217],[130.205,31.426],[130.219,31.56],[130.059,31.972],[130.444,32.284],[130.497,32.557],[130.257,32.912],[130.108,32.931],[129.846,32.587],[129.734,32.638],[129.63,32.866],[129.343,33.151],[129.528,33.298],[129.858,33.26],[130.176,33.337],[130.427,33.674],[130.644,33.7],[130.859,33.675],[131.093,33.428],[131.286,33.39],[131.569,33.486],[131.67,33.309],[131.414,33.111],[131.795,32.807],[131.831,32.693],[131.454,32.248],[131.319,31.511],[131.211,31.352],[130.96,31.193],[130.744,30.888],[130.579,30.907],[130.554,30.97]]],[[[136,33.736],[135.756,33.342],[135.063,33.69],[134.969,34.134],[135.317,34.471],[135.287,34.598],[135.206,34.617],[134.936,34.54],[134.427,34.628],[133.825,34.386],[133.589,34.442],[132.481,34.129],[132.387,34.269],[132.183,34.287],[131.997,34.09],[131.995,33.804],[131.655,33.912],[130.899,33.904],[130.779,33.967],[130.892,34.246],[131.334,34.292],[131.672,34.502],[132.663,35.381],[132.981,35.445],[133.006,35.254],[133.804,35.427],[134.756,35.531],[135.157,35.646],[135.188,35.443],[135.358,35.323],[135.727,35.45],[135.928,35.604],[135.978,35.973],[136,33.736]]],[[[132.568,32.637],[132.343,33.107],[132.121,33.348],[132.45,33.52],[132.784,33.908],[132.969,33.794],[133.245,33.801],[133.463,33.884],[133.806,34.176],[134.01,34.189],[134.54,34.013],[134.61,33.899],[134.519,33.651],[133.999,33.148],[133.727,33.376],[133.517,33.395],[133.241,33.299],[132.901,32.67],[132.699,32.549],[132.568,32.637]]]]}}]}