{"type":"FeatureCollection","features":[{"type":"Feature","properties":{"regime":"匈奴","kind":"tribe","color":"#8d857a","note":null,"precision":1,"labelLng":105.14,"labelLat":46.11},"geometry":{"type":"MultiPolygon","coordinates":[[[[126.437,53.494],[132.343,49.215],[122.212,44.191],[120.373,44.191],[108.533,39.794],[96.963,38.962],[93.196,40.411],[81.423,43.024],[83.206,45.361],[97.064,50.494],[100.024,51.76],[99.926,52.47],[126.437,53.494]]]]}},{"type":"Feature","properties":{"regime":"羌","kind":"tribe","color":"#8d857a","note":null,"precision":1,"labelLng":86.51,"labelLat":33.63},"geometry":{"type":"MultiPolygon","coordinates":[[[[102.624,39.369],[104.325,34.408],[91.687,25.988],[91.053,27.62],[88.718,25.877],[87.748,25.623],[85.27,26.716],[83.245,27.389],[84.397,35.394],[80.535,36.168],[78,36.871],[78,29.985],[78.869,29.326],[78,29.739],[78,42.845],[81.643,43.312],[81.423,43.024],[93.196,40.411],[96.963,38.962],[102.624,39.369]]]]}},{"type":"Feature","properties":{"regime":"楚","kind":"power","color":"#96566b","note":null,"precision":1,"labelLng":113.75,"labelLat":31.79},"geometry":{"type":"Polygon","coordinates":[[[104.681,29.832],[104.8,28.049],[105.81,27.217],[108.069,27.068],[109.673,29.178],[110.981,29.238],[112.067,28.419],[115.896,28.701],[118.5,29.041],[118.5,32.5],[120.701,32.5],[120.661,32.543],[120.719,32.848],[120.641,33.045],[120.34,33.336],[120.149,33.894],[119.974,34.135],[119.725,34.3],[115.5,34.3],[115.5,34.6],[114.5,34.6],[114.5,32.8],[110.5,32.8],[110.5,34.6],[110.2,34.6],[110.2,32.5],[106.579,32.5],[105.157,31.021],[104.681,29.832]]]}},{"type":"Feature","properties":{"regime":"朝鲜（箕氏）","kind":"tribe","color":"#6f8a7d","note":null,"precision":1,"labelLng":127.12,"labelLat":39.24},"geometry":{"type":"MultiPolygon","coordinates":[[[[126.41,37.594],[126.364,37.72],[126.372,37.63],[126.21,37.754],[125.909,37.511],[125.741,37.785],[125.562,37.836],[125.269,37.485],[125.077,37.771],[124.77,37.936],[124.694,38.14],[124.736,38.28],[124.929,38.465],[125.269,38.568],[125.294,38.689],[125.028,38.816],[125.296,39.364],[125.207,39.485],[124.922,39.619],[124.548,39.541],[124.443,39.573],[124.111,39.875],[123.039,39.672],[122.027,39.256],[121.488,38.879],[121.065,38.75],[121.124,38.865],[121.66,39.332],[121.449,39.382],[121.282,39.35],[121.239,39.554],[122.108,40.354],[122.082,40.488],[121.754,40.737],[123.055,42.352],[128.437,44.869],[134.963,46.434],[136,46.623],[136,44.381],[135.415,44.037],[134.962,43.515],[134.569,43.212],[134.139,42.993],[132.953,42.67],[132.827,42.862],[132.485,42.88],[132.333,42.964],[132.182,43.195],[131.675,43.027],[131.865,43.29],[131.584,43.213],[131.065,42.749],[129.825,41.861],[129.641,41.656],[129.591,41.47],[129.631,41.278],[129.478,40.682],[129.177,40.63],[128.447,40.066],[128.236,39.97],[127.931,39.956],[127.672,39.866],[127.441,39.624],[127.277,39.222],[128.27,38.42],[128.364,38.625],[128.626,38.144],[129.29,37.329],[127.675,36.737],[126.466,36.563],[126.497,36.724],[126.355,36.74],[126.316,36.599],[126.275,36.713],[126.128,36.705],[126.184,36.878],[126.286,36.96],[126.28,36.804],[126.325,36.804],[126.415,36.897],[126.335,36.986],[126.437,37.003],[126.468,36.843],[126.497,36.871],[126.499,37.05],[126.761,36.97],[126.823,36.914],[126.829,36.766],[126.992,36.911],[126.756,37.044],[126.773,37.119],[126.859,37.139],[126.661,37.156],[126.659,37.249],[126.856,37.261],[126.847,37.304],[126.722,37.328],[126.742,37.387],[126.626,37.471],[126.663,37.541],[126.517,37.756],[126.539,37.628],[126.41,37.594]]],[[[124.652,37.914],[124.613,37.947],[124.732,37.976],[124.652,37.914]]]]}},{"type":"Feature","properties":{"regime":"象雄","kind":"tribe","color":"#8d857a","note":null,"precision":1,"labelLng":80.71,"labelLat":31.85},"geometry":{"type":"MultiPolygon","coordinates":[[[[78,36.871],[80.535,36.168],[84.397,35.394],[83.245,27.389],[81.957,27.817],[78.869,29.326],[78,29.985],[78,36.871]]]]}},{"type":"Feature","properties":{"regime":"东胡","kind":"tribe","color":"#8d857a","note":null,"precision":1,"labelLng":131.34,"labelLat":47.82},"geometry":{"type":"MultiPolygon","coordinates":[[[[122.212,44.191],[132.343,49.215],[130.218,50.755],[134.87,52.009],[136,52.134],[136,46.623],[134.963,46.434],[128.437,44.869],[126.987,44.191],[122.212,44.191]]]]}},{"type":"Feature","properties":{"regime":"齐","kind":"power","color":"#a9834a","note":null,"precision":1,"labelLng":119.59,"labelLat":36.76},"geometry":{"type":"Polygon","coordinates":[[[115.5,34.3],[119.725,34.3],[119.3,34.591],[119.021,34.692],[119.003,34.939],[119.907,35.768],[119.976,35.934],[119.914,36.143],[120.139,36.195],[120.27,35.985],[120.505,36.056],[120.537,36.387],[120.855,36.584],[121.61,36.834],[121.847,36.86],[122.256,36.734],[122.393,37.301],[121.895,37.376],[121.434,37.337],[120.658,37.736],[120.169,37.576],[119.599,37.117],[119.284,37.046],[118.955,37.077],[118.837,37.204],[118.812,37.446],[118.875,37.949],[118.745,38.064],[118.2,38.044],[117.841,38.164],[117.589,38.284],[117.44,38.6],[115.5,38.6],[115.5,34.3]]]}},{"type":"Feature","properties":{"regime":"赵","kind":"power","color":"#7d6a99","note":null,"precision":1,"labelLng":111.57,"labelLat":37.71},"geometry":{"type":"Polygon","coordinates":[[[107.245,35.9],[115.5,35.9],[115.5,38.6],[112.5,38.6],[112.5,39.12],[111.392,38.892],[110.603,37.991],[107.281,36.64],[107.245,35.9]]]}},{"type":"Feature","properties":{"regime":"秦","kind":"power","color":"#a8503c","note":null,"precision":1,"labelLng":106.67,"labelLat":34.07},"geometry":{"type":"Polygon","coordinates":[[[104.325,34.408],[104.563,33.873],[105.335,33.992],[106.048,34.289],[106.226,33.992],[105.276,33.457],[105.632,33.101],[106.524,32.922],[106.642,32.566],[106.579,32.5],[110.2,32.5],[110.2,34.6],[108,34.6],[108,35.9],[107.245,35.9],[107.228,35.557],[105.335,35.062],[104.325,34.408]]]}},{"type":"Feature","properties":{"regime":"魏","kind":"power","color":"#6d8a5b","note":null,"precision":1,"labelLng":111.75,"labelLat":35.25},"geometry":{"type":"Polygon","coordinates":[[[108,34.6],[115.5,34.6],[115.5,35.9],[108,35.9],[108,34.6]]]}},{"type":"Feature","properties":{"regime":"越","kind":"power","color":"#5f8a87","note":null,"precision":1,"labelLng":120.92,"labelLat":30.79},"geometry":{"type":"Polygon","coordinates":[[[118.5,29.041],[121.362,29.414],[121.67,29.625],[121.77,29.834],[121.391,29.922],[121.083,30.214],[120.863,30.188],[120.438,29.997],[119.944,30.116],[120.609,30.346],[121.035,30.595],[121.569,30.71],[121.64,30.926],[121.499,31.281],[121.268,31.452],[121.623,31.618],[121.606,31.828],[121.231,32.062],[121.051,32.328],[120.701,32.5],[118.5,32.5],[118.5,29.041]]]}},{"type":"Feature","properties":{"regime":"燕","kind":"power","color":"#4f6d8f","note":null,"precision":1,"labelLng":116.64,"labelLat":39.38},"geometry":{"type":"Polygon","coordinates":[[[112.5,38.6],[117.44,38.6],[117.753,39.203],[118.07,39.254],[118.275,39],[118.559,39.172],[118.978,39.224],[119.385,39.843],[117.933,40.232],[116.983,40.351],[114.32,40.018],[113.588,39.343],[112.5,39.12],[112.5,38.6]]]}},{"type":"Feature","properties":{"regime":"韩","kind":"power","color":"#6f8a7d","note":null,"precision":1,"labelLng":112.5,"labelLat":33.7},"geometry":{"type":"Polygon","coordinates":[[[110.5,32.8],[114.5,32.8],[114.5,34.6],[110.5,34.6],[110.5,32.8]]]}}]}