{"type":"FeatureCollection","features":[{"type":"Feature","properties":{"regime":"楚","kind":"power","color":"#96566b","note":null,"precision":1,"labelLng":117.75,"labelLat":30.91},"geometry":{"type":"Polygon","coordinates":[[[105.084,33.457],[105.152,32.91],[107.543,32.705],[109.661,32.159],[109.866,31.749],[109.114,30.178],[107.133,28.675],[117.176,25.259],[118.474,26.625],[119.857,26.706],[119.971,26.789],[120.084,26.986],[120.352,27.177],[120.506,27.59],[120.942,28.213],[121.009,28.277],[121.166,28.125],[121.26,28.182],[121.359,28.386],[121.433,28.837],[121.649,29.32],[121.411,29.345],[121.362,29.414],[121.774,29.764],[121.77,29.834],[121.391,29.922],[121.083,30.214],[120.863,30.188],[120.438,29.997],[119.944,30.116],[120.609,30.346],[121.035,30.595],[121.569,30.71],[121.64,30.926],[121.499,31.281],[121.268,31.452],[121.623,31.618],[121.645,31.688],[121.606,31.828],[121.231,32.062],[121.051,32.328],[120.661,32.543],[120.719,32.848],[120.641,33.045],[120.34,33.336],[120.149,33.894],[119.974,34.135],[119.725,34.3],[115.5,34.3],[115.5,34.6],[114.5,34.6],[114.5,32.8],[110.5,32.8],[110.5,34.6],[109.442,34.6],[108.704,33.594],[106.587,33.73],[105.084,33.457]]]}},{"type":"Feature","properties":{"regime":"秦","kind":"power","color":"#a8503c","note":null,"precision":1,"labelLng":106.33,"labelLat":34.73},"geometry":{"type":"MultiPolygon","coordinates":[[[[102.511,31.5],[104.739,36.6],[104.671,36.806],[104.396,37.012],[104.396,37.218],[105.151,37.63],[106.043,37.561],[106.798,39.139],[107.036,40.704],[107.543,40.836],[108.226,40.904],[108.841,40.494],[110.208,40.562],[107.885,37.488],[109.456,34.618],[108.704,33.594],[106.587,33.73],[105.084,33.457],[105.152,32.91],[107.543,32.705],[109.661,32.159],[109.866,31.749],[109.114,30.178],[107.133,28.675],[105.232,27.999],[102.132,28.023],[101.583,28.709],[101.651,29.532],[102.511,31.5]]]]}},{"type":"Feature","properties":{"regime":"象雄","kind":"tribe","color":"#8d857a","note":null,"precision":1,"labelLng":80.71,"labelLat":31.85},"geometry":{"type":"MultiPolygon","coordinates":[[[[78,36.871],[80.535,36.168],[84.397,35.394],[83.245,27.389],[81.957,27.817],[78.869,29.326],[78,29.985],[78,36.871]]]]}},{"type":"Feature","properties":{"regime":"赵","kind":"power","color":"#7d6a99","note":null,"precision":1,"labelLng":109.89,"labelLat":39.83},"geometry":{"type":"Polygon","coordinates":[[[107.036,40.704],[107.543,40.836],[108.226,40.904],[108.841,40.494],[110.208,40.562],[107.885,37.488],[108.754,35.9],[115.5,35.9],[115.5,38.6],[112.5,38.6],[112.5,41.696],[109.083,42.118],[107.622,42.09],[107.21,41.747],[107.036,40.704]]]}},{"type":"Feature","properties":{"regime":"燕","kind":"power","color":"#4f6d8f","note":null,"precision":1,"labelLng":120.09,"labelLat":40.01},"geometry":{"type":"Polygon","coordinates":[[[112.5,38.6],[117.44,38.6],[117.753,39.203],[118.07,39.254],[118.275,39],[118.559,39.172],[118.978,39.224],[119.385,39.843],[119.824,40.042],[120.273,40.152],[121.011,40.851],[121.368,40.871],[121.754,40.737],[122.082,40.488],[122.108,40.354],[121.239,39.554],[121.282,39.35],[121.449,39.382],[121.66,39.332],[121.124,38.865],[121.065,38.75],[121.216,38.757],[122.027,39.256],[123.039,39.672],[124.104,39.885],[124.091,41.267],[123.748,41.678],[122.5,41.81],[120.473,41.683],[118.546,41.425],[113.318,41.596],[112.5,41.696],[112.5,38.6]]]}},{"type":"Feature","properties":{"regime":"齐","kind":"power","color":"#a9834a","note":null,"precision":1,"labelLng":119.59,"labelLat":36.76},"geometry":{"type":"Polygon","coordinates":[[[115.5,34.3],[119.725,34.3],[119.3,34.591],[119.021,34.692],[119.003,34.939],[119.907,35.768],[119.976,35.934],[119.914,36.143],[120.139,36.195],[120.27,35.985],[120.505,36.056],[120.537,36.387],[120.855,36.584],[121.61,36.834],[121.847,36.86],[122.256,36.734],[122.393,37.301],[121.895,37.376],[121.434,37.337],[120.658,37.736],[120.169,37.576],[119.599,37.117],[119.284,37.046],[118.955,37.077],[118.837,37.204],[118.812,37.446],[118.875,37.949],[118.745,38.064],[118.2,38.044],[117.841,38.164],[117.589,38.284],[117.44,38.6],[115.5,38.6],[115.5,34.3]]]}},{"type":"Feature","properties":{"regime":"魏","kind":"power","color":"#6d8a5b","note":null,"precision":1,"labelLng":112.3,"labelLat":35.25},"geometry":{"type":"Polygon","coordinates":[[[108.754,35.9],[109.456,34.618],[115.5,34.6],[115.5,35.9],[108.754,35.9]]]}},{"type":"Feature","properties":{"regime":"韩","kind":"power","color":"#6f8a7d","note":null,"precision":1,"labelLng":112.5,"labelLat":33.7},"geometry":{"type":"Polygon","coordinates":[[[110.5,32.8],[114.5,32.8],[114.5,34.6],[110.5,34.6],[110.5,32.8]]]}},{"type":"Feature","properties":{"regime":"越","kind":"power","color":"#5f8a87","note":null,"precision":1,"labelLng":118.24,"labelLat":24.96},"geometry":{"type":"MultiPolygon","coordinates":[[[[116.452,23.25],[116.493,24.234],[117.176,25.259],[118.474,26.625],[119.601,26.693],[119.429,26.591],[119.555,26.267],[119.436,26.038],[119.429,25.651],[119.335,25.53],[119.096,25.441],[118.813,24.849],[118.531,24.69],[118.346,24.467],[117.925,24.562],[117.796,24.422],[117.849,24.047],[117.406,23.69],[116.963,23.556],[116.709,23.346],[116.452,23.25]]]]}}]}