{"type":"FeatureCollection","features":[{"type":"Feature","properties":{"layer":"land"},"geometry":{"type":"Polygon","coordinates":[[[121.102,18.615],[121.254,18.563],[121.593,18.376],[121.846,18.295],[121.948,18.285],[122.038,18.328],[122.147,18.487],[122.221,18.501],[122.3,18.403],[122.294,18.234],[122.179,18.064],[122.152,17.664],[122.237,17.435],[122.388,17.307],[122.408,17.178],[122.519,17.125],[122.426,16.823],[122.226,16.435],[122.135,16.185],[121.975,16.158],[121.669,16],[119.775,16],[119.773,16.255],[119.831,16.327],[120.033,16.185],[120.16,16.048],[120.337,16.066],[120.369,16.11],[120.389,16.222],[120.325,16.4],[120.304,16.645],[120.321,16.762],[120.409,16.956],[120.427,17.377],[120.358,17.638],[120.584,18.369],[120.6,18.508],[120.814,18.603],[120.925,18.585],[121.102,18.615]]]}},{"type":"Feature","properties":{"layer":"land"},"geometry":{"type":"Polygon","coordinates":[[[136,33.678],[135.916,33.562],[135.695,33.487],[135.453,33.553],[135.347,33.722],[135.175,33.898],[135.128,34.007],[135.135,34.183],[135.1,34.288],[135.309,34.417],[135.412,34.547],[135.416,34.617],[135.355,34.654],[135.042,34.631],[134.74,34.765],[134.584,34.771],[134.247,34.714],[133.968,34.527],[133.445,34.433],[133.142,34.302],[133.019,34.33],[132.657,34.246],[132.421,34.353],[132.313,34.325],[132.238,34.227],[132.146,33.839],[131.741,34.052],[131.476,34.019],[131.233,33.948],[131.072,34.021],[130.919,33.976],[130.889,34.262],[131.004,34.393],[131.354,34.413],[131.608,34.615],[131.856,34.726],[132.26,35.022],[132.619,35.307],[132.698,35.418],[132.923,35.511],[133.267,35.557],[133.376,35.459],[133.615,35.511],[133.981,35.507],[134.214,35.539],[134.456,35.628],[134.882,35.663],[135.174,35.747],[135.265,35.722],[135.232,35.592],[135.268,35.551],[135.68,35.503],[136,35.672],[136,33.678]]]}},{"type":"Feature","properties":{"layer":"land"},"geometry":{"type":"Polygon","coordinates":[[[134.357,34.256],[134.496,34.215],[134.638,34.227],[134.635,34.044],[134.695,33.928],[134.675,33.848],[134.739,33.821],[134.377,33.608],[134.243,33.439],[134.182,33.247],[133.959,33.448],[133.854,33.493],[133.632,33.511],[133.286,33.36],[133.146,33.083],[133.016,32.984],[132.977,32.842],[132.87,32.755],[132.804,32.752],[132.642,32.762],[132.709,32.902],[132.495,32.917],[132.493,33.008],[132.428,33.059],[132.476,33.126],[132.511,33.293],[132.405,33.331],[132.413,33.43],[132.033,33.34],[132.643,33.69],[132.784,33.992],[132.935,34.095],[132.99,34.088],[133.134,33.927],[133.193,33.933],[133.35,33.977],[133.472,33.973],[133.582,34.017],[133.643,34.135],[133.603,34.244],[133.706,34.237],[133.948,34.348],[134.076,34.358],[134.357,34.256]]]}},{"type":"Feature","properties":{"layer":"land"},"geometry":{"type":"Polygon","coordinates":[[[131.175,33.603],[131.366,33.571],[131.583,33.652],[131.696,33.603],[131.724,33.554],[131.711,33.502],[131.537,33.274],[131.897,33.255],[131.848,33.118],[131.949,33.047],[131.91,32.974],[132.009,32.919],[132.002,32.882],[131.732,32.593],[131.66,32.466],[131.46,31.883],[131.46,31.671],[131.337,31.405],[131.071,31.437],[131.035,31.378],[131.098,31.256],[130.902,31.112],[130.686,31.015],[130.79,31.269],[130.704,31.577],[130.796,31.624],[130.776,31.706],[130.655,31.718],[130.556,31.563],[130.54,31.403],[130.645,31.267],[130.589,31.179],[130.201,31.292],[130.147,31.408],[130.294,31.451],[130.322,31.601],[130.188,31.769],[130.211,31.849],[130.194,32.091],[130.319,32.144],[130.395,32.219],[130.641,32.619],[130.498,32.657],[130.569,32.734],[130.547,32.832],[130.44,32.951],[130.382,33.093],[130.238,33.178],[130.127,33.105],[130.173,33.013],[130.175,32.851],[130.326,32.853],[130.361,32.756],[130.34,32.702],[130.246,32.677],[130.152,32.748],[130.054,32.771],[129.769,32.571],[129.827,32.725],[129.69,32.875],[129.662,32.995],[129.679,33.06],[129.778,32.986],[129.828,32.893],[129.901,32.852],[129.992,32.852],[129.897,33.022],[129.58,33.236],[129.61,33.344],[129.66,33.365],[129.844,33.322],[129.858,33.375],[129.826,33.437],[130.072,33.522],[130.168,33.598],[130.365,33.634],[130.484,33.835],[130.716,33.928],[130.953,33.872],[131.058,33.673],[131.175,33.603]]]}},{"type":"Feature","properties":{"layer":"land"},"geometry":{"type":"Polygon","coordinates":[[[121.009,22.62],[120.897,22.379],[120.84,21.925],[120.743,21.956],[120.581,22.356],[120.316,22.548],[120.083,23.094],[120.072,23.15],[120.143,23.399],[120.132,23.653],[120.63,24.479],[120.836,24.723],[121.041,25.033],[121.365,25.159],[121.45,25.249],[121.594,25.275],[121.687,25.182],[121.853,25.104],[121.905,25.056],[121.929,24.974],[121.82,24.825],[121.828,24.534],[121.613,24.053],[121.397,23.173],[121.296,22.967],[121.009,22.62]]]}},{"type":"Feature","properties":{"layer":"land"},"geometry":{"type":"Polygon","coordinates":[[[110.889,19.992],[110.971,19.883],[111.014,19.655],[110.822,19.558],[110.641,19.291],[110.572,19.172],[110.451,18.748],[110.4,18.698],[110.252,18.656],[110.049,18.505],[110.067,18.448],[110.02,18.416],[109.816,18.397],[109.703,18.259],[109.519,18.218],[109.341,18.3],[109.03,18.368],[108.702,18.535],[108.636,18.908],[108.666,19.304],[109.277,19.761],[109.177,19.768],[109.263,19.883],[109.514,19.904],[109.584,19.97],[109.651,19.984],[109.906,19.963],[110.083,19.993],[110.172,20.054],[110.344,20.039],[110.392,19.976],[110.394,20.059],[110.588,19.976],[110.598,20.098],[110.652,20.138],[110.809,20.014],[110.889,19.992]]]}},{"type":"Feature","properties":{"layer":"land"},"geometry":{"type":"Polygon","coordinates":[[[114.232,22.211],[114.207,22.195],[114.134,22.292],[114.247,22.264],[114.232,22.211]]]}},{"type":"Feature","properties":{"layer":"land"},"geometry":{"type":"Polygon","coordinates":[[[126.753,34.344],[126.77,34.296],[126.689,34.305],[126.646,34.351],[126.652,34.39],[126.7,34.396],[126.753,34.344]]]}},{"type":"Feature","properties":{"layer":"land"},"geometry":{"type":"Polygon","coordinates":[[[134.352,34.484],[134.252,34.423],[134.182,34.519],[134.326,34.534],[134.372,34.522],[134.352,34.484]]]}},{"type":"Feature","properties":{"layer":"land"},"geometry":{"type":"Polygon","coordinates":[[[121.922,18.895],[121.858,18.823],[121.825,18.843],[121.889,18.992],[121.943,19.01],[121.988,18.957],[121.922,18.895]]]}},{"type":"Feature","properties":{"layer":"land"},"geometry":{"type":"Polygon","coordinates":[[[121.252,19.082],[121.247,19.015],[121.196,19.051],[121.185,19.101],[121.213,19.184],[121.252,19.082]]]}},{"type":"Feature","properties":{"layer":"land"},"geometry":{"type":"Polygon","coordinates":[[[121.521,19.362],[121.531,19.271],[121.472,19.273],[121.375,19.356],[121.392,19.399],[121.521,19.362]]]}},{"type":"Feature","properties":{"layer":"land"},"geometry":{"type":"Polygon","coordinates":[[[121.96,20.366],[121.914,20.359],[121.941,20.454],[122.031,20.469],[121.96,20.366]]]}},{"type":"Feature","properties":{"layer":"land"},"geometry":{"type":"Polygon","coordinates":[[[121.878,20.782],[121.83,20.7],[121.791,20.701],[121.848,20.841],[121.878,20.782]]]}},{"type":"Feature","properties":{"layer":"land"},"geometry":{"type":"Polygon","coordinates":[[[124.293,24.516],[124.234,24.358],[124.136,24.348],[124.085,24.436],[124.12,24.47],[124.211,24.459],[124.302,24.587],[124.324,24.566],[124.293,24.516]]]}},{"type":"Feature","properties":{"layer":"land"},"geometry":{"type":"Polygon","coordinates":[[[123.889,24.28],[123.681,24.288],[123.68,24.318],[123.752,24.348],[123.771,24.414],[123.935,24.362],[123.889,24.28]]]}},{"type":"Feature","properties":{"layer":"land"},"geometry":{"type":"Polygon","coordinates":[[[125.444,24.743],[125.359,24.717],[125.269,24.733],[125.284,24.872],[125.335,24.805],[125.444,24.743]]]}},{"type":"Feature","properties":{"layer":"land"},"geometry":{"type":"Polygon","coordinates":[[[128.259,26.653],[127.951,26.456],[127.867,26.442],[127.905,26.328],[127.849,26.319],[127.79,26.255],[127.806,26.171],[127.729,26.097],[127.653,26.095],[127.655,26.199],[127.727,26.308],[127.729,26.434],[127.82,26.466],[127.946,26.594],[127.891,26.631],[127.907,26.694],[128.03,26.647],[128.098,26.668],[128.255,26.882],[128.332,26.812],[128.259,26.653]]]}},{"type":"Feature","properties":{"layer":"land"},"geometry":{"type":"Polygon","coordinates":[[[128.998,27.721],[128.956,27.702],[128.9,27.728],[128.883,27.842],[128.908,27.898],[128.952,27.91],[129.016,27.77],[128.998,27.721]]]}},{"type":"Feature","properties":{"layer":"land"},"geometry":{"type":"Polygon","coordinates":[[[129.453,28.209],[129.366,28.128],[129.165,28.25],[129.248,28.283],[129.322,28.36],[129.51,28.398],[129.69,28.517],[129.71,28.432],[129.457,28.272],[129.453,28.209]]]}},{"type":"Feature","properties":{"layer":"land"},"geometry":{"type":"Polygon","coordinates":[[[129.324,28.105],[129.331,28.082],[129.232,28.101],[129.192,28.192],[129.257,28.176],[129.324,28.105]]]}},{"type":"Feature","properties":{"layer":"land"},"geometry":{"type":"Polygon","coordinates":[[[130.623,30.263],[130.508,30.241],[130.446,30.265],[130.388,30.388],[130.497,30.466],[130.644,30.389],[130.673,30.367],[130.623,30.263]]]}},{"type":"Feature","properties":{"layer":"land"},"geometry":{"type":"Polygon","coordinates":[[[130.96,30.397],[130.872,30.386],[130.87,30.444],[130.94,30.575],[130.947,30.671],[131.06,30.828],[131.083,30.791],[131.057,30.642],[130.96,30.397]]]}},{"type":"Feature","properties":{"layer":"land"},"geometry":{"type":"Polygon","coordinates":[[[128.665,32.784],[128.704,32.757],[128.839,32.763],[128.895,32.652],[128.79,32.637],[128.75,32.586],[128.693,32.605],[128.649,32.662],[128.665,32.784]]]}},{"type":"Feature","properties":{"layer":"land"},"geometry":{"type":"Polygon","coordinates":[[[130.083,32.23],[130.004,32.194],[129.96,32.244],[130.017,32.292],[129.979,32.346],[130.021,32.469],[130.01,32.522],[130.168,32.541],[130.197,32.492],[130.2,32.341],[130.083,32.23]]]}},{"type":"Feature","properties":{"layer":"land"},"geometry":{"type":"Polygon","coordinates":[[[130.381,32.424],[130.293,32.419],[130.242,32.463],[130.365,32.527],[130.461,32.516],[130.381,32.424]]]}},{"type":"Feature","properties":{"layer":"land"},"geometry":{"type":"Polygon","coordinates":[[[133.371,36.204],[133.325,36.167],[133.239,36.179],[133.19,36.233],[133.206,36.293],[133.296,36.34],[133.381,36.246],[133.371,36.204]]]}},{"type":"Feature","properties":{"layer":"land"},"geometry":{"type":"Polygon","coordinates":[[[134.933,34.288],[134.824,34.203],[134.731,34.209],[134.668,34.294],[134.834,34.473],[135.005,34.544],[134.905,34.398],[134.933,34.288]]]}},{"type":"Feature","properties":{"layer":"land"},"geometry":{"type":"Polygon","coordinates":[[[129.077,32.84],[129.052,32.829],[128.997,32.952],[129.035,32.969],[129.11,33.133],[129.153,33.003],[129.182,32.993],[129.112,32.929],[129.077,32.84]]]}},{"type":"Feature","properties":{"layer":"land"},"geometry":{"type":"Polygon","coordinates":[[[129.492,33.223],[129.37,33.176],[129.462,33.331],[129.57,33.361],[129.492,33.223]]]}},{"type":"Feature","properties":{"layer":"land"},"geometry":{"type":"Polygon","coordinates":[[[129.796,33.749],[129.727,33.707],[129.675,33.74],[129.717,33.858],[129.776,33.829],[129.796,33.749]]]}},{"type":"Feature","properties":{"layer":"land"},"geometry":{"type":"Polygon","coordinates":[[[129.279,34.123],[129.214,34.083],[129.186,34.145],[129.215,34.321],[129.337,34.285],[129.279,34.123]]]}},{"type":"Feature","properties":{"layer":"land"},"geometry":{"type":"Polygon","coordinates":[[[129.386,34.354],[129.365,34.306],[129.267,34.37],[129.329,34.522],[129.326,34.607],[129.451,34.687],[129.48,34.649],[129.475,34.54],[129.381,34.416],[129.386,34.354]]]}},{"type":"Feature","properties":{"layer":"land"},"geometry":{"type":"Polygon","coordinates":[[[132.578,34.115],[132.549,34.075],[132.461,34.087],[132.543,34.173],[132.578,34.115]]]}},{"type":"Feature","properties":{"layer":"land"},"geometry":{"type":"Polygon","coordinates":[[[132.266,33.945],[132.315,33.909],[132.43,33.924],[132.36,33.847],[132.209,33.873],[132.208,33.948],[132.266,33.945]]]}},{"type":"Feature","properties":{"layer":"land"},"geometry":{"type":"Polygon","coordinates":[[[118.407,24.522],[118.451,24.456],[118.433,24.414],[118.295,24.436],[118.287,24.477],[118.339,24.469],[118.407,24.522]]]}},{"type":"Feature","properties":{"layer":"land"},"geometry":{"type":"Polygon","coordinates":[[[118.183,24.496],[118.15,24.436],[118.091,24.446],[118.093,24.541],[118.183,24.496]]]}},{"type":"Feature","properties":{"layer":"land"},"geometry":{"type":"Polygon","coordinates":[[[128.741,34.799],[128.647,34.737],[128.489,34.865],[128.668,35.009],[128.722,35.014],[128.741,34.799]]]}},{"type":"Feature","properties":{"layer":"land"},"geometry":{"type":"Polygon","coordinates":[[[128.066,34.806],[128.055,34.708],[127.984,34.703],[127.942,34.766],[127.873,34.735],[127.832,34.875],[127.915,34.921],[128.038,34.879],[128.066,34.806]]]}},{"type":"Feature","properties":{"layer":"land"},"geometry":{"type":"Polygon","coordinates":[[[127.799,34.615],[127.788,34.584],[127.737,34.631],[127.787,34.682],[127.799,34.615]]]}},{"type":"Feature","properties":{"layer":"land"},"geometry":{"type":"Polygon","coordinates":[[[126.327,33.224],[126.24,33.215],[126.166,33.312],[126.199,33.368],[126.338,33.46],[126.696,33.549],[126.901,33.515],[126.931,33.444],[126.873,33.341],[126.582,33.238],[126.327,33.224]]]}},{"type":"Feature","properties":{"layer":"land"},"geometry":{"type":"Polygon","coordinates":[[[126.234,34.371],[126.17,34.355],[126.109,34.399],[126.123,34.444],[126.247,34.563],[126.344,34.545],[126.38,34.498],[126.335,34.426],[126.234,34.371]]]}},{"type":"Feature","properties":{"layer":"land"},"geometry":{"type":"Polygon","coordinates":[[[126.521,37.737],[126.516,37.605],[126.461,37.61],[126.407,37.649],[126.369,37.772],[126.412,37.823],[126.521,37.737]]]}},{"type":"Feature","properties":{"layer":"land"},"geometry":{"type":"Polygon","coordinates":[[[121.863,31.492],[121.78,31.464],[121.52,31.55],[121.336,31.644],[121.211,31.805],[121.464,31.756],[121.492,31.694],[121.577,31.637],[121.808,31.552],[121.863,31.492]]]}},{"type":"Feature","properties":{"layer":"land"},"geometry":{"type":"Polygon","coordinates":[[[122.296,29.963],[122.282,29.944],[122.158,30.001],[122.024,30.013],[121.978,30.064],[121.969,30.143],[122.111,30.14],[122.284,30.068],[122.322,30.031],[122.296,29.963]]]}},{"type":"Feature","properties":{"layer":"land"},"geometry":{"type":"Polygon","coordinates":[[[122.173,29.679],[122.043,29.736],[122.062,29.773],[122.12,29.782],[122.173,29.679]]]}},{"type":"Feature","properties":{"layer":"land"},"geometry":{"type":"Polygon","coordinates":[[[122.404,29.892],[122.394,29.846],[122.368,29.853],[122.332,29.935],[122.402,29.95],[122.404,29.892]]]}},{"type":"Feature","properties":{"layer":"land"},"geometry":{"type":"Polygon","coordinates":[[[119.821,25.457],[119.747,25.411],[119.7,25.433],[119.723,25.551],[119.696,25.591],[119.723,25.639],[119.778,25.653],[119.829,25.607],[119.821,25.457]]]}},{"type":"Feature","properties":{"layer":"land"},"geometry":{"type":"Polygon","coordinates":[[[110.385,21.093],[110.422,21.059],[110.522,21.083],[110.539,21.018],[110.504,20.968],[110.422,21.007],[110.281,21.001],[110.265,21.025],[110.31,21.075],[110.385,21.093]]]}},{"type":"Feature","properties":{"layer":"land"},"geometry":{"type":"Polygon","coordinates":[[[107.603,21.217],[107.459,21.092],[107.404,21.094],[107.476,21.269],[107.603,21.217]]]}},{"type":"Feature","properties":{"layer":"land"},"geometry":{"type":"Polygon","coordinates":[[[107.521,20.927],[107.399,20.903],[107.551,21.034],[107.521,20.927]]]}},{"type":"Feature","properties":{"layer":"land"},"geometry":{"type":"Polygon","coordinates":[[[107.031,20.747],[106.99,20.743],[106.911,20.824],[106.953,20.867],[107.044,20.837],[107.064,20.817],[107.031,20.747]]]}},{"type":"Feature","properties":{"layer":"land"},"geometry":{"type":"Polygon","coordinates":[[[106.866,20.816],[106.854,20.796],[106.769,20.864],[106.795,20.928],[106.866,20.816]]]}},{"type":"Feature","properties":{"layer":"land"},"geometry":{"type":"Polygon","coordinates":[[[97.575,16.253],[97.537,16.24],[97.48,16.306],[97.469,16.461],[97.542,16.505],[97.6,16.43],[97.575,16.253]]]}},{"type":"Feature","properties":{"layer":"land"},"geometry":{"type":"Polygon","coordinates":[[[94.396,16],[94.601,16.206],[94.619,16.141],[94.566,16.019],[94.396,16]]]}},{"type":"Feature","properties":{"layer":"land"},"geometry":{"type":"Polygon","coordinates":[[[93.691,18.684],[93.57,18.76],[93.488,18.868],[93.618,18.889],[93.745,18.866],[93.691,18.684]]]}},{"type":"Feature","properties":{"layer":"land"},"geometry":{"type":"Polygon","coordinates":[[[93.492,19.893],[93.513,19.755],[93.445,19.806],[93.413,19.95],[93.492,19.893]]]}},{"type":"Feature","properties":{"layer":"land"},"geometry":{"type":"Polygon","coordinates":[[[93.01,19.924],[93.023,19.829],[92.913,20],[92.915,20.086],[93.01,19.924]]]}},{"type":"Feature","properties":{"layer":"land"},"geometry":{"type":"Polygon","coordinates":[[[93.715,19.558],[93.946,19.429],[93.902,19.332],[93.815,19.299],[93.756,19.326],[93.732,19.416],[93.644,19.495],[93.715,19.558]]]}},{"type":"Feature","properties":{"layer":"land"},"geometry":{"type":"Polygon","coordinates":[[[91.874,21.832],[91.838,21.75],[91.82,21.81],[91.851,21.927],[91.883,21.884],[91.874,21.832]]]}},{"type":"Feature","properties":{"layer":"land"},"geometry":{"type":"Polygon","coordinates":[[[91.949,21.508],[91.889,21.503],[91.859,21.533],[91.857,21.709],[91.934,21.722],[91.949,21.508]]]}},{"type":"Feature","properties":{"layer":"land"},"geometry":{"type":"Polygon","coordinates":[[[91.151,22.175],[91.045,22.105],[91.079,22.52],[91.178,22.283],[91.151,22.175]]]}},{"type":"Feature","properties":{"layer":"land"},"geometry":{"type":"Polygon","coordinates":[[[91.557,22.382],[91.51,22.353],[91.467,22.378],[91.411,22.476],[91.456,22.617],[91.557,22.382]]]}},{"type":"Feature","properties":{"layer":"land"},"geometry":{"type":"Polygon","coordinates":[[[90.642,22.963],[90.66,22.92],[90.536,23.015],[90.58,23.035],[90.642,22.963]]]}},{"type":"Feature","properties":{"layer":"land"},"geometry":{"type":"Polygon","coordinates":[[[90.778,22.089],[90.515,22.065],[90.68,22.327],[90.649,22.541],[90.565,22.618],[90.503,22.835],[90.596,22.864],[90.672,22.813],[90.737,22.639],[90.868,22.485],[90.83,22.16],[90.778,22.089]]]}},{"type":"Feature","properties":{"layer":"land"},"geometry":{"type":"Polygon","coordinates":[[[129.718,31.657],[129.687,31.64],[129.707,31.718],[129.787,31.787],[129.794,31.742],[129.718,31.657]]]}},{"type":"Feature","properties":{"layer":"land"},"geometry":{"type":"Polygon","coordinates":[[[126.418,36.493],[126.404,36.428],[126.338,36.471],[126.319,36.613],[126.387,36.571],[126.418,36.493]]]}},{"type":"Feature","properties":{"layer":"land"},"geometry":{"type":"Polygon","coordinates":[[[124.905,39.536],[124.849,39.508],[124.846,39.559],[124.935,39.608],[124.905,39.536]]]}},{"type":"Feature","properties":{"layer":"land"},"geometry":{"type":"Polygon","coordinates":[[[121.251,28.086],[121.132,28.063],[121.134,28.135],[121.205,28.204],[121.251,28.145],[121.251,28.086]]]}},{"type":"Feature","properties":{"layer":"land"},"geometry":{"type":"Polygon","coordinates":[[[113.555,22.804],[113.564,22.758],[113.404,22.903],[113.465,22.905],[113.555,22.804]]]}},{"type":"Feature","properties":{"layer":"land"},"geometry":{"type":"Polygon","coordinates":[[[112.79,21.602],[112.771,21.582],[112.713,21.698],[112.782,21.772],[112.863,21.753],[112.801,21.695],[112.79,21.602]]]}},{"type":"Feature","properties":{"layer":"land"},"geometry":{"type":"Polygon","coordinates":[[[112.644,21.64],[112.525,21.623],[112.559,21.675],[112.648,21.71],[112.644,21.64]]]}},{"type":"Feature","properties":{"layer":"land"},"geometry":{"type":"Polygon","coordinates":[[[113.998,22.21],[113.877,22.21],[113.839,22.242],[114.044,22.333],[113.998,22.21]]]}},{"type":"Feature","properties":{"layer":"land"},"geometry":{"type":"Polygon","coordinates":[[[126.172,34.731],[126.115,34.714],[126.008,34.867],[126.078,34.915],[126.169,34.83],[126.172,34.731]]]}},{"type":"Feature","properties":{"layer":"land"},"geometry":{"type":"Polygon","coordinates":[[[130.916,37.478],[130.871,37.449],[130.81,37.51],[130.904,37.554],[130.934,37.53],[130.916,37.478]]]}},{"type":"Feature","properties":{"layer":"land"},"geometry":{"type":"Polygon","coordinates":[[[78,16],[78,55],[135.355,55],[135.263,54.943],[135.212,54.841],[135.258,54.731],[135.852,54.584],[136,54.596],[136,44.444],[135.875,44.374],[135.533,43.971],[135.483,43.835],[135.26,43.685],[135.131,43.526],[134.01,42.947],[133.709,42.83],[133.587,42.828],[133.16,42.697],[133.059,42.723],[132.997,42.808],[132.864,42.794],[132.709,42.876],[132.576,42.872],[132.481,42.91],[132.304,42.883],[132.334,43.239],[132.31,43.314],[132.029,43.119],[131.867,43.095],[131.898,43.171],[132.013,43.28],[131.939,43.302],[131.722,43.203],[131.516,42.996],[131.393,42.822],[131.292,42.772],[131.158,42.626],[130.756,42.673],[130.709,42.656],[130.834,42.523],[130.73,42.326],[130.637,42.275],[130.458,42.302],[130.236,42.183],[130.18,42.097],[130.007,41.991],[129.686,41.595],[129.682,41.494],[129.759,41.392],[129.766,41.304],[129.712,41.124],[129.742,40.932],[129.709,40.857],[129.341,40.726],[129.245,40.661],[129.11,40.491],[128.701,40.318],[128.611,40.198],[128.511,40.13],[128.304,40.036],[128.106,40.033],[127.967,39.996],[127.867,39.896],[127.568,39.782],[127.527,39.696],[127.549,39.461],[127.523,39.377],[127.457,39.401],[127.422,39.374],[127.383,39.296],[127.395,39.208],[127.786,39.084],[127.972,38.898],[128.329,38.681],[128.619,38.176],[129.052,37.678],[129.335,37.275],[129.418,37.059],[129.473,36.742],[129.433,36.637],[129.445,36.471],[129.393,36.323],[129.404,36.052],[129.458,36.006],[129.573,36.051],[129.419,35.498],[129.214,35.182],[128.98,35.102],[128.511,35.101],[128.419,35.016],[128.444,34.87],[128.095,34.934],[128.036,35.022],[127.873,34.966],[127.715,34.955],[127.639,34.89],[127.742,34.783],[127.715,34.721],[127.632,34.69],[127.524,34.84],[127.404,34.823],[127.39,34.743],[127.479,34.625],[127.325,34.463],[127.173,34.546],[127.261,34.662],[127.247,34.755],[127.031,34.607],[126.897,34.439],[126.826,34.451],[126.755,34.512],[126.611,34.404],[126.584,34.318],[126.531,34.314],[126.482,34.494],[126.333,34.59],[126.264,34.673],[126.301,34.72],[126.525,34.698],[126.473,34.756],[126.593,34.824],[126.421,34.823],[126.291,35.154],[126.361,35.217],[126.493,35.501],[126.614,35.571],[126.487,35.606],[126.488,35.647],[126.717,35.769],[126.753,35.872],[126.647,35.922],[126.693,36.014],[126.54,36.166],[126.548,36.478],[126.488,36.694],[126.389,36.651],[126.181,36.692],[126.161,36.772],[126.217,36.871],[126.487,37.007],[126.578,37.02],[126.687,36.96],[126.784,36.948],[126.872,36.824],[126.879,36.862],[126.977,36.939],[126.869,36.976],[126.746,37.194],[126.791,37.295],[126.65,37.447],[126.657,37.551],[126.563,37.717],[126.634,37.782],[126.37,37.878],[126.203,37.829],[126.117,37.743],[126.05,37.87],[125.942,37.874],[125.769,37.985],[125.695,37.963],[125.582,37.815],[125.449,37.73],[125.358,37.725],[125.311,37.844],[124.989,37.931],[125.247,38.057],[125.207,38.082],[124.995,38.078],[124.691,38.129],[124.875,38.233],[124.881,38.342],[124.974,38.48],[125.067,38.557],[125.31,38.665],[125.554,38.686],[125.424,38.747],[125.299,38.743],[125.169,38.806],[125.157,38.872],[125.41,39.288],[125.361,39.527],[125.1,39.59],[124.775,39.758],[124.739,39.742],[124.732,39.652],[124.638,39.615],[124.557,39.791],[124.349,39.907],[124.375,39.996],[124.35,40.012],[124.267,39.924],[124.106,39.841],[123.76,39.822],[123.651,39.882],[123.581,39.786],[123.348,39.763],[123.227,39.687],[123.032,39.674],[122.961,39.62],[122.84,39.601],[122.335,39.366],[121.982,39.053],[121.864,38.996],[121.677,39.003],[121.633,38.955],[121.67,38.892],[121.65,38.865],[121.32,38.808],[121.164,38.732],[121.107,38.921],[121.68,39.109],[121.628,39.22],[121.818,39.387],[121.275,39.385],[121.3,39.452],[121.267,39.545],[121.406,39.621],[121.518,39.639],[121.474,39.755],[121.517,39.845],[121.801,39.951],[122.191,40.358],[122.264,40.5],[122.275,40.542],[122.179,40.603],[122.14,40.688],[121.859,40.842],[121.835,40.974],[121.729,40.846],[121.175,40.901],[120.771,40.589],[120.479,40.231],[119.591,39.903],[119.391,39.752],[119.261,39.561],[119.225,39.408],[118.977,39.183],[118.626,39.177],[118.298,39.067],[118.148,39.195],[118.041,39.227],[117.866,39.191],[117.785,39.134],[117.554,38.691],[117.656,38.424],[117.767,38.312],[118.015,38.183],[118.543,38.095],[118.8,38.127],[118.94,38.043],[119.028,37.904],[119.038,37.777],[119.089,37.701],[118.991,37.641],[118.953,37.331],[119.112,37.201],[119.287,37.138],[119.761,37.155],[119.888,37.253],[119.883,37.351],[120.156,37.495],[120.312,37.623],[120.257,37.679],[120.75,37.834],[121.049,37.725],[121.22,37.6],[121.388,37.579],[121.64,37.46],[121.965,37.445],[122.057,37.529],[122.11,37.522],[122.169,37.456],[122.338,37.405],[122.602,37.426],[122.667,37.403],[122.573,37.318],[122.587,37.181],[122.447,37.068],[122.523,37.003],[122.52,36.947],[122.341,36.832],[122.242,36.85],[122.162,36.959],[121.933,36.959],[121.054,36.611],[120.811,36.633],[120.797,36.607],[120.883,36.539],[120.896,36.444],[120.847,36.426],[120.776,36.456],[120.712,36.413],[120.682,36.341],[120.681,36.168],[120.638,36.13],[120.393,36.054],[120.33,36.11],[120.328,36.228],[120.183,36.202],[120.094,36.119],[120.181,36.017],[120.285,35.984],[120.055,35.861],[119.979,35.74],[119.866,35.644],[119.72,35.589],[119.526,35.359],[119.43,35.301],[119.353,35.114],[119.216,35.012],[119.165,34.849],[119.201,34.748],[119.351,34.749],[119.583,34.582],[119.964,34.448],[120.267,34.274],[120.5,33.716],[120.505,33.638],[120.616,33.491],[120.871,33.017],[120.897,32.843],[120.853,32.764],[120.853,32.661],[120.99,32.567],[121.342,32.425],[121.401,32.372],[121.404,32.206],[121.451,32.153],[121.674,32.051],[121.832,31.9],[121.866,31.704],[121.764,31.7],[121.352,31.859],[121.146,31.842],[120.974,31.869],[120.792,32.032],[120.52,32.106],[120.184,31.966],[120.099,31.976],[120.036,31.936],[120.192,31.906],[120.497,32.02],[120.716,31.984],[120.788,31.82],[121.055,31.719],[121.205,31.628],[121.351,31.485],[121.661,31.32],[121.834,31.062],[121.878,30.917],[121.769,30.87],[121.528,30.841],[121.419,30.79],[121.31,30.7],[120.998,30.558],[120.897,30.393],[120.821,30.355],[120.45,30.388],[120.195,30.241],[120.353,30.247],[120.495,30.303],[120.633,30.133],[120.904,30.161],[121.159,30.302],[121.258,30.304],[121.433,30.227],[121.678,29.979],[122.083,29.87],[121.906,29.78],[121.677,29.584],[121.506,29.485],[121.69,29.511],[121.888,29.628],[121.941,29.606],[121.968,29.491],[121.918,29.135],[121.854,29.129],[121.791,29.226],[121.717,29.256],[121.534,29.237],[121.448,29.131],[121.521,29.118],[121.665,29.011],[121.68,28.953],[121.641,28.916],[121.54,28.932],[121.663,28.851],[121.63,28.768],[121.519,28.714],[121.475,28.641],[121.61,28.292],[121.51,28.324],[121.355,28.23],[121.272,28.222],[121.217,28.346],[121.146,28.327],[121.098,28.291],[120.959,28.037],[120.892,28.004],[120.748,28.01],[120.833,27.938],[120.833,27.891],[120.685,27.745],[120.665,27.639],[120.588,27.581],[120.629,27.482],[120.608,27.412],[120.385,27.156],[120.279,27.097],[120.139,26.886],[120.087,26.672],[120.043,26.634],[119.968,26.586],[119.882,26.61],[119.879,26.683],[119.842,26.689],[119.821,26.737],[119.824,26.846],[119.71,26.729],[119.588,26.785],[119.638,26.621],[119.726,26.609],[119.785,26.547],[119.881,26.334],[119.693,26.236],[119.463,26.055],[119.313,26.063],[119.139,26.122],[119.264,25.975],[119.332,25.949],[119.418,25.954],[119.501,26.009],[119.619,26.004],[119.648,25.919],[119.553,25.699],[119.539,25.591],[119.622,25.391],[119.593,25.368],[119.422,25.46],[119.18,25.45],[119.146,25.414],[119.169,25.356],[119.244,25.307],[119.286,25.232],[119.236,25.206],[118.978,25.209],[118.914,25.127],[118.956,25.005],[118.909,24.929],[118.637,24.836],[118.719,24.746],[118.657,24.621],[118.56,24.58],[118.412,24.601],[118.295,24.573],[118.195,24.626],[118.087,24.627],[118.014,24.56],[118.006,24.482],[117.843,24.474],[117.879,24.396],[118.024,24.38],[118.056,24.246],[117.839,24.012],[117.742,24.015],[117.668,23.939],[117.628,23.837],[117.466,23.841],[117.433,23.792],[117.462,23.736],[117.417,23.621],[117.368,23.589],[117.331,23.709],[117.291,23.714],[117.225,23.647],[117.083,23.579],[117.033,23.623],[116.911,23.647],[116.861,23.453],[116.712,23.36],[116.629,23.354],[116.682,23.327],[116.699,23.278],[116.669,23.228],[116.538,23.18],[116.52,23.007],[116.471,22.946],[116.346,22.941],[116.252,22.981],[116.157,22.887],[115.852,22.802],[115.64,22.853],[115.561,22.825],[115.498,22.719],[115.383,22.719],[115.196,22.817],[114.914,22.685],[114.854,22.617],[114.75,22.626],[114.711,22.739],[114.652,22.755],[114.544,22.621],[114.554,22.529],[114.341,22.593],[114.266,22.541],[114.335,22.396],[114.291,22.374],[114.268,22.296],[114.033,22.376],[113.937,22.365],[113.903,22.396],[113.896,22.428],[114.015,22.512],[113.931,22.531],[113.828,22.607],[113.754,22.734],[113.62,22.861],[113.586,23.02],[113.621,23.127],[113.52,23.102],[113.445,23.055],[113.442,22.941],[113.331,22.912],[113.553,22.594],[113.551,22.404],[113.589,22.35],[113.548,22.223],[113.367,22.165],[113.266,22.089],[113.149,22.075],[113.089,22.208],[113.008,22.119],[112.984,21.938],[112.954,21.907],[112.904,21.881],[112.809,21.945],[112.661,21.859],[112.586,21.777],[112.421,21.881],[112.429,21.958],[112.36,21.978],[112.39,21.801],[112.305,21.742],[111.944,21.85],[111.873,21.717],[111.776,21.719],[111.603,21.559],[111.392,21.535],[111.319,21.486],[111.017,21.512],[110.997,21.43],[110.771,21.387],[110.567,21.214],[110.458,21.231],[110.411,21.338],[110.375,21.172],[110.194,21.038],[110.154,20.945],[110.18,20.859],[110.365,20.838],[110.388,20.791],[110.313,20.672],[110.512,20.518],[110.518,20.46],[110.45,20.355],[110.345,20.295],[110.123,20.264],[109.938,20.295],[109.883,20.364],[109.886,20.413],[109.984,20.403],[109.968,20.448],[109.861,20.514],[109.792,20.622],[109.805,20.711],[109.663,20.917],[109.704,21.053],[109.681,21.132],[109.76,21.228],[109.78,21.337],[109.921,21.376],[109.931,21.481],[109.83,21.484],[109.759,21.56],[109.743,21.528],[109.687,21.525],[109.594,21.672],[109.521,21.693],[109.544,21.538],[109.347,21.454],[109.082,21.44],[109.133,21.544],[109.102,21.59],[109.031,21.627],[108.772,21.63],[108.616,21.77],[108.594,21.901],[108.48,21.905],[108.526,21.671],[108.502,21.633],[108.444,21.607],[108.383,21.679],[108.325,21.694],[108.246,21.558],[108.146,21.565],[108.067,21.526],[107.809,21.497],[107.637,21.368],[107.41,21.285],[107.354,21.055],[107.165,20.949],[107.075,20.999],[106.886,20.95],[106.683,21],[106.753,20.735],[106.551,20.527],[106.573,20.392],[106.518,20.289],[106.166,19.992],[106.062,19.987],[105.984,19.939],[105.814,19.587],[105.791,19.294],[105.716,19.128],[105.639,19.057],[105.622,18.966],[105.888,18.502],[106.066,18.316],[106.24,18.221],[106.499,17.946],[106.459,17.874],[106.479,17.72],[106.356,17.765],[106.371,17.747],[106.517,17.663],[106.736,17.367],[107.12,17.056],[107.18,16.898],[107.549,16.643],[107.541,16.609],[107.803,16.403],[107.834,16.322],[108.029,16.331],[108.209,16.091],[108.267,16.09],[108.283,16],[97.601,16],[97.641,16.254],[97.634,16.458],[97.726,16.569],[97.376,16.523],[97.212,16.893],[97.178,17.062],[97.2,17.095],[96.851,17.401],[96.91,17.305],[96.851,17.203],[96.909,17.031],[96.765,16.71],[96.622,16.564],[96.431,16.505],[96.364,16.521],[96.282,16.596],[96.249,16.765],[96.189,16.768],[96.237,16.567],[96.324,16.444],[96.135,16.343],[96.043,16.34],[96.012,16.254],[95.763,16.169],[95.687,16],[95.362,16],[95.347,16.098],[95.31,16],[94.892,16],[94.893,16.183],[94.821,16],[94.656,16],[94.72,16.399],[94.703,16.512],[94.665,16.336],[94.588,16.289],[94.442,16.094],[94.299,16.008],[94.224,16.016],[94.271,16.517],[94.353,16.64],[94.4,16.868],[94.452,16.954],[94.473,17.135],[94.564,17.309],[94.589,17.569],[94.494,17.825],[94.431,18.202],[94.171,18.732],[94.246,18.741],[94.07,18.893],[94.045,19.287],[94.002,19.182],[93.941,19.146],[93.968,18.995],[93.929,18.9],[93.705,19.027],[93.493,19.369],[93.579,19.401],[93.728,19.267],[93.825,19.238],[93.962,19.329],[93.998,19.441],[93.84,19.534],[93.74,19.697],[93.612,19.776],[93.707,19.912],[93.582,19.91],[93.41,20.038],[93.25,20.07],[93.157,20.041],[93.199,19.898],[93.191,19.851],[93.129,19.858],[93.002,20.075],[93.096,20.181],[93.015,20.185],[93.067,20.378],[93.035,20.406],[92.991,20.288],[92.882,20.152],[92.791,20.211],[92.891,20.34],[92.851,20.415],[92.709,20.564],[92.723,20.296],[92.608,20.47],[92.248,20.884],[92.056,21.175],[92.008,21.685],[91.913,21.883],[91.825,22.229],[91.863,22.35],[91.797,22.297],[91.693,22.505],[91.53,22.708],[91.482,22.797],[91.48,22.885],[91.216,22.642],[90.946,22.597],[90.827,22.721],[90.656,23.025],[90.634,23.094],[90.656,23.273],[90.604,23.591],[90.562,23.537],[90.556,23.422],[90.269,23.456],[90.392,23.367],[90.523,23.346],[90.591,23.266],[90.595,23.134],[90.466,23.054],[90.478,22.987],[90.552,22.905],[90.462,22.882],[90.435,22.752],[90.498,22.635],[90.487,22.589],[90.616,22.362],[90.589,22.258],[90.356,22.048],[90.231,21.83],[90.159,21.817],[90.071,21.887],[90.088,22.017],[90.21,22.157],[89.954,22.023],[89.918,22.116],[89.894,22.308],[89.985,22.466],[89.882,22.388],[89.853,22.091],[89.812,21.983],[89.569,21.767],[89.483,22.276],[89.501,21.914],[89.354,21.721],[89.234,21.722],[89.094,21.873],[89.051,22.093],[89.028,21.937],[88.949,21.938],[89.02,21.834],[89.052,21.654],[88.907,21.653],[88.858,21.745],[88.834,21.661],[88.745,21.584],[88.695,21.662],[88.691,21.733],[88.74,22.005],[88.708,22.056],[88.66,22.067],[88.642,22.122],[88.567,21.832],[88.6,21.714],[88.585,21.66],[88.446,21.614],[88.288,21.758],[88.254,21.622],[88.122,21.636],[88.057,21.694],[88.196,22.14],[87.994,22.266],[87.941,22.374],[87.962,22.255],[88.159,22.122],[87.948,21.825],[87.678,21.654],[87.101,21.501],[86.86,21.237],[86.842,21.106],[86.939,20.745],[86.975,20.7],[86.763,20.419],[86.75,20.313],[86.499,20.172],[86.377,20.007],[86.245,20.053],[86.312,19.988],[86.279,19.919],[86.216,19.896],[85.575,19.693],[85.497,19.697],[85.56,19.753],[85.555,19.867],[85.504,19.888],[85.46,19.896],[85.249,19.758],[85.163,19.621],[85.181,19.595],[85.371,19.679],[85.437,19.657],[85.442,19.627],[85.226,19.508],[84.771,19.125],[84.691,18.965],[84.104,18.293],[83.654,18.07],[83.198,17.609],[82.977,17.462],[82.593,17.274],[82.36,17.096],[82.282,16.936],[82.36,16.783],[82.327,16.664],[82.259,16.56],[82.142,16.485],[81.762,16.329],[81.402,16.365],[81.286,16.337],[81.146,16],[78,16]]]}},{"type":"Feature","properties":{"layer":"land"},"geometry":{"type":"Polygon","coordinates":[[[124.745,37.981],[124.754,37.955],[124.697,37.92],[124.625,37.945],[124.636,37.981],[124.745,37.981]]]}},{"type":"Feature","properties":{"layer":"river"},"geometry":{"type":"MultiLineString","coordinates":[[[106.497,52.383],[106.438,52.415],[106.221,52.36],[105.725,51.998],[105.556,51.908],[105.141,51.816],[104.99,51.819],[104.866,51.872]],[[103.374,53.107],[103.403,53.282],[103.384,53.594],[103.279,53.797],[103.087,54.032],[103.058,54.218],[103.19,54.355],[103.251,54.481],[103.24,54.598],[103.192,54.696],[103.107,54.774],[103.133,54.892],[103.225,55]]]}},{"type":"Feature","properties":{"layer":"river"},"geometry":{"type":"LineString","coordinates":[[87.756,51.364],[87.686,51.636],[87.595,51.735],[87.392,51.762]]}},{"type":"Feature","properties":{"layer":"river"},"geometry":{"type":"LineString","coordinates":[[83.364,49.644],[83.959,49.379],[84.204,49.162],[84.012,49.07],[83.714,48.984],[83.533,48.889],[83.468,48.784],[83.45,48.668],[83.524,48.455],[83.587,48.404],[83.589,48.359],[83.507,48.273],[83.516,48.222],[84.072,47.902],[84.285,47.734],[84.357,47.732]]}},{"type":"Feature","properties":{"layer":"river"},"geometry":{"type":"LineString","coordinates":[[115.982,29.279],[116.034,29.319],[116.198,29.751]]}},{"type":"Feature","properties":{"layer":"river"},"geometry":{"type":"LineString","coordinates":[[111.478,32.568],[111,32.741]]}},{"type":"Feature","properties":{"layer":"river"},"geometry":{"type":"MultiLineString","coordinates":[[[97.288,34.835],[97.248,34.889],[97.072,34.931]],[[97.763,35.088],[97.714,34.962],[97.659,34.909],[97.546,34.876]]]}},{"type":"Feature","properties":{"layer":"river"},"geometry":{"type":"LineString","coordinates":[[78.997,16.23],[79.157,16.235],[79.211,16.301],[79.238,16.515],[79.313,16.579]]}},{"type":"Feature","properties":{"layer":"river"},"geometry":{"type":"LineString","coordinates":[[83.858,21.52],[83.636,21.728],[83.578,21.736],[83.425,21.658],[83.3,21.695]]}},{"type":"Feature","properties":{"layer":"river"},"geometry":{"type":"LineString","coordinates":[[83.025,54.845],[82.312,54.491],[81.741,54.269],[81.522,54.104],[81.391,54.052],[81.327,53.991],[81.334,53.886]]}},{"type":"Feature","properties":{"layer":"river"},"geometry":{"type":"LineString","coordinates":[[99.427,51.349],[99.31,51.41]]}},{"type":"Feature","properties":{"layer":"river"},"geometry":{"type":"LineString","coordinates":[[81.295,30.792],[81.199,30.852]]}},{"type":"Feature","properties":{"layer":"river"},"geometry":{"type":"LineString","coordinates":[[91.511,53.735],[91.454,53.83],[91.551,54.079],[91.358,54.311],[91.269,54.479],[91.016,54.628],[90.939,54.722],[90.947,54.832],[91.059,55]]}},{"type":"Feature","properties":{"layer":"river"},"geometry":{"type":"MultiLineString","coordinates":[[[112.905,29.031],[112.801,28.927],[112.545,28.838],[112.351,28.861],[111.993,28.985]],[[112.994,29.147],[113.071,29.389]]]}},{"type":"Feature","properties":{"layer":"river"},"geometry":{"type":"LineString","coordinates":[[136,48.907],[135.745,48.764],[135.445,48.768],[135.185,48.705],[135.077,48.645],[135.026,48.571],[135.032,48.482],[134.965,48.421],[134.823,48.388],[134.487,48.403],[134.206,48.36],[133.842,48.274],[133.468,48.097],[133.144,48.106],[133.02,48.064],[132.877,47.979],[132.707,47.947],[132.562,47.769],[132.476,47.715],[131.557,47.682],[131.464,47.723],[131.319,47.728],[131.003,47.691],[130.962,47.709],[130.849,47.929],[130.733,48.019],[130.712,48.128],[130.804,48.341],[130.747,48.43],[130.552,48.603],[130.617,48.773],[130.553,48.861],[130.196,48.892],[130.037,48.972],[129.671,49.278],[129.534,49.323],[129.498,49.389],[129.385,49.389],[129.31,49.354],[129.065,49.375],[129.02,49.419],[128.819,49.464],[128.77,49.495],[128.791,49.542],[128.769,49.577],[128.704,49.6],[128.237,49.559],[128,49.569],[127.814,49.622],[127.711,49.672],[127.502,49.873],[127.512,50.072],[127.59,50.209]]}},{"type":"Feature","properties":{"layer":"river"},"geometry":{"type":"LineString","coordinates":[[104.867,51.87],[104.437,52.165],[104.205,52.399],[103.973,52.54],[103.945,52.61],[103.71,52.799],[103.698,52.873],[103.39,53.032],[103.374,53.107]]}},{"type":"Feature","properties":{"layer":"river"},"geometry":{"type":"LineString","coordinates":[[121.405,53.317],[120.985,53.285],[120.704,53.172],[120.218,52.84],[120.095,52.787],[120.044,52.718],[120.068,52.633],[120.173,52.602],[120.36,52.627],[120.521,52.615],[120.656,52.567],[120.699,52.494],[120.65,52.396],[120.665,52.3],[120.744,52.205],[120.75,52.097],[120.682,51.973],[120.511,51.849],[120.237,51.723],[120.067,51.601],[119.967,51.422],[119.813,51.267],[119.746,51.108],[119.512,50.863],[119.502,50.779],[119.446,50.703],[119.344,50.634],[119.217,50.433],[119.164,50.406],[119.302,50.354],[119.346,50.279],[119.326,50.155],[119.26,50.066],[118.98,49.979],[118.756,49.963],[118.452,49.845],[117.873,49.513]]}},{"type":"Feature","properties":{"layer":"river"},"geometry":{"type":"LineString","coordinates":[[97.519,25.701],[97.449,25.417],[97.394,25.337],[97.34,25.35],[97.292,25.31],[97.249,25.216],[97.25,25.152],[97.29,25.1],[97.239,25.091],[97.196,24.981],[97.117,24.933],[97.055,24.835],[97.12,24.432],[97.198,24.252],[97.183,24.214],[96.991,24.145],[96.892,24.169],[96.737,24.307],[96.647,24.341],[96.479,24.317],[96.331,24.148],[96.28,23.946],[96.085,23.653],[96.006,23.359],[95.949,22.754],[95.917,22.723],[96.02,22.23],[96.034,22.026],[96.009,21.907],[95.879,21.875],[95.811,21.913],[95.578,21.921],[95.481,21.871],[95.373,21.666],[95.315,21.458],[95.173,21.345],[94.9,21.232],[94.82,21.146],[94.82,21.03],[94.74,20.854],[94.761,20.702],[94.857,20.477],[94.956,20.071],[95.14,19.845],[95.169,19.71],[95.177,19.277],[95.136,19.087],[95.14,18.945],[95.189,18.852],[95.18,18.771],[95.076,18.641],[95.067,18.588],[95.4,18.181],[95.485,17.698],[95.539,17.642],[95.552,17.529],[95.645,17.439],[95.655,17.39],[95.611,17.332],[95.625,17.086],[95.574,16.977],[95.6,16.902],[95.543,16.838],[95.404,16.784],[95.331,16.721],[95.322,16.647],[95.236,16.52],[94.952,16.21],[94.893,16.183]]}},{"type":"Feature","properties":{"layer":"river"},"geometry":{"type":"LineString","coordinates":[[87.392,51.762],[87.177,51.849],[87.107,51.976],[87.112,52.171],[87.07,52.293],[86.868,52.454],[86.798,52.46],[86.431,52.633],[86.334,52.586],[86.318,52.534],[86.019,52.617],[85.855,52.574],[85.604,52.6],[85.392,52.578],[85.228,52.534],[85.056,52.434]]}},{"type":"Feature","properties":{"layer":"river"},"geometry":{"type":"MultiLineString","coordinates":[[[89.739,24.33],[89.708,23.962],[89.744,23.859],[89.994,23.621],[90.267,23.459]],[[89.739,24.33],[89.809,24.172],[90.116,23.971],[90.214,23.869],[90.244,23.735],[90.291,23.745],[90.355,23.709],[90.562,23.537]],[[95.396,28.003],[95.444,27.884],[95.369,27.806],[95.116,27.698],[95.139,27.644],[94.801,27.487],[94.652,27.322],[94.518,27.072],[94.193,26.885],[94.023,26.867],[93.752,26.732],[93.245,26.718],[93.161,26.671],[92.656,26.58],[92.615,26.538],[92.312,26.495],[92.155,26.418],[91.966,26.27],[91.644,26.164],[91.436,26.151],[91.152,26.205],[90.917,26.151],[90.76,26.155],[90.58,26.204],[90.356,26.174],[90.088,26.065],[89.89,25.901],[89.762,25.682],[89.699,25.49],[89.68,25.168],[89.613,24.948],[89.729,24.649],[89.739,24.33]]]}},{"type":"Feature","properties":{"layer":"river"},"geometry":{"type":"LineString","coordinates":[[103.851,28.668],[103.942,28.627],[104.335,28.636],[104.492,28.679],[104.62,28.779],[104.753,28.817],[104.985,28.79],[105.091,28.724],[105.209,28.786],[105.351,28.805],[105.424,28.877],[105.577,28.922],[105.785,28.906],[105.803,28.862],[105.861,28.837],[105.89,28.884],[105.834,28.98],[105.865,29.025],[106.146,29.125],[106.157,29.195],[106.253,29.274],[106.518,29.426],[106.505,29.462],[106.572,29.589],[106.618,29.612],[106.66,29.586],[106.802,29.588],[106.998,29.763],[107.084,29.787],[107.15,29.721],[107.237,29.699],[107.345,29.718],[107.419,29.771],[107.458,29.856],[107.53,29.89],[107.634,29.873],[107.842,30.043],[108.308,30.58],[108.391,30.692],[108.443,30.853],[108.496,30.892],[109.545,31.034],[109.646,31.008],[109.984,31.061],[110.043,31.037],[110.285,31.045],[110.828,30.922],[110.971,30.852],[111.159,30.829],[111.309,30.673],[111.465,30.418],[111.507,30.407],[111.538,30.287],[111.818,30.426],[111.969,30.323],[112.247,30.278],[112.252,30.191],[112.215,30.125],[112.252,30.068],[112.363,30.018],[112.406,29.927],[112.381,29.793],[112.41,29.738],[112.544,29.792],[112.629,29.752],[112.707,29.799],[112.782,29.744],[112.942,29.74],[112.924,29.53],[113.128,29.463]]}},{"type":"Feature","properties":{"layer":"river"},"geometry":{"type":"LineString","coordinates":[[89.656,50.505],[89.403,50.598],[88.946,50.608],[88.76,50.656],[88.636,50.764],[88.22,50.929],[87.861,51.151],[87.735,51.302],[87.756,51.364]]}},{"type":"Feature","properties":{"layer":"river"},"geometry":{"type":"LineString","coordinates":[[100.07,33.006],[100.165,32.896],[100.371,32.779],[100.509,32.627],[100.801,32.427],[100.802,32.37],[100.921,32.295],[100.97,32.212],[100.999,32.009],[101.214,31.837],[101.422,31.8],[101.694,31.841],[101.879,31.823],[101.977,31.748],[102.039,31.646],[102.055,31.432],[102.004,31.35],[102.034,31.316],[101.887,31.105],[101.876,30.985],[101.882,30.925],[102.058,30.655],[102.169,30.291],[102.185,30.032],[102.214,29.979],[102.182,29.614],[102.206,29.439],[102.285,29.316],[102.397,29.278],[102.616,29.35],[102.76,29.313],[102.839,29.237],[102.979,29.288],[103.022,29.258],[103.096,29.288],[103.278,29.261],[103.427,29.316],[103.644,29.236],[103.639,29.321],[103.596,29.333],[103.559,29.4],[103.719,29.537]]}},{"type":"Feature","properties":{"layer":"river"},"geometry":{"type":"LineString","coordinates":[[94.356,29.31],[94.526,29.439],[94.844,29.521],[94.897,29.58],[94.909,29.689],[95.069,29.752],[95.171,29.876],[95.294,29.85],[95.312,29.801],[95.36,29.781],[95.418,29.531],[95.385,29.41],[94.944,29.09],[94.83,28.933],[94.809,28.846],[94.88,28.829],[94.961,28.751],[95.097,28.506],[95.094,28.439],[95.003,28.258],[95.022,28.202],[95.291,28.127],[95.396,28.003]]}},{"type":"Feature","properties":{"layer":"river"},"geometry":{"type":"MultiLineString","coordinates":[[[85.267,47.994],[84.999,47.928],[84.6,47.744],[84.357,47.732]],[[83.364,49.644],[83.128,49.682],[82.991,49.748],[82.872,49.856],[82.321,50.101],[82.273,50.185],[82.15,50.219],[81.953,50.202],[81.775,50.228],[81.482,50.325],[81.379,50.319],[81.089,50.382],[80.426,50.373],[80.242,50.41],[80.139,50.473],[79.702,50.517],[79.313,50.662],[79.203,50.678],[79.05,50.63],[78.9,50.651],[78.545,50.767],[78.245,50.923],[78.171,50.993],[78,51.286]]]}},{"type":"Feature","properties":{"layer":"river"},"geometry":{"type":"LineString","coordinates":[[90.325,47.65],[90.253,47.43],[90.132,47.401],[89.973,47.269],[89.655,47.126],[89.546,47.03],[89.406,46.99],[89.233,47.005],[88.515,47.233],[87.559,47.427],[87.387,47.495],[87.331,47.555],[87.1,47.591],[86.607,47.832],[86.433,47.878],[86.31,47.853],[86.154,47.876],[85.966,47.945],[85.521,48.016],[85.267,47.994]]}},{"type":"Feature","properties":{"layer":"river"},"geometry":{"type":"LineString","coordinates":[[114.412,24.707],[114.53,24.735],[114.73,24.882],[114.762,24.953],[114.748,25.051],[114.783,25.113],[114.865,25.137],[114.899,25.196],[114.885,25.29],[114.93,25.43],[115.09,25.746],[115.101,25.826],[115.068,25.864],[114.94,25.882],[114.913,25.93],[114.938,26.105],[114.904,26.125],[114.946,26.237],[114.738,26.497],[114.717,26.614],[114.797,26.722],[114.995,26.849],[114.98,26.897],[115.021,27.032],[114.99,27.083],[115.076,27.198],[115.098,27.284],[115.075,27.396],[115.13,27.512],[115.264,27.634],[115.369,27.785],[115.445,27.966],[115.577,28.11],[115.765,28.218],[115.848,28.317],[115.816,28.585],[115.975,28.888],[116.016,29.05],[115.982,29.279]]}},{"type":"Feature","properties":{"layer":"river"},"geometry":{"type":"MultiLineString","coordinates":[[[89.483,22.276],[89.425,22.496],[89.372,22.581],[89.3,22.619]],[[89.3,22.619],[89.261,22.574],[89.255,22.445],[89.379,22.058],[89.336,21.788],[89.354,21.721]],[[88.44,22.986],[88.347,22.735],[88.344,22.629],[88.118,22.41],[88.087,22.218]],[[88.44,22.986],[88.682,22.954],[88.82,22.858],[88.843,22.803],[88.823,22.748],[88.91,22.659],[89.05,22.275],[89.051,22.093]],[[90.074,23.573],[90.127,23.252],[90.299,23.088],[90.362,22.961],[90.394,22.775],[90.435,22.752]],[[89.109,23.992],[89.219,23.808],[89.447,23.64],[89.5,23.572],[89.509,23.499],[89.598,23.443],[89.638,23.252],[89.709,23.192],[89.765,23.02],[89.926,22.84],[90.008,22.685],[89.985,22.466]],[[89.109,23.992],[89.2,23.933],[89.38,23.901],[89.497,23.844],[89.604,23.823],[89.749,23.848]],[[88.397,24.389],[88.51,24.261],[88.554,24.129],[88.643,24.059],[88.636,24.012],[88.805,23.928],[88.864,23.856],[88.868,23.752],[88.772,23.598],[88.764,23.531],[88.989,23.333],[89.028,23.186],[89.113,23.04],[89.113,22.893],[89.154,22.809],[89.268,22.708],[89.3,22.619]],[[88.397,24.389],[88.642,24.326],[88.724,24.275],[88.77,24.144],[88.926,24.155],[89.01,24.109],[89.109,23.992]],[[87.92,24.825],[87.94,24.666],[88.175,24.389],[88.238,24.234],[88.209,24.079],[88.227,23.831],[88.183,23.7],[88.214,23.637],[88.345,23.53],[88.375,23.255],[88.43,23.227],[88.486,23.134],[88.44,22.986]],[[87.92,24.825],[87.999,24.661],[88.145,24.486],[88.225,24.461],[88.287,24.48],[88.397,24.389]],[[79.841,30.888],[79.82,30.837],[79.865,30.679],[79.745,30.543],[79.667,30.522],[79.571,30.55],[79.47,30.516],[79.232,30.301],[78.777,30.26],[78.669,30.201],[78.614,30.116],[78.52,30.09],[78.387,30.124],[78.281,30.093],[78.203,29.998],[78.17,29.889],[78.183,29.768],[78.139,29.673],[78.04,29.606],[78.022,29.492],[78.106,29.181],[78.098,28.882],[78.284,28.352],[78.43,28.146],[78.855,27.893],[79.112,27.82],[79.255,27.68],[79.519,27.568],[79.733,27.217],[79.922,27.126],[80.094,26.837],[80.544,26.317],[80.652,26.138],[80.76,26.066],[80.869,26.038],[80.978,26.053],[81.123,25.989],[81.303,25.844],[81.458,25.646],[81.573,25.606],[81.686,25.518],[81.907,25.487],[81.903,25.413],[82.042,25.312],[82.183,25.296],[82.226,25.243],[82.274,25.262],[82.318,25.23],[82.436,25.235],[82.513,25.184],[82.62,25.22],[82.786,25.144],[82.879,25.142],[82.965,25.188],[83.074,25.33],[83.139,25.344],[83.159,25.377],[83.139,25.472],[83.17,25.51],[83.353,25.498],[83.489,25.444],[83.518,25.534],[83.6,25.584],[83.67,25.607],[83.803,25.519],[83.866,25.522],[84.171,25.722],[84.226,25.694],[84.428,25.747],[84.634,25.708],[84.827,25.747],[84.981,25.734],[85.119,25.683],[85.338,25.544],[85.555,25.544],[85.697,25.474],[85.786,25.495],[86.098,25.324],[86.237,25.303],[86.571,25.448],[86.584,25.373],[86.668,25.276],[86.841,25.327],[86.965,25.32],[87.115,25.26],[87.219,25.267],[87.275,25.34],[87.444,25.394],[87.779,25.193],[87.78,25.124],[87.942,24.956],[87.92,24.825]]]}},{"type":"Feature","properties":{"layer":"river"},"geometry":{"type":"MultiLineString","coordinates":[[[81.739,16.942],[81.856,16.553],[81.839,16.503],[81.706,16.4],[81.712,16.334]],[[81.739,16.942],[81.888,16.777],[82.034,16.713],[82.339,16.707]],[[78,18.887],[78.235,18.984],[78.275,18.948],[78.429,18.98],[78.504,18.956],[78.701,19.027],[78.751,19.014],[78.953,19.063],[79.05,19.033],[79.201,18.871],[79.317,18.816],[79.401,18.843],[79.727,18.69],[79.874,18.802],[79.925,18.807],[80.142,18.702],[80.319,18.686],[80.366,18.632],[80.389,18.509],[80.485,18.324],[80.688,18.166],[80.84,17.996],[80.892,17.865],[80.895,17.716],[80.986,17.622],[81.165,17.582],[81.291,17.506],[81.587,17.41],[81.739,16.942]]]}},{"type":"Feature","properties":{"layer":"river"},"geometry":{"type":"LineString","coordinates":[[117.873,49.513],[117.912,49.429],[118.057,49.319],[118.175,49.332],[118.44,49.437],[118.524,49.405],[118.617,49.262],[118.747,49.212],[119.232,49.199],[119.45,49.275],[120.118,49.225],[120.518,49.256],[120.911,49.368],[121.626,49.635],[121.878,49.678],[122.287,49.849]]}},{"type":"Feature","properties":{"layer":"river"},"geometry":{"type":"MultiLineString","coordinates":[[[111.478,32.568],[111.602,32.468],[111.685,32.265],[111.78,32.141],[111.919,32.065],[112.101,32.036],[112.189,31.966],[112.181,31.853],[112.225,31.771],[112.39,31.657],[112.432,31.586],[112.434,31.308],[112.572,31.183],[112.58,31.118],[112.523,31.039],[112.556,30.939],[112.634,30.848],[112.605,30.713],[112.627,30.67],[112.689,30.658],[112.716,30.575],[112.797,30.564],[112.849,30.519],[112.973,30.531],[113.21,30.43],[113.381,30.407],[113.512,30.443],[113.672,30.597],[113.939,30.66],[114.096,30.586],[114.288,30.572]],[[106.398,33.068],[106.676,33.142],[106.832,33.134],[107.026,33.042],[107.189,33.063],[107.42,33.165],[107.596,33.2],[107.807,33.178],[107.905,33.234],[107.956,33.175],[107.956,33.112],[108.195,33.024],[108.266,32.964],[108.247,32.881],[108.288,32.811],[108.411,32.734],[108.425,32.665],[108.512,32.55],[108.651,32.506],[108.718,32.528],[108.782,32.614],[108.922,32.636],[109.063,32.735],[109.175,32.775],[109.257,32.757],[109.487,32.886],[109.739,32.937],[110.305,32.807],[110.367,32.841],[110.715,32.815],[110.736,32.846],[110.808,32.848],[110.931,32.821],[111,32.741]]]}},{"type":"Feature","properties":{"layer":"river"},"geometry":{"type":"LineString","coordinates":[[127.59,50.209],[127.337,50.35],[127.341,50.428],[127.306,50.454],[127.347,50.621],[127.307,50.708],[126.925,51.1],[126.834,51.315],[126.848,51.374],[126.802,51.448],[126.805,51.506],[126.709,51.566],[126.701,51.703],[126.511,51.926],[126.456,52.126],[126.395,52.173],[126.384,52.286],[126.324,52.332],[126.342,52.362],[126.194,52.519],[126.016,52.61],[126.06,52.692],[126.048,52.739],[125.872,52.872],[125.728,52.891],[125.681,52.931],[125.692,53.004],[125.649,53.042],[125.546,53.048],[125.075,53.204],[124.907,53.173],[124.882,53.13],[124.812,53.134],[124.64,53.211],[124.466,53.23],[124.22,53.37],[124.154,53.359],[123.608,53.547],[123.154,53.545],[122.516,53.457],[122.338,53.485],[121.405,53.317]]}},{"type":"Feature","properties":{"layer":"river"},"geometry":{"type":"LineString","coordinates":[[106.518,20.289],[106.387,20.348],[106.288,20.34],[106.109,20.623],[106.023,20.665],[105.951,20.761],[105.897,20.964],[105.836,21.051],[105.725,21.122],[105.477,21.203],[105.426,21.292],[105.325,21.273],[105.216,21.389],[105.197,21.358],[104.692,21.875],[103.479,22.902],[103.161,23.121],[102.906,23.24],[102.119,23.514],[101.745,23.857],[101.601,24.049],[101.349,24.505],[101.238,24.538],[100.812,25.003],[100.642,25.021],[100.351,25.15],[100.183,25.443]]}},{"type":"Feature","properties":{"layer":"river"},"geometry":{"type":"LineString","coordinates":[[106.944,25.225],[107.019,25.061],[107.156,25.009],[107.277,24.875],[107.362,24.603],[107.542,24.318],[107.608,24.281],[107.608,24.236],[107.494,24.087],[107.512,24.031],[107.601,23.954],[107.674,23.961],[107.821,23.776],[107.902,23.722],[108.453,24.035],[108.631,23.96],[108.758,23.85],[108.833,23.836],[108.919,23.662],[109.192,23.723],[109.322,23.7],[109.469,23.847],[109.529,23.796]]}},{"type":"Feature","properties":{"layer":"river"},"geometry":{"type":"MultiLineString","coordinates":[[[97.288,34.835],[97.547,34.876]],[[97.763,35.088],[97.934,35.082],[98.028,35.034],[98.197,34.874],[98.382,34.798],[98.4,34.674],[98.348,34.593],[98.376,34.531],[98.563,34.39],[98.713,34.38],[98.72,34.43],[98.809,34.473],[99.001,34.428],[99.058,34.301],[99.061,34.081],[99.123,33.915],[99.324,33.748],[99.381,33.771],[99.391,33.809],[99.62,33.775],[99.721,33.791],[100.062,33.631],[100.191,33.604],[100.33,33.757],[100.74,33.928],[100.942,33.777],[101.009,33.764],[101.026,33.839],[101.123,33.827],[101.301,33.727],[101.481,33.678],[101.663,33.679],[101.809,33.611],[101.919,33.473],[102.066,33.356],[102.193,33.371],[102.482,33.484],[102.482,33.521],[102.353,33.638],[102.33,33.725],[102.206,33.897],[101.517,34.219],[101.328,34.273],[101.21,34.35],[101.163,34.45],[101.087,34.513],[100.982,34.539],[100.912,34.593],[100.878,34.677],[100.815,34.708],[100.721,34.686],[100.63,34.708],[100.54,34.773],[100.376,34.827],[100.307,34.936],[100.22,35.241],[100.259,35.282],[100.166,35.424],[100.172,35.543],[100.255,35.695],[100.334,35.774],[100.409,35.777],[100.546,35.869],[100.744,36.05],[100.898,36.142],[101.071,36.135],[101.343,36.065],[101.495,36.086],[101.63,36.151],[101.763,36.152],[101.993,35.997],[102.064,35.886],[102.185,35.845],[102.356,35.873],[102.61,35.86],[102.948,35.806],[103.177,35.812],[103.299,35.878],[103.317,35.931],[103.232,35.97],[103.256,36.04],[103.388,36.139],[103.56,36.158],[103.916,36.068],[103.995,36.075],[104.072,36.229],[104.179,36.322],[104.713,36.628],[104.69,36.728],[104.625,36.798],[104.4,36.884],[104.327,36.946],[104.314,37.093],[104.353,37.174],[104.446,37.197],[104.576,37.307],[104.957,37.415],[104.998,37.461],[105.649,37.522],[105.8,37.565],[105.905,37.661],[106.037,37.916],[106.125,37.977],[106.251,38.177],[106.457,38.378],[106.64,38.78],[106.871,39.075],[106.759,39.483],[106.768,39.76],[106.718,40.016],[107.149,40.396],[107.174,40.5],[107.239,40.592],[107.72,40.793],[107.745,40.837],[108.07,40.875],[108.389,40.816],[108.651,40.632],[108.884,40.547],[109.134,40.535],[109.309,40.49],[109.635,40.532],[109.687,40.494],[110.08,40.524],[110.303,40.484],[110.675,40.302],[110.811,40.271],[110.996,40.286],[111.125,40.235],[111.407,40.013],[111.416,39.867],[111.378,39.789],[111.385,39.718],[111.437,39.653],[111.433,39.576],[111.373,39.488],[111.168,39.4],[111.155,39.347],[111.199,39.24],[111.145,39.125],[110.98,38.956],[110.996,38.92],[110.878,38.6],[110.891,38.557],[110.599,38.258],[110.503,38.113],[110.511,38.008],[110.782,37.614],[110.719,37.465],[110.664,37.434],[110.658,37.316],[110.61,37.217],[110.427,37.021],[110.391,37.019],[110.393,36.763],[110.425,36.739],[110.403,36.698],[110.471,36.566],[110.46,36.237],[110.49,36.006],[110.576,35.733],[110.579,35.534],[110.316,35.135],[110.262,34.868],[110.27,34.637],[110.465,34.597],[110.795,34.645],[111.101,34.795],[111.589,34.899],[111.651,34.972],[111.844,35.074],[112.857,34.809],[113.156,34.875],[113.399,34.974],[113.9,34.895],[113.965,34.931],[114.473,34.91],[114.681,34.928],[114.831,35.02]],[[96.164,35.13],[96.748,35.053],[97.072,34.931]]]}},{"type":"Feature","properties":{"layer":"river"},"geometry":{"type":"LineString","coordinates":[[114.838,35.02],[114.905,35.229],[115.014,35.33],[115.34,35.503],[115.463,35.681],[115.871,35.88],[115.883,35.939],[115.966,35.976],[116.116,36.143],[116.581,36.44],[116.735,36.656],[117.024,36.773],[117.151,36.862],[117.24,36.994],[117.352,37.082],[117.571,37.175],[117.608,37.228],[117.97,37.29],[118.128,37.347],[118.385,37.604],[118.498,37.619],[118.946,37.824],[119.036,37.809]]}},{"type":"Feature","properties":{"layer":"river"},"geometry":{"type":"LineString","coordinates":[[98.007,47.999],[97.617,48.075],[97.452,48.141],[97.413,48.202],[97.454,48.357],[97.443,48.435],[97.529,48.541],[97.711,48.673],[98.05,48.736],[98.547,48.73],[98.923,48.697],[99.179,48.638],[99.588,48.725],[100.473,49.076],[100.613,49.098],[100.686,49.185],[100.7,49.263]]}},{"type":"Feature","properties":{"layer":"river"},"geometry":{"type":"MultiLineString","coordinates":[[[79.735,32.444],[79.43,32.745]],[[79.437,32.738],[79.341,32.881],[79.044,33.133],[78.907,33.189],[78.809,33.165],[78.64,33.208],[78.245,33.398],[78.152,33.493],[78.15,33.542],[78,33.676]]]}},{"type":"Feature","properties":{"layer":"river"},"geometry":{"type":"MultiLineString","coordinates":[[[94.703,16.512],[94.742,16.908],[94.795,17.035],[94.954,17.257],[94.948,17.315],[95.042,17.371],[95.304,17.766],[95.52,17.908],[95.575,17.904],[95.633,17.81],[95.694,17.625],[95.956,17.13],[95.952,17.074],[96.042,16.969],[96.09,16.847],[96.189,16.768]],[[95.481,16.814],[95.237,16.133],[95.12,16]],[[95.6,16.902],[95.649,16.768],[95.829,16.653],[95.872,16.593],[95.847,16.529],[95.867,16.44],[96.043,16.34]],[[95.472,17.744],[95.356,17.666],[95.296,17.554],[95.335,17.379],[95.263,17.302],[95.248,17.178],[95.186,17.078],[95.175,16.903],[95.222,16.796],[95.176,16.674],[95.107,16.574],[95.061,16.566],[94.907,16.288],[94.667,16]]]}},{"type":"Feature","properties":{"layer":"river"},"geometry":{"type":"MultiLineString","coordinates":[[[99.399,28.12],[99.431,27.842],[99.6,27.426],[99.874,27.101],[99.996,26.904],[100.041,26.94],[100.063,27.12],[100.109,27.221],[100.199,27.314],[100.232,27.399],[100.219,27.554],[100.296,27.721],[100.298,27.795],[100.33,27.834],[100.39,27.837],[100.442,27.584],[100.472,27.484],[100.545,27.393],[100.55,27.301],[100.45,27.169],[100.481,27.139],[100.486,27.05],[100.437,26.817],[100.408,26.797],[100.449,26.378],[100.428,26.279],[100.459,26.236],[100.798,26.178],[100.961,26.211],[101.2,26.357],[101.349,26.381],[101.447,26.442],[101.495,26.541],[101.59,26.593],[101.734,26.599],[101.841,26.554],[101.94,26.363],[101.847,26.098],[101.852,26.016],[101.912,25.981],[102.027,25.994],[102.331,26.266],[102.489,26.341],[102.583,26.37],[102.635,26.252],[102.686,26.237],[102.99,26.395],[103.042,26.523],[102.897,27.013],[102.903,27.313],[102.969,27.412],[103.046,27.398],[103.147,27.434],[103.2,27.534],[103.479,27.814],[103.535,27.922],[103.532,27.992],[103.444,28.065],[103.484,28.161],[103.589,28.25],[103.702,28.229],[103.841,28.298],[103.859,28.377],[103.809,28.565],[103.851,28.668]],[[98.542,31.69],[98.799,31.438],[98.855,31.323],[98.797,31.261],[98.638,31.28],[98.615,31.206],[98.799,30.963],[98.791,30.908],[98.831,30.842],[98.947,30.711],[98.919,30.68],[99.039,29.849],[99.004,29.717],[99.014,29.551],[99.096,29.25],[99.146,28.641],[99.221,28.36],[99.399,28.126]]]}},{"type":"Feature","properties":{"layer":"river"},"geometry":{"type":"LineString","coordinates":[[89.387,40.633],[88.715,40.69],[88.422,40.744],[88.286,40.815],[87.659,40.958],[87.258,40.971],[87.025,41.069],[86.899,41.205],[86.749,41.294],[86.598,41.315],[86.372,41.243]]}},{"type":"Feature","properties":{"layer":"river"},"geometry":{"type":"MultiLineString","coordinates":[[[79.313,16.579],[79.657,16.69],[79.818,16.703],[79.912,16.655],[79.993,16.678],[80.063,16.773],[80.121,16.768],[80.169,16.664],[80.262,16.607],[80.524,16.553],[80.717,16.393],[80.834,16.201],[80.886,16]],[[78,16.1],[78.129,16]],[[78.244,16],[78.283,16.05],[78.361,16.072],[78.805,16.064],[78.884,16.171],[78.997,16.23]]]}},{"type":"Feature","properties":{"layer":"river"},"geometry":{"type":"LineString","coordinates":[[98,51.514],[97.703,51.48],[97.298,51.36],[96.524,51.346],[96.099,51.383],[95.78,51.295]]}},{"type":"Feature","properties":{"layer":"river"},"geometry":{"type":"LineString","coordinates":[[96.941,31.966],[97.055,31.692],[97.207,31.463],[97.215,31.381],[97.168,31.233],[97.188,31.134],[97.332,30.979],[97.377,30.89],[97.378,30.785],[97.495,30.618],[97.963,30.162],[98.161,29.81],[98.307,29.68],[98.411,29.427],[98.619,29.126],[98.593,29.009],[98.809,28.478],[98.938,27.959],[99.012,27.856],[99.036,27.768],[99.005,27.623],[99.088,27.377],[99.094,27.265],[99.175,27.071],[99.182,26.948],[99.114,26.531],[99.139,26.021],[99.157,25.918],[99.31,25.644],[99.341,25.521],[99.308,25.423],[99.341,25.315],[99.44,25.198],[99.7,25.017],[99.939,24.762],[100.087,24.718],[100.106,24.687],[100.332,24.75],[100.418,24.682],[100.511,24.545],[100.548,24.388],[100.529,24.211],[100.485,24.108],[100.416,24.078],[100.356,23.854],[100.185,23.62],[100.067,23.278],[100.106,23.149],[100.233,23.023],[100.313,22.887],[100.347,22.744],[100.415,22.636],[100.567,22.502],[100.565,22.451],[100.647,22.306],[100.622,22.288],[100.705,22.205],[100.77,22.047],[100.869,21.923],[100.984,21.845],[101.166,21.789],[101.134,21.774],[101.147,21.582],[101.08,21.469],[100.928,21.366],[100.757,21.313],[100.703,21.251],[100.614,21.059],[100.536,20.992],[100.522,20.922],[100.623,20.86],[100.565,20.825],[100.326,20.796],[100.249,20.73],[100.184,20.589],[100.115,20.258],[100.14,20.245],[100.218,20.34],[100.318,20.386],[100.492,20.184],[100.553,20.17],[100.597,19.893],[100.653,19.825],[100.857,19.878],[100.959,19.849],[101.153,19.872],[101.223,19.838],[101.484,19.823],[102.137,20.087],[102.233,20.011],[101.823,19.604],[101.822,19.513],[101.886,19.372],[101.819,19.181],[101.826,18.698],[101.77,18.568],[101.488,18.262],[101.408,18.119],[101.459,17.902],[101.564,17.821]]}},{"type":"Feature","properties":{"layer":"river"},"geometry":{"type":"LineString","coordinates":[[105.076,55],[105.07,54.913],[105.108,54.85],[105.19,54.82],[105.234,54.754],[105.241,54.649],[105.185,54.456],[105.221,54.384],[105.457,54.238],[105.665,54.022],[105.806,54.006],[105.974,53.878],[106.305,53.857],[106.927,53.884],[106.996,53.85],[107.119,53.858],[107.234,53.999],[107.456,54.105],[107.657,54.265],[107.783,54.294],[108.021,54.246],[108.107,54.2],[108.118,54.138],[108.088,54.082],[107.98,54.004]]}},{"type":"Feature","properties":{"layer":"river"},"geometry":{"type":"LineString","coordinates":[[123.554,43.483],[123.614,43.399],[123.534,43.019],[123.571,42.963],[123.568,42.76],[123.611,42.66],[123.712,42.576],[123.831,42.406],[123.771,42.327],[123.513,42.203],[123.35,42.149],[123.177,42.145],[123.033,42.085],[122.893,41.957],[122.758,41.762],[122.677,41.579],[122.636,41.325],[122.457,41.214],[122.401,41.133],[122.44,41.055],[122.409,41.003],[122.326,40.963],[122.236,40.852],[122.152,40.823],[122.14,40.688]]}},{"type":"Feature","properties":{"layer":"river"},"geometry":{"type":"MultiLineString","coordinates":[[[80.625,20.599],[80.63,20.715],[80.665,20.765],[80.763,20.798],[80.889,20.97],[81.006,21.046],[81.156,21.083],[81.271,21.22],[81.428,21.588],[81.543,21.632],[81.641,21.59],[81.745,21.764],[81.834,21.776],[82.003,21.863],[82.114,21.848],[82.376,21.728],[82.723,21.739],[83.3,21.695]],[[83.857,21.52],[83.949,21.454],[83.943,21.337],[83.83,21.055],[83.832,20.962],[83.932,20.86],[84.31,20.847],[84.346,20.787],[84.708,20.615],[84.757,20.552],[85.344,20.357],[85.665,20.443],[85.832,20.445],[86.048,20.311],[86.177,20.094],[86.245,20.053]]]}},{"type":"Feature","properties":{"layer":"river"},"geometry":{"type":"LineString","coordinates":[[95.78,51.295],[95.558,51.476],[95.23,51.585],[94.465,51.734]]}},{"type":"Feature","properties":{"layer":"river"},"geometry":{"type":"LineString","coordinates":[[82.4,30.411],[82.825,30.371],[82.939,30.261],[83.164,30.126],[83.925,29.761],[84.063,29.586],[84.392,29.525],[84.501,29.452],[84.517,29.335],[84.634,29.254],[84.854,29.209],[85.014,29.221],[85.115,29.291],[85.226,29.313],[85.592,29.204],[86.295,29.225],[86.734,29.209],[87.472,29.126],[87.66,29.152]]}},{"type":"Feature","properties":{"layer":"river"},"geometry":{"type":"MultiLineString","coordinates":[[[101.564,17.821],[101.687,17.889],[101.775,18.033],[101.947,18.081],[102.101,18.211],[102.459,17.985],[102.553,17.965],[102.598,17.927],[102.617,17.833],[102.661,17.818],[102.807,17.946],[102.991,17.986],[103.051,18.029],[103.091,18.138]],[[103.09,18.137],[103.091,18.138]],[[103.091,18.138],[103.092,18.141]],[[103.091,18.138],[103.149,18.222],[103.263,18.278],[103.252,18.373],[103.288,18.408],[103.488,18.418],[103.792,18.316],[103.899,18.295],[103.95,18.319],[104.428,17.699],[104.74,17.462],[104.816,17.3],[104.744,16.884],[104.751,16.648],[104.819,16.466],[104.95,16.34],[105.047,16.16],[105.387,16]]]}},{"type":"Feature","properties":{"layer":"river"},"geometry":{"type":"LineString","coordinates":[[103.719,29.537],[103.767,29.517],[103.857,29.29],[104.251,28.996],[104.302,28.896],[104.62,28.779]]}},{"type":"Feature","properties":{"layer":"river"},"geometry":{"type":"LineString","coordinates":[[103.922,25.879],[103.855,25.801],[103.836,25.725],[103.883,25.341],[103.867,25.219],[103.81,25.129],[103.713,25.048],[103.488,24.939],[103.416,24.955],[103.392,25],[103.219,24.994],[103.165,24.944],[103.132,24.774],[103.064,24.677],[103.053,24.609],[103.105,24.52],[103.074,24.458],[103.08,24.321],[103.169,23.87],[103.232,23.802],[103.61,23.916],[103.626,23.97],[103.591,24.11],[103.623,24.153],[103.746,24.204],[103.987,24.442],[104.151,24.472],[104.353,24.562],[104.537,24.741],[104.681,24.659],[104.8,24.673],[104.941,24.756],[105.208,24.991],[105.247,24.956],[105.45,24.905],[105.583,24.79],[105.731,24.735],[105.942,24.707],[105.994,24.664],[106.065,24.689],[106.154,24.783],[106.188,24.862],[106.166,24.928],[106.231,24.979],[106.381,25.017],[106.742,25.189],[106.944,25.225]]}},{"type":"Feature","properties":{"layer":"river"},"geometry":{"type":"LineString","coordinates":[[81.574,22.754],[81.096,22.956],[80.917,22.947],[80.832,23.04],[80.812,23.01],[80.509,22.925],[80.486,22.611],[80.411,22.584],[80.29,22.75],[80.217,22.79],[80.06,22.775],[79.963,22.852],[79.938,23.047],[79.834,23.112],[79.622,23.129],[79.224,23.091],[79.096,23.03],[78.553,23.016],[78.338,22.899],[78.158,22.859],[78.133,22.812],[78,22.802]]}},{"type":"Feature","properties":{"layer":"river"},"geometry":{"type":"LineString","coordinates":[[78,41.851],[78,41.823]]}},{"type":"Feature","properties":{"layer":"river"},"geometry":{"type":"LineString","coordinates":[[97.983,28.425],[98.297,28.132],[98.335,28.008],[98.342,27.84],[98.302,27.73],[98.215,27.679],[98.154,27.674],[98.08,27.726],[98.04,27.707],[98.087,27.494],[98.362,26.974],[98.354,26.701],[98.158,26.03],[98.055,25.815],[97.86,25.641],[97.775,25.62],[97.641,25.706],[97.519,25.701]]}},{"type":"Feature","properties":{"layer":"river"},"geometry":{"type":"LineString","coordinates":[[96.596,30.448],[96.675,30.443],[96.717,30.333],[96.854,30.245],[97.116,30.142],[97.29,30.032],[97.375,29.918],[97.477,29.635],[97.546,29.536],[97.819,29.367],[97.949,29.226],[98.163,28.87],[98.343,28.715],[98.367,28.577],[98.451,28.402],[98.474,28.22],[98.536,28.088],[98.635,28.003],[98.682,27.913],[98.676,27.817],[98.709,27.722],[98.816,27.581],[98.869,27.341],[98.895,26.656],[98.857,26.177],[98.882,25.372],[98.856,25.173],[98.871,24.991],[98.927,24.828],[99.03,24.677],[98.998,24.475],[99.016,24.383],[99.089,24.317],[99.058,24.248],[98.922,24.175],[98.473,24.026],[98.42,23.933],[98.496,23.783],[98.598,23.667],[98.638,23.563],[98.635,23.417],[98.721,23.357],[98.723,23.294],[98.514,23.22],[98.474,23.173],[98.548,23.068],[98.504,23.024],[98.513,22.988],[98.628,22.918],[98.629,22.871],[98.558,22.812],[98.553,22.706],[98.614,22.555],[98.626,22.432],[98.587,22.251],[98.742,22.065],[98.718,21.995],[98.605,21.905],[98.574,21.79],[98.624,21.651],[98.595,21.483],[98.647,21.421],[98.726,21.145],[98.773,21.077],[98.724,21.02],[98.508,20.951]]}},{"type":"Feature","properties":{"layer":"river"},"geometry":{"type":"LineString","coordinates":[[91.518,31.943],[91.546,31.815],[91.691,31.696],[91.755,31.607],[91.794,31.478],[91.863,31.418],[91.963,31.425],[92.032,31.396],[92.071,31.33],[92.134,31.299],[92.221,31.304],[92.282,31.347],[92.319,31.429],[92.428,31.486],[92.869,31.563],[93.027,31.534],[93.524,31.536],[93.687,31.504],[94.106,31.523],[94.528,31.468],[94.575,31.443],[94.531,31.251],[94.629,31.196],[94.71,31.091],[94.752,31.08],[95.039,31.186],[95.181,31.188],[95.399,31.136],[95.563,30.985],[95.667,30.957],[95.799,30.99],[95.962,30.978],[96.157,30.921],[96.34,30.835],[96.554,30.437],[96.596,30.448]]}},{"type":"Feature","properties":{"layer":"river"},"geometry":{"type":"MultiLineString","coordinates":[[[85.056,52.434],[84.589,52.422],[84.003,52.332],[83.831,52.362],[83.728,52.414],[83.694,52.489],[83.699,52.789],[83.658,53.04],[83.685,53.083],[83.817,53.109],[83.86,53.175],[83.838,53.353],[83.712,53.419],[83.332,53.457],[83.228,53.503],[83.128,53.505],[82.897,53.437],[82.581,53.446],[82.388,53.545],[82.33,53.631],[82.237,53.684],[81.867,53.758],[81.836,53.789],[81.42,53.808],[81.334,53.886]],[[82.974,55],[83.053,54.915],[83.025,54.845]]]}},{"type":"Feature","properties":{"layer":"river"},"geometry":{"type":"LineString","coordinates":[[109.529,23.796],[109.543,23.729],[109.651,23.665],[109.641,23.629],[109.717,23.502],[109.9,23.43],[110.021,23.452],[110.089,23.405]]}},{"type":"Feature","properties":{"layer":"river"},"geometry":{"type":"LineString","coordinates":[[98.508,20.951],[98.502,20.828],[98.66,20.414],[98.679,20.272],[98.552,20.149],[98.141,19.99],[97.943,19.961],[97.771,19.85],[97.531,19.331],[97.457,18.852],[97.353,18.843],[97.332,18.778],[97.381,18.494],[97.451,18.36],[97.524,18.296],[97.632,18.29],[97.74,17.935],[97.699,17.834],[97.755,17.571],[97.749,17.444],[97.659,17.251],[97.609,16.947],[97.622,16.652],[97.668,16.552]]}},{"type":"Feature","properties":{"layer":"river"},"geometry":{"type":"MultiLineString","coordinates":[[[100.7,49.263],[101.061,49.346],[101.164,49.41],[101.37,49.455],[101.548,49.407],[102.061,49.385],[102.148,49.356],[102.738,49.385],[103.182,49.338],[103.444,49.361],[103.765,49.446],[104.342,49.513],[104.477,49.596],[105.198,49.803],[105.6,49.958],[106.155,50.254],[106.083,50.375],[106.115,50.446],[106.271,50.559],[106.248,50.6],[106.293,50.69],[106.277,50.885],[106.3,50.929],[106.679,51.091],[106.851,51.252],[106.992,51.317],[107.063,51.424],[107.269,51.514],[107.391,51.609],[107.554,51.853],[107.516,51.88],[107.5,52.074],[107.462,52.125],[107.162,52.132],[106.753,52.055],[106.615,52.145]],[[106.615,52.145],[106.583,52.214],[106.614,52.266],[106.752,52.316]],[[106.615,52.145],[106.499,52.234],[106.477,52.29],[106.497,52.383]]]}},{"type":"Feature","properties":{"layer":"river"},"geometry":{"type":"LineString","coordinates":[[81.64,31.45],[81.5,31.4],[81.225,31.602],[81.191,31.667],[81.213,31.828],[81.366,32.002],[81.282,32.08],[81.252,32.224],[81.188,32.325],[81.029,32.42],[80.535,32.553],[80.08,32.525],[79.735,32.444]]}},{"type":"Feature","properties":{"layer":"river"},"geometry":{"type":"MultiLineString","coordinates":[[[98.809,50.627],[99.063,50.552],[99.207,50.751],[99.322,50.809],[99.403,50.898],[99.478,51.048],[99.491,51.149],[99.444,51.2],[99.466,51.329],[99.424,51.349]],[[99.31,51.41],[99.004,51.473],[98.262,51.442],[98,51.514]]]}},{"type":"Feature","properties":{"layer":"river"},"geometry":{"type":"MultiLineString","coordinates":[[[124.675,45.45],[124.814,45.446],[124.947,45.523],[125.052,45.466],[125.072,45.413],[125.156,45.389],[125.302,45.395],[125.549,45.488],[125.745,45.495],[125.888,45.55],[125.979,45.652],[126.107,45.702],[126.534,45.741],[126.802,45.943],[126.923,45.997],[127.083,45.998],[127.416,45.922],[127.527,45.961],[127.559,46.014],[127.91,45.922],[128.303,45.963],[128.648,45.92],[128.762,45.955],[129.036,45.899],[129.145,45.947],[129.432,46.277],[129.577,46.382],[129.617,46.458],[129.831,46.582],[130.003,46.764],[130.179,46.833],[130.332,46.835]],[[132.562,47.769],[132.414,47.567],[132.044,47.334],[132.007,47.28],[130.81,47.151],[130.722,47.074],[130.578,47.01],[130.449,46.867],[130.33,46.837]]]}},{"type":"Feature","properties":{"layer":"river"},"geometry":{"type":"MultiLineString","coordinates":[[[81.376,30.758],[81.294,30.792]],[[81.199,30.852],[80.731,31.121],[80.628,31.121],[80.474,31.053],[80.418,31.064],[80.107,31.235],[79.917,31.426],[79.795,31.481],[79.456,31.55],[79.315,31.632],[78.922,31.697],[78.811,31.816],[78.749,31.837],[78.521,31.718],[78.445,31.619],[78.284,31.581],[78.269,31.541],[78,31.547]]]}},{"type":"Feature","properties":{"layer":"river"},"geometry":{"type":"LineString","coordinates":[[80.888,40.467],[81.026,40.519],[81.242,40.533],[81.546,40.707],[81.81,40.753],[82.121,40.886],[82.486,40.987],[82.749,41.004],[82.912,40.939],[83.082,40.928],[83.455,40.998],[83.666,41.009],[83.835,40.975],[84.091,41.131],[84.246,41.182],[84.784,41.169],[85.407,40.984],[85.617,40.993],[86.038,41.071],[86.185,41.042],[86.486,41.058],[86.505,41.1],[86.345,41.206],[86.382,41.278],[85.877,41.426],[85.814,41.496],[85.795,41.651],[85.888,41.738],[86.085,41.752],[86.212,41.815],[86.573,41.783],[86.753,41.826]]}},{"type":"Feature","properties":{"layer":"river"},"geometry":{"type":"LineString","coordinates":[[89.771,53.646],[89.395,53.435],[89.176,53.441],[89.08,53.483],[88.975,53.621],[88.907,53.654],[88.487,53.689],[88.232,53.661],[87.579,53.808],[87.179,53.798],[87.175,53.861],[87.249,53.937],[87.491,54.105],[87.512,54.232],[87.477,54.288],[87.536,54.399],[87.54,54.475],[87.497,54.571],[87.4,54.635],[87.087,54.716],[87.051,54.83],[87.121,54.945],[87.112,55]]}},{"type":"Feature","properties":{"layer":"river"},"geometry":{"type":"LineString","coordinates":[[92.993,34.1],[93.095,34.195],[93.707,34.239],[93.838,34.321],[94.01,34.501],[94.117,34.567],[94.338,34.629],[94.485,34.719],[94.661,34.741],[94.865,34.694],[95.018,34.624],[95.119,34.532],[95.398,34.442],[95.518,34.355],[95.596,34.229],[95.757,34.111],[96.023,33.824],[96.153,33.77],[96.196,33.781],[96.231,33.735],[96.418,33.715],[96.454,33.654],[96.702,33.516],[96.757,33.373],[96.794,33.381],[96.822,33.333],[97.011,33.31],[97.085,33.144],[97.337,32.906],[97.413,32.749],[97.624,32.614],[98.209,32.33],[98.216,32.278],[98.395,32.051],[98.446,31.941],[98.454,31.782],[98.542,31.69]]}},{"type":"Feature","properties":{"layer":"river"},"geometry":{"type":"LineString","coordinates":[[90.795,34.3],[91.152,34.321],[91.647,34.281],[91.853,34.235],[91.936,34.169],[92.037,34.165],[92.157,34.222],[92.309,34.24],[92.493,34.22],[92.79,34.091],[92.993,34.1]]}},{"type":"Feature","properties":{"layer":"river"},"geometry":{"type":"LineString","coordinates":[[94.465,51.734],[94.07,51.604],[93.646,51.566],[92.769,51.581],[92.35,51.701],[92.152,51.796],[92.035,51.905],[92.068,52.012],[92.251,52.117],[92.444,52.303],[92.438,52.378],[92.314,52.5],[92.307,52.565],[91.769,52.616],[91.748,52.662],[91.439,52.674],[91.367,52.714],[91.378,52.797],[91.501,53.012],[91.465,53.06],[91.468,53.136],[91.788,53.23],[91.955,53.398],[91.847,53.479],[91.634,53.57],[91.559,53.66],[91.578,53.709],[91.511,53.735]]}},{"type":"Feature","properties":{"layer":"river"},"geometry":{"type":"LineString","coordinates":[[117.209,42.592],[117.172,42.613],[117.23,42.748],[117.189,42.886],[117.222,42.994],[117.347,43.063],[117.746,43.185],[118.172,43.271],[119.22,43.229],[120.759,43.423]]}},{"type":"Feature","properties":{"layer":"river"},"geometry":{"type":"MultiLineString","coordinates":[[[113.035,22.795],[113.095,22.73],[113.264,22.363],[113.416,22.178]],[[113.035,22.795],[113.299,22.698],[113.444,22.599],[113.552,22.587]],[[112.98,23.041],[113.445,23.055]],[[112.805,23.148],[112.891,22.918],[112.963,22.822],[113.035,22.795]],[[112.805,23.148],[112.912,23.113],[113.09,22.907],[113.338,22.889]],[[111.301,23.481],[111.433,23.449],[111.499,23.375],[111.542,23.249],[111.707,23.161],[112.137,23.09],[112.271,23.142],[112.353,23.132],[112.427,23.076],[112.498,23.078],[112.643,23.165],[112.805,23.148]]]}},{"type":"Feature","properties":{"layer":"river"},"geometry":{"type":"LineString","coordinates":[[120.759,43.423],[121.059,43.509],[121.349,43.517],[121.729,43.474],[122.03,43.521],[122.449,43.748],[122.769,43.815],[122.886,43.808],[123.269,43.647],[123.405,43.628],[123.513,43.561],[123.554,43.483]]}},{"type":"Feature","properties":{"layer":"river"},"geometry":{"type":"LineString","coordinates":[[110.089,23.408],[110.201,23.545],[110.334,23.555],[110.622,23.45],[110.814,23.447],[110.868,23.397],[110.997,23.399],[111.301,23.481]]}},{"type":"Feature","properties":{"layer":"river"},"geometry":{"type":"MultiLineString","coordinates":[[[78.34,30.915],[78.072,30.738],[78,30.594]],[[78,27.264],[78.02,27.202],[78.203,27.165],[78.21,27.113],[78.383,27.058],[78.488,26.961],[78.663,26.894],[78.707,26.911],[78.986,26.762],[79.064,26.639],[79.24,26.542],[79.266,26.446],[79.473,26.416],[79.592,26.244],[79.712,26.156],[79.804,26.108],[79.932,26.125],[79.989,26.072],[80.05,26.071],[80.113,25.979],[80.211,25.92],[80.524,25.87],[80.489,25.819],[80.63,25.723],[80.897,25.696],[80.944,25.632],[81.005,25.623],[81.059,25.531],[81.142,25.507],[81.222,25.367],[81.399,25.289],[81.694,25.351],[81.762,25.337],[81.847,25.416],[81.903,25.415]]]}},{"type":"Feature","properties":{"layer":"river"},"geometry":{"type":"MultiLineString","coordinates":[[[113.128,29.463],[113.696,29.949],[113.86,29.972],[113.995,30.05],[114.011,30.124],[113.909,30.196],[113.885,30.246],[113.94,30.276],[114.032,30.253],[114.303,30.593],[114.396,30.664],[114.472,30.661],[114.558,30.603],[114.784,30.598],[114.841,30.565],[114.833,30.482],[114.885,30.423],[115.058,30.336],[115.102,30.229],[115.16,30.216],[115.376,29.966],[115.504,29.879],[115.751,29.828],[115.843,29.764],[115.983,29.746],[116.212,29.785]],[[116.198,29.751],[116.212,29.785]],[[116.212,29.785],[116.451,29.868],[116.683,30.061],[116.776,30.097],[116.896,30.272],[116.9,30.399],[117.212,30.552],[117.247,30.674],[117.605,30.776],[117.725,30.886],[117.78,31.052],[117.844,31.124],[117.916,31.104],[117.968,31.13],[117.999,31.202],[118.312,31.341],[118.333,31.51],[118.395,31.653],[118.692,32.074],[118.961,32.203],[119.643,32.235],[119.771,32.207],[119.867,32.1],[120.074,31.96]]]}},{"type":"Feature","properties":{"layer":"river"},"geometry":{"type":"LineString","coordinates":[[78,39.353],[78.354,39.531],[79.265,39.713],[80.097,40.108],[80.377,40.274],[80.437,40.361],[80.572,40.42],[80.888,40.467]]}},{"type":"Feature","properties":{"layer":"river"},"geometry":{"type":"LineString","coordinates":[[87.66,29.152],[87.747,29.288],[87.917,29.38],[88.43,29.336],[89.404,29.366],[89.862,29.334],[90.082,29.36],[90.218,29.344],[90.392,29.274],[90.746,29.34],[90.786,29.308],[90.897,29.337],[92.076,29.281],[92.465,29.231],[92.551,29.155],[92.695,29.101],[92.895,29.069],[93.117,29.107],[93.138,29.061],[93.25,29.013],[93.427,29.14],[93.568,29.178],[93.932,29.171],[94.224,29.24],[94.356,29.31]]}},{"type":"Feature","properties":{"layer":"river"},"geometry":{"type":"MultiLineString","coordinates":[[[107.505,26.338],[107.501,26.239],[107.558,26.164],[107.708,26.218],[107.826,26.53],[107.959,26.617],[108.072,26.753],[108.251,26.839],[108.396,26.817],[108.396,26.785],[108.568,26.636],[108.645,26.618],[108.748,26.695],[108.76,26.649],[108.869,26.575],[109.073,26.608],[109.194,26.679],[109.438,26.894],[109.441,27.08],[109.494,27.079],[109.667,27.177],[109.692,27.128],[109.755,27.19],[109.943,27.147],[110.051,27.19],[110.217,27.423],[110.284,27.566],[110.277,27.611],[110.367,27.729],[110.348,27.791],[110.371,27.828],[110.251,27.927],[110.275,27.955],[110.252,27.981],[110.182,28.005],[110.113,28.076],[110.195,28.242],[110.175,28.275],[110.351,28.393],[110.477,28.602],[110.633,28.69],[110.887,28.751],[111.094,28.845],[111.279,28.762],[111.405,28.791],[111.559,29.005],[111.744,28.988],[111.865,29.012],[111.993,28.985]],[[112.905,29.031],[112.994,29.147]],[[113.069,29.388],[113.128,29.463]]]}},{"type":"Feature","properties":{"layer":"river"},"geometry":{"type":"LineString","coordinates":[[94.084,33.156],[94.448,33.163],[94.507,33.204],[94.61,33.205],[94.916,33.14],[95.026,33.083],[95.106,32.966],[95.581,32.815],[95.728,32.672],[95.882,32.587],[96.011,32.552],[96.183,32.562],[96.381,32.433],[96.507,32.225],[96.585,32.155],[96.69,32.133],[96.874,31.973],[96.941,31.966]]}},{"type":"Feature","properties":{"layer":"lake"},"geometry":{"type":"Polygon","coordinates":[[[109.747,55],[109.607,54.676],[109.544,54.629],[109.523,54.559],[109.496,54.262],[109.556,54.154],[109.5,54.061],[109.211,53.828],[109.178,53.638],[109.03,53.639],[109.009,53.668],[109.061,53.831],[108.944,53.862],[108.836,53.807],[108.532,53.513],[108.842,53.587],[108.921,53.566],[108.989,53.45],[108.982,53.393],[108.768,53.281],[108.676,53.304],[108.392,53.163],[108.302,53.109],[108.33,53.056],[108.288,52.989],[107.948,52.78],[107.763,52.714],[107.387,52.648],[107.099,52.542],[106.938,52.475],[106.806,52.329],[106.752,52.317],[106.497,52.383],[106.314,52.323],[106.269,52.282],[106.281,52.169],[106.187,51.956],[105.967,51.774],[105.798,51.701],[104.826,51.49],[104.655,51.482],[104.156,51.535],[103.817,51.634],[103.713,51.694],[103.791,51.732],[104.133,51.769],[104.537,51.784],[104.812,51.87],[105.165,51.906],[105.57,52.108],[105.86,52.387],[106.06,52.512],[106.452,52.656],[106.757,52.869],[106.897,53.003],[106.873,53.029],[106.774,53.022],[106.852,53.103],[107.072,53.241],[107.535,53.439],[107.627,53.611],[108.062,53.849],[108.224,53.976],[108.473,54.277],[108.593,54.492],[108.786,54.672],[108.933,54.898],[108.944,54.931],[108.917,54.951],[108.953,54.983],[109.747,55]],[[107.767,53.267],[107.795,53.393],[107.744,53.399],[107.584,53.283],[106.995,53.107],[106.96,53.078],[106.963,53.023],[107.438,53.103],[107.767,53.267]]]}},{"type":"Feature","properties":{"layer":"lake"},"geometry":{"type":"Polygon","coordinates":[[[78.303,42.588],[78.014,42.487],[78,42.722],[78.249,42.734],[78.119,42.642],[78.136,42.608],[78.303,42.588]]]}},{"type":"Feature","properties":{"layer":"lake"},"geometry":{"type":"Polygon","coordinates":[[[84.516,47.93],[84.427,47.857],[84.357,47.732],[84.242,47.706],[83.625,48.013],[83.259,48.095],[83.027,48.212],[83.039,48.25],[83.435,48.27],[83.498,48.305],[83.533,48.375],[83.392,48.5],[83.387,48.554],[83.471,48.858],[83.589,48.962],[83.747,49.039],[84.036,49.111],[84.121,49.159],[84.1,49.238],[83.849,49.417],[83.66,49.443],[83.426,49.573],[83.365,49.626],[83.391,49.652],[83.608,49.606],[83.964,49.726],[83.818,49.634],[83.729,49.535],[84.288,49.238],[84.361,49.161],[84.329,49.125],[83.609,48.91],[83.514,48.813],[83.487,48.718],[83.613,48.437],[83.919,48.397],[83.907,48.374],[83.682,48.353],[83.581,48.267],[84.051,48.083],[84.334,48.023],[84.516,47.93]]]}},{"type":"Feature","properties":{"layer":"lake"},"geometry":{"type":"Polygon","coordinates":[[[118.605,33.172],[118.492,32.998],[118.183,32.885],[118.181,32.971],[118.142,32.986],[118.066,32.936],[118.05,32.964],[118.13,33.028],[118.226,32.991],[118.24,33.008],[118.182,33.139],[117.979,33.142],[117.915,33.126],[117.892,33.065],[117.809,33.048],[117.851,33.062],[117.912,33.181],[118.114,33.215],[118.175,33.21],[118.275,33.045],[118.34,32.994],[118.407,33.01],[118.47,33.128],[118.454,33.16],[118.249,33.221],[118.233,33.288],[118.318,33.268],[118.446,33.407],[118.607,33.376],[118.488,33.54],[118.493,33.623],[118.544,33.645],[118.664,33.463],[118.774,33.443],[118.861,33.357],[118.716,33.089],[118.681,33.077],[118.653,33.174],[118.605,33.172]]]}},{"type":"Feature","properties":{"layer":"lake"},"geometry":{"type":"Polygon","coordinates":[[[100.787,51.397],[100.688,50.983],[100.507,50.809],[100.445,50.659],[100.473,50.603],[100.37,50.538],[100.193,50.494],[100.296,51.109],[100.284,51.25],[100.402,51.392],[100.38,51.466],[100.559,51.61],[100.787,51.397]]]}},{"type":"Feature","properties":{"layer":"lake"},"geometry":{"type":"Polygon","coordinates":[[[92.316,50.302],[92.235,50.413],[92.893,50.658],[92.99,50.608],[92.978,50.54],[93.076,50.428],[93.259,50.358],[93.254,50.327],[93.362,50.282],[93.095,50.198],[92.913,50.056],[92.601,50.005],[92.382,50.142],[92.316,50.302]]]}},{"type":"Feature","properties":{"layer":"lake"},"geometry":{"type":"Polygon","coordinates":[[[132.81,45.052],[132.614,44.711],[132.366,44.529],[132.276,44.569],[132.241,44.63],[132.069,44.743],[132.109,44.969],[132.015,45.074],[132.005,45.214],[132.071,45.287],[132.23,45.328],[132.579,45.296],[132.725,45.23],[132.808,45.149],[132.81,45.052]]]}},{"type":"Feature","properties":{"layer":"lake"},"geometry":{"type":"Polygon","coordinates":[[[100.753,36.811],[100.704,36.589],[100.628,36.557],[100.431,36.641],[99.958,36.679],[99.827,36.739],[99.65,36.911],[99.681,36.947],[99.816,36.955],[99.834,36.988],[99.787,37.149],[99.956,37.218],[100.275,37.15],[100.586,36.903],[100.753,36.811]]]}},{"type":"Feature","properties":{"layer":"lake"},"geometry":{"type":"Polygon","coordinates":[[[78,54.983],[78.049,54.927],[78,54.911],[78,54.983]]]}},{"type":"Feature","properties":{"layer":"lake"},"geometry":{"type":"Polygon","coordinates":[[[82.133,45.764],[81.749,45.872],[81.427,46.055],[81.399,46.305],[81.443,46.392],[81.53,46.452],[81.65,46.456],[81.912,46.351],[82.025,46.185],[82.064,45.944],[82.133,45.764]]]}},{"type":"Feature","properties":{"layer":"lake"},"geometry":{"type":"Polygon","coordinates":[[[117.229,48.585],[117.089,48.579],[117.096,48.705],[116.988,48.841],[117.636,49.342],[117.69,49.351],[117.707,49.322],[117.686,49.22],[117.716,49.18],[117.812,49.125],[118.007,49.105],[118.035,49.071],[117.964,49.035],[117.772,49.059],[117.229,48.585]]]}},{"type":"Feature","properties":{"layer":"lake"},"geometry":{"type":"Polygon","coordinates":[[[120.602,31.087],[120.394,30.971],[120.236,30.936],[120.103,30.973],[119.978,31.091],[119.939,31.253],[119.987,31.392],[120.108,31.492],[120.219,31.532],[120.271,31.445],[120.38,31.429],[120.326,31.32],[120.431,31.2],[120.44,31.153],[120.395,31.1],[120.461,31.081],[120.54,31.127],[120.602,31.087]]]}},{"type":"Feature","properties":{"layer":"lake"},"geometry":{"type":"Polygon","coordinates":[[[90.346,30.524],[90.314,30.573],[90.289,30.847],[90.353,30.88],[90.579,30.829],[90.651,30.84],[90.712,30.895],[90.866,30.885],[90.944,30.924],[91.012,30.888],[91.014,30.839],[90.714,30.641],[90.346,30.524]]]}},{"type":"Feature","properties":{"layer":"lake"},"geometry":{"type":"Polygon","coordinates":[[[87.375,41.851],[87.259,41.894],[87.102,41.901],[86.753,41.825],[86.728,41.85],[86.829,42.073],[86.889,42.108],[87.315,42.017],[87.375,41.851]]]}},{"type":"Feature","properties":{"layer":"lake"},"geometry":{"type":"Polygon","coordinates":[[[116.706,29.136],[116.709,29.102],[116.672,29.098],[116.521,29.143],[116.496,29.122],[116.477,29.043],[116.537,28.845],[116.512,28.804],[116.468,28.805],[116.409,28.905],[116.348,28.906],[116.329,28.961],[116.097,29.106],[115.965,29.311],[116.091,29.555],[116.117,29.653],[116.082,29.703],[116.18,29.751],[116.23,29.698],[116.145,29.454],[116.11,29.427],[116.196,29.362],[116.137,29.309],[116.153,29.253],[116.368,29.223],[116.362,29.154],[116.469,29.25],[116.64,29.237],[116.706,29.136]]]}},{"type":"Feature","properties":{"layer":"lake"},"geometry":{"type":"Polygon","coordinates":[[[116.461,30.055],[116.52,29.988],[116.388,29.966],[116.29,29.994],[116.257,30.094],[116.461,30.055]]]}},{"type":"Feature","properties":{"layer":"lake"},"geometry":{"type":"Polygon","coordinates":[[[116.195,30.038],[116.242,30.032],[116.26,29.976],[116.211,29.908],[116.044,29.881],[115.977,29.952],[115.985,30.016],[116.118,30],[116.15,30.061],[116.195,30.038]]]}},{"type":"Feature","properties":{"layer":"lake"},"geometry":{"type":"Polygon","coordinates":[[[114.35,30.196],[114.406,30.268],[114.496,30.289],[114.458,30.364],[114.501,30.366],[114.603,30.3],[114.642,30.133],[114.623,30.096],[114.509,30.194],[114.445,30.085],[114.35,30.196]]]}},{"type":"Feature","properties":{"layer":"lake"},"geometry":{"type":"Polygon","coordinates":[[[89.318,31.794],[89.138,31.602],[89.058,31.596],[88.946,31.625],[88.927,31.728],[88.685,31.729],[88.566,31.844],[88.608,31.88],[88.789,31.829],[88.968,31.918],[89.12,31.913],[89.266,31.872],[89.323,31.823],[89.318,31.794]]]}},{"type":"Feature","properties":{"layer":"lake"},"geometry":{"type":"Polygon","coordinates":[[[92.787,48.178],[92.442,48.03],[92.354,47.964],[92.2,47.769],[92.084,47.816],[91.991,47.933],[91.976,48.01],[92.249,48.13],[92.25,48.263],[92.287,48.352],[92.483,48.339],[92.402,48.237],[92.405,48.156],[92.544,48.138],[92.643,48.193],[92.638,48.33],[92.733,48.31],[92.802,48.253],[92.787,48.178]]]}},{"type":"Feature","properties":{"layer":"lake"},"geometry":{"type":"Polygon","coordinates":[[[89.611,37.495],[89.145,37.538],[89.082,37.587],[89.487,37.628],[89.645,37.575],[89.611,37.495]]]}},{"type":"Feature","properties":{"layer":"lake"},"geometry":{"type":"Polygon","coordinates":[[[102.879,18.527],[102.719,18.497],[102.646,18.45],[102.571,18.56],[102.506,18.746],[102.527,18.759],[102.659,18.662],[102.747,18.65],[102.753,18.599],[102.879,18.527]]]}},{"type":"Feature","properties":{"layer":"lake"},"geometry":{"type":"Polygon","coordinates":[[[119.407,32.794],[119.392,32.751],[119.253,32.736],[119.173,32.686],[119.079,32.855],[119.229,32.882],[119.245,33.013],[119.314,33.054],[119.237,33.154],[119.18,33.148],[119.154,33.065],[119.099,33.027],[118.882,33.077],[119.102,33.069],[119.17,33.186],[119.254,33.201],[119.349,33.078],[119.407,32.794]]]}},{"type":"Feature","properties":{"layer":"lake"},"geometry":{"type":"Polygon","coordinates":[[[116.424,30.108],[116.314,30.23],[116.539,30.207],[116.526,30.089],[116.424,30.108]]]}},{"type":"Feature","properties":{"layer":"lake"},"geometry":{"type":"Polygon","coordinates":[[[117.581,47.686],[117.529,47.739],[117.57,47.835],[117.709,47.948],[117.801,47.95],[117.869,47.865],[117.856,47.825],[117.655,47.68],[117.581,47.686]]]}},{"type":"Feature","properties":{"layer":"lake"},"geometry":{"type":"Polygon","coordinates":[[[83.23,31.464],[82.913,31.517],[82.837,31.564],[83.1,31.652],[83.341,31.462],[83.23,31.464]]]}},{"type":"Feature","properties":{"layer":"lake"},"geometry":{"type":"Polygon","coordinates":[[[86.777,31.166],[86.764,31.136],[86.628,31.084],[86.494,30.811],[86.419,30.807],[86.396,30.871],[86.607,31.221],[86.654,31.367],[86.742,31.342],[86.777,31.166]]]}},{"type":"Feature","properties":{"layer":"lake"},"geometry":{"type":"Polygon","coordinates":[[[79.77,52.967],[79.734,52.842],[79.603,52.837],[79.451,52.899],[79.4,52.944],[79.387,53.007],[79.427,53.076],[79.594,53.143],[79.738,53.092],[79.809,52.996],[79.77,52.967]]]}},{"type":"Feature","properties":{"layer":"lake"},"geometry":{"type":"Polygon","coordinates":[[[90.931,28.923],[90.808,28.938],[90.752,28.875],[90.715,28.883],[90.535,28.786],[90.456,28.887],[90.53,28.861],[90.594,28.903],[90.672,29.011],[90.654,29.126],[90.534,29.165],[90.388,29.093],[90.503,29.188],[90.562,29.211],[90.633,29.192],[90.729,29.13],[90.721,29.072],[90.788,28.991],[90.876,29.024],[90.992,28.978],[91.003,28.904],[90.931,28.923]]]}},{"type":"Feature","properties":{"layer":"lake"},"geometry":{"type":"Polygon","coordinates":[[[118.78,31.409],[118.724,31.522],[118.941,31.554],[118.96,31.465],[118.85,31.393],[118.78,31.409]]]}},{"type":"Feature","properties":{"layer":"lake"},"geometry":{"type":"Polygon","coordinates":[[[113.451,29.94],[113.369,29.785],[113.312,29.749],[113.275,29.78],[113.23,29.893],[113.331,29.894],[113.362,29.949],[113.451,29.94]]]}},{"type":"Feature","properties":{"layer":"lake"},"geometry":{"type":"Polygon","coordinates":[[[117.941,31.521],[117.784,31.579],[117.623,31.455],[117.563,31.445],[117.468,31.467],[117.317,31.592],[117.297,31.65],[117.315,31.697],[117.366,31.709],[117.413,31.694],[117.448,31.61],[117.543,31.591],[117.652,31.654],[117.733,31.66],[117.941,31.521]]]}},{"type":"Feature","properties":{"layer":"lake"},"geometry":{"type":"Polygon","coordinates":[[[114.839,30.287],[114.753,30.283],[114.762,30.211],[114.679,30.228],[114.674,30.3],[114.713,30.33],[114.806,30.345],[114.839,30.287]]]}},{"type":"Feature","properties":{"layer":"lake"},"geometry":{"type":"Polygon","coordinates":[[[114.601,30.662],[114.719,30.751],[114.786,30.663],[114.622,30.608],[114.601,30.662]]]}},{"type":"Feature","properties":{"layer":"lake"},"geometry":{"type":"Polygon","coordinates":[[[117.326,34.587],[117.25,34.502],[117.21,34.498],[117.141,34.612],[117.139,34.725],[117.266,34.665],[117.326,34.587]]]}},{"type":"Feature","properties":{"layer":"lake"},"geometry":{"type":"Polygon","coordinates":[[[114.601,30.344],[114.482,30.431],[114.601,30.399],[114.631,30.42],[114.607,30.483],[114.701,30.512],[114.756,30.477],[114.655,30.346],[114.601,30.344]]]}},{"type":"Feature","properties":{"layer":"lake"},"geometry":{"type":"Polygon","coordinates":[[[114.301,30.025],[114.252,29.972],[114.264,29.915],[114.171,29.921],[114.143,29.988],[114.147,30.083],[114.177,30.114],[114.249,30.141],[114.253,30.045],[114.301,30.025]]]}},{"type":"Feature","properties":{"layer":"lake"},"geometry":{"type":"Polygon","coordinates":[[[114.158,29.872],[114.137,29.862],[114.087,29.934],[113.969,29.88],[114.003,29.942],[113.944,29.966],[114.101,30.022],[114.158,29.872]]]}},{"type":"Feature","properties":{"layer":"lake"},"geometry":{"type":"Polygon","coordinates":[[[91.316,35.595],[91.268,35.528],[91.043,35.565],[90.95,35.634],[91.222,35.646],[91.316,35.595]]]}},{"type":"Feature","properties":{"layer":"lake"},"geometry":{"type":"Polygon","coordinates":[[[93.799,49.129],[93.397,48.991],[93.241,49.097],[92.865,49.225],[92.835,49.282],[93.059,49.322],[93.26,49.292],[93.471,49.205],[93.654,49.215],[93.799,49.129]]]}},{"type":"Feature","properties":{"layer":"lake"},"geometry":{"type":"Polygon","coordinates":[[[85.888,30.929],[85.802,30.759],[85.757,30.84],[85.692,30.87],[85.513,30.846],[85.352,30.944],[85.402,31.035],[85.476,31.045],[85.81,31.005],[85.875,30.978],[85.888,30.929]]]}},{"type":"Feature","properties":{"layer":"lake"},"geometry":{"type":"Polygon","coordinates":[[[97.887,34.838],[97.695,34.831],[97.683,34.792],[97.648,34.788],[97.603,34.798],[97.547,34.876],[97.644,34.978],[97.651,35.028],[97.763,35.088],[97.801,34.932],[97.887,34.838]]]}},{"type":"Feature","properties":{"layer":"lake"},"geometry":{"type":"Polygon","coordinates":[[[97.468,34.976],[97.36,34.865],[97.23,34.826],[97.084,34.907],[97.062,34.979],[97.231,35.023],[97.351,35.02],[97.468,34.976]]]}},{"type":"Feature","properties":{"layer":"lake"},"geometry":{"type":"Polygon","coordinates":[[[81.309,30.636],[81.212,30.611],[81.126,30.662],[81.185,30.721],[81.199,30.852],[81.234,30.863],[81.294,30.817],[81.252,30.753],[81.309,30.636]]]}},{"type":"Feature","properties":{"layer":"lake"},"geometry":{"type":"Polygon","coordinates":[[[81.584,30.7],[81.494,30.61],[81.434,30.591],[81.373,30.659],[81.376,30.758],[81.524,30.757],[81.584,30.7]]]}},{"type":"Feature","properties":{"layer":"lake"},"geometry":{"type":"Polygon","coordinates":[[[78.991,46.749],[79.052,46.808],[79.122,46.799],[79.222,46.72],[79.245,46.645],[79.217,46.61],[79.095,46.582],[79.023,46.447],[78.89,46.37],[78.465,46.392],[78.438,46.377],[78.445,46.297],[78.317,46.35],[78.128,46.319],[78,46.353],[78,46.621],[78.169,46.58],[78.297,46.469],[78.348,46.512],[78.359,46.623],[78.397,46.658],[78.476,46.625],[78.581,46.723],[78.63,46.747],[78.761,46.724],[78.823,46.795],[78.93,46.788],[78.991,46.749]]]}},{"type":"Feature","properties":{"layer":"lake"},"geometry":{"type":"Polygon","coordinates":[[[84.516,47.93],[84.427,47.857],[84.357,47.732],[84.242,47.706],[83.625,48.013],[83.259,48.095],[83.027,48.212],[83.039,48.25],[83.435,48.27],[83.498,48.305],[83.533,48.375],[83.392,48.5],[83.387,48.554],[83.471,48.858],[83.589,48.962],[83.747,49.039],[84.036,49.111],[84.121,49.159],[84.1,49.238],[83.849,49.417],[83.66,49.443],[83.426,49.573],[83.365,49.626],[83.391,49.652],[83.608,49.606],[83.964,49.726],[83.818,49.634],[83.729,49.535],[84.288,49.238],[84.361,49.161],[84.329,49.125],[83.609,48.91],[83.514,48.813],[83.487,48.718],[83.613,48.437],[83.919,48.397],[83.907,48.374],[83.682,48.353],[83.581,48.267],[84.051,48.083],[84.334,48.023],[84.516,47.93]]]}},{"type":"Feature","properties":{"layer":"lake"},"geometry":{"type":"Polygon","coordinates":[[[103.533,53.636],[103.725,53.602],[103.743,53.496],[103.609,53.552],[103.49,53.563],[103.44,53.519],[103.44,53.223],[103.374,53.107],[103.343,53.228],[103.343,53.572],[103.275,53.677],[102.868,53.79],[102.927,53.82],[103.117,53.774],[103.208,53.806],[103.003,54.068],[102.987,54.156],[103.017,54.283],[103.106,54.415],[103.173,54.424],[103.218,54.487],[103.186,54.627],[103.033,54.782],[103.07,54.921],[103.168,55],[103.287,55],[103.154,54.801],[103.279,54.578],[103.349,54.323],[103.463,54.16],[103.397,54.17],[103.318,54.303],[103.261,54.342],[103.144,54.239],[103.103,54.147],[103.16,54.001],[103.298,53.874],[103.33,53.779],[103.435,53.679],[103.533,53.636]]]}},{"type":"Feature","properties":{"layer":"lake"},"geometry":{"type":"Polygon","coordinates":[[[90.401,33.526],[90.394,33.436],[90.247,33.325],[90.033,33.385],[90.006,33.437],[90.186,33.416],[90.29,33.475],[90.289,33.638],[90.319,33.702],[90.401,33.526]]]}},{"type":"Feature","properties":{"layer":"lake"},"geometry":{"type":"Polygon","coordinates":[[[89.71,33.469],[89.935,33.523],[89.97,33.48],[89.83,33.256],[89.786,33.417],[89.71,33.469]]]}},{"type":"Feature","properties":{"layer":"lake"},"geometry":{"type":"Polygon","coordinates":[[[91.469,31.947],[91.424,32.062],[91.511,32.133],[91.529,31.966],[91.469,31.947]]]}},{"type":"Feature","properties":{"layer":"lake"},"geometry":{"type":"Polygon","coordinates":[[[87.415,31.852],[87.424,31.912],[87.49,31.954],[87.591,31.948],[87.596,31.903],[87.53,31.847],[87.415,31.852]]]}}]}